,date,temperature_2m,relativehumidity_2m,dewpoint_2m,apparent_temperature,precipitation_probability,precipitation,rain,showers,snowfall,snow_depth,weathercode,pressure_msl,surface_pressure,cloudcover,cloudcover_low,cloudcover_mid,cloudcover_high,visibility,windspeed_10m,windspeed_80m,windspeed_120m,windspeed_180m,winddirection_10m,winddirection_80m,winddirection_120m,winddirection_180m,windgusts_10m,temperature_80m,temperature_120m,temperature_180m
0,2025-10-22 00:00:00+00:00,10.8585005,83.0,8.08502,8.674943,0.0,0.0,0.0,0.0,0.0,0.0,3.0,1000.2,995.6407,100.0,5.0,0.0,100.0,24140.0,11.542478,21.659918,24.401318,,183.57626,195.42223,198.43504,,30.599998,10.915,10.964999,
1,2025-10-22 01:00:00+00:00,10.6085005,86.0,8.3632555,8.498861,0.0,0.0,0.0,0.0,0.0,0.0,3.0,1000.0,995.43756,100.0,0.0,63.0,100.0,24140.0,11.525623,22.180206,24.531002,,181.78987,193.13403,196.53491,,31.319998,10.565,10.615,
2,2025-10-22 02:00:00+00:00,10.5085,88.0,8.604417,8.461769,0.0,0.0,0.0,0.0,0.0,0.0,3.0,999.6,995.03784,100.0,0.0,55.0,100.0,24140.0,11.525623,21.542923,24.153835,,178.21013,189.61966,193.19061,,31.319998,10.415,10.464999,
3,2025-10-22 03:00:00+00:00,10.4585,90.0,8.887693,8.54015,0.0,0.0,0.0,0.0,0.0,0.0,3.0,999.5,994.9374,100.0,0.0,100.0,100.0,24140.0,11.159999,21.67487,24.332054,,180.0,191.49654,194.87573,,31.68,10.464999,10.514999,
4,2025-10-22 04:00:00+00:00,10.4585,91.0,9.051521,8.689139,0.0,0.0,0.0,0.0,0.0,0.0,3.0,999.4,994.8378,100.0,5.0,100.0,100.0,24140.0,10.440001,20.780453,23.476343,,180.0,194.03627,197.30061,,29.88,10.714999,10.815,
5,2025-10-22 05:00:00+00:00,10.6085005,91.0,9.199861,8.770961,0.0,0.0,0.0,0.0,0.0,0.0,3.0,999.5,994.9398,100.0,5.0,100.0,100.0,24140.0,11.183201,22.530937,25.23637,,183.69131,192.926,196.06006,,31.319998,10.815,10.865,
6,2025-10-22 06:00:00+00:00,10.6085005,89.0,8.870207,8.737104,0.0,0.0,0.0,0.0,0.0,0.0,3.0,999.3,994.7407,100.0,5.0,100.0,100.0,24140.0,10.805999,20.721119,23.63683,,178.0909,187.98924,191.65926,,28.44,10.865,10.964999,
7,2025-10-22 07:00:00+00:00,11.3085,86.0,9.050901,9.275688,11.0,0.0,0.0,0.0,0.0,0.0,3.0,999.5,994.95105,100.0,74.0,100.0,100.0,24140.0,12.245294,21.707731,24.111876,,178.31535,185.7105,187.88304,,32.399998,10.964999,10.865,
8,2025-10-22 08:00:00+00:00,11.4585,86.0,9.198249,9.518091,26.0,0.0,0.0,0.0,0.0,0.0,3.0,999.8,995.2519,100.0,100.0,100.0,100.0,24140.0,11.885453,21.707731,23.335014,,178.26433,185.7105,187.23683,,32.760002,11.415,11.264999,
9,2025-10-22 09:00:00+00:00,11.8585005,89.0,10.103091,10.203995,35.0,0.0,0.0,0.0,0.0,0.0,3.0,1000.2,995.6566,100.0,100.0,89.0,66.0,24140.0,11.659777,21.322214,23.27708,,188.88058,191.68935,191.84206,,33.48,11.665,11.514999,
10,2025-10-22 10:00:00+00:00,13.158501,83.0,10.334825,11.506445,29.0,0.0,0.0,0.0,0.0,0.0,3.0,1000.5,995.9758,100.0,100.0,5.0,72.0,24140.0,12.10157,19.829433,21.504248,,202.751,195.80258,196.88687,,28.08,11.764999,11.615,
11,2025-10-22 11:00:00+00:00,15.658501,70.0,10.203464,13.99942,17.0,0.0,0.0,0.0,0.0,0.0,3.0,1000.4,995.9154,89.0,57.0,5.0,62.0,24140.0,11.885453,19.878391,21.018446,,215.13428,215.41714,216.46933,,21.599998,13.714999,13.514999,
12,2025-10-22 12:00:00+00:00,16.0585,69.0,10.370868,14.696283,13.0,0.0,0.0,0.0,0.0,0.0,3.0,999.8,995.3242,100.0,100.0,10.0,84.0,24140.0,10.182337,16.80857,17.67566,,224.9999,223.26433,223.31535,,18.72,14.964999,14.764999,
13,2025-10-22 13:00:00+00:00,15.2585,73.0,10.448069,14.049103,27.0,0.0,0.0,0.0,0.0,0.0,3.0,1000.0,995.5109,100.0,100.0,5.0,61.0,24140.0,9.290511,16.1198,17.273888,,234.46223,240.57263,240.70874,,18.72,14.665,14.514999,
14,2025-10-22 14:00:00+00:00,15.658501,70.0,10.203464,14.35866,48.0,0.0,0.0,0.0,0.0,0.0,3.0,1000.0,995.51715,86.0,51.0,0.0,66.0,24140.0,9.422101,14.512064,15.314184,,226.54811,240.2552,239.74365,,16.919998,14.315,14.165,
15,2025-10-22 15:00:00+00:00,14.6085005,77.0,10.620814,13.723938,61.0,0.3,0.0,0.3,0.0,0.0,51.0,1000.0,995.5006,100.0,100.0,5.0,54.0,18660.0,7.4128532,10.948973,11.963187,,209.0545,223.66785,227.4896,,10.440001,14.165,14.014999,
16,2025-10-22 16:00:00+00:00,13.9585,80.0,10.563319,13.240984,57.0,0.3,0.0,0.3,0.0,0.0,51.0,1000.3,995.78925,100.0,100.0,33.0,100.0,20120.0,6.151683,11.200571,12.23657,,200.55612,224.9999,228.65231,,8.28,14.115,14.115,
17,2025-10-22 17:00:00+00:00,13.5585,80.0,10.173812,12.656502,45.0,0.0,0.0,0.0,0.0,0.0,3.0,1000.4,995.88257,100.0,34.0,100.0,100.0,24140.0,6.638072,10.464797,11.349276,,192.5288,206.56499,209.0545,,7.92,14.065,14.115,
18,2025-10-22 18:00:00+00:00,13.3085,81.0,10.11608,12.4129715,32.0,0.0,0.0,0.0,0.0,0.0,3.0,1000.5,995.978,100.0,6.0,101.0,100.0,24140.0,6.4799995,10.594036,10.961979,,180.0,189.78233,193.57045,,8.28,13.764999,13.815,
19,2025-10-22 19:00:00+00:00,13.0085,83.0,10.18811,12.127935,21.0,0.0,0.0,0.0,0.0,0.0,3.0,1000.6,996.0729,100.0,5.0,100.0,100.0,24140.0,6.519877,13.138765,13.909678,,186.3401,189.46225,192.20045,,10.08,13.565,13.665,
20,2025-10-22 20:00:00+00:00,12.5585,84.0,9.926747,11.603132,11.0,0.0,0.0,0.0,0.0,0.0,3.0,1000.7,996.1652,100.0,5.0,100.0,100.0,24140.0,6.519877,13.441071,14.559411,,173.6599,187.69595,190.17545,,11.159999,13.065,13.165,
21,2025-10-22 21:00:00+00:00,12.0085,86.0,9.738513,10.771004,3.0,0.0,0.0,0.0,0.0,0.0,3.0,1000.2,995.6589,95.0,6.0,84.0,48.0,24140.0,8.089993,15.84409,16.906525,,159.14546,178.69807,181.24533,,15.119999,12.514999,12.665,
22,2025-10-22 22:00:00+00:00,11.8085,86.0,9.542056,10.497579,0.0,0.0,0.0,0.0,0.0,0.0,3.0,999.8,995.25745,100.0,5.0,100.0,100.0,24140.0,8.217153,16.23596,17.637426,,151.1893,176.186,180.0,,14.759999,12.214999,12.415,
23,2025-10-22 23:00:00+00:00,11.8085,87.0,9.714355,10.680979,0.0,0.0,0.0,0.0,0.0,0.0,3.0,999.2,994.6602,100.0,5.0,100.0,100.0,24140.0,7.289444,16.343367,18.405357,,159.77505,172.40544,176.56644,,16.919998,12.014999,12.115,
24,2025-10-23 00:00:00+00:00,11.8585005,90.0,10.27035,10.744005,0.0,0.0,0.0,0.0,0.0,0.0,3.0,998.4,993.8648,100.0,66.0,100.0,5.0,24140.0,8.287822,16.418526,18.375994,,145.6196,164.74483,168.46541,,16.919998,12.014999,12.115,
25,2025-10-23 01:00:00+00:00,11.2085,93.0,10.1180525,9.830553,2.0,0.0,0.0,0.0,0.0,0.0,3.0,997.6,993.05817,87.0,40.0,5.0,71.0,24140.0,9.793059,19.930477,22.561327,,143.97253,159.92839,163.92636,,22.319998,11.665,11.764999,
26,2025-10-23 02:00:00+00:00,11.8085,90.0,10.220972,10.179073,5.0,0.0,0.0,0.0,0.0,0.0,3.0,996.2,991.6738,100.0,100.0,88.0,97.0,24140.0,11.720751,22.039528,24.867188,,132.5104,141.63248,145.84026,,28.44,11.565,11.714999,
27,2025-10-23 03:00:00+00:00,12.0585,89.0,10.300344,10.416158,6.0,0.0,0.0,0.0,0.0,0.0,3.0,995.4,990.8815,100.0,100.0,5.0,50.0,24140.0,11.966954,22.322903,24.989056,,136.2188,142.206,143.97253,,32.399998,11.815,11.764999,
28,2025-10-23 04:00:00+00:00,12.158501,89.0,10.3989725,10.171122,4.0,0.0,0.0,0.0,0.0,0.0,3.0,994.3,989.7881,100.0,100.0,10.0,100.0,24140.0,14.529915,24.703974,26.793365,,131.98714,136.77144,137.77924,,34.92,11.815,11.714999,
29,2025-10-23 05:00:00+00:00,12.1085005,90.0,10.517243,9.7460165,1.0,0.0,0.0,0.0,0.0,0.0,3.0,993.1,988.5926,100.0,100.0,100.0,100.0,24140.0,17.339897,29.09103,31.568323,,131.63345,139.01427,140.19447,,40.32,11.714999,11.565,
30,2025-10-23 06:00:00+00:00,11.658501,94.0,10.724884,9.396513,0.0,0.0,0.0,0.0,0.0,0.0,3.0,992.3,987.7894,100.0,10.0,9.0,100.0,24140.0,17.072504,29.131096,31.334364,,137.56381,140.01317,140.7106,,39.6,11.365,11.264999,
31,2025-10-23 07:00:00+00:00,12.0585,91.0,10.633755,9.769415,3.0,0.0,0.0,0.0,0.0,0.0,3.0,991.2,986.70056,100.0,63.0,5.0,100.0,24140.0,17.072504,29.522196,31.527668,,137.56381,142.43134,143.53067,,41.760002,11.415,11.264999,
32,2025-10-23 08:00:00+00:00,12.658501,89.0,10.892094,10.415675,8.0,0.0,0.0,0.0,0.0,0.0,3.0,990.4,985.9136,100.0,100.0,10.0,100.0,24140.0,17.283749,29.69727,31.766582,,144.3235,149.39368,150.173,,42.839996,12.065,11.915,
33,2025-10-23 09:00:00+00:00,14.5585,81.0,11.335067,12.23284,19.0,0.0,0.0,0.0,0.0,0.0,3.0,989.3,984.8481,98.0,60.0,35.0,92.0,24140.0,18.775303,29.949316,31.566189,,147.52882,154.35904,155.22488,,41.399998,13.615,13.415,
34,2025-10-23 10:00:00+00:00,14.2085,84.0,11.542834,11.918886,42.0,0.2,0.2,0.0,0.0,0.0,51.0,988.6,984.1457,100.0,100.0,100.0,100.0,24140.0,18.971008,32.042023,34.50867,,146.61147,152.57135,153.43501,,46.079998,14.014999,13.865,
35,2025-10-23 11:00:00+00:00,16.1585,76.0,11.924533,13.833473,71.0,0.1,0.0,0.1,0.0,0.0,51.0,987.8,983.3796,100.0,100.0,100.0,70.0,24140.0,20.037485,32.839024,34.878384,,162.21602,167.33495,168.45334,,45.36,15.514999,15.365,
36,2025-10-23 12:00:00+00:00,15.0585,88.0,13.0857315,12.830164,90.0,1.5,1.4,0.1,0.0,0.0,80.0,987.7,983.263,100.0,100.0,100.0,100.0,11460.0,22.007162,35.98559,38.70764,,195.17297,199.88525,199.9832,,46.44,15.014999,14.865,
37,2025-10-23 13:00:00+00:00,14.658501,89.0,12.86445,12.290113,90.0,0.7,0.59999996,0.1,0.0,0.0,53.0,987.4,982.9583,100.0,100.0,100.0,100.0,18600.0,22.45315,37.08699,39.699516,,167.96942,181.11238,181.59111,,46.079998,13.865,13.714999,
38,2025-10-23 14:00:00+00:00,15.0585,84.0,12.375283,12.756315,80.0,0.0,0.0,0.0,0.0,0.0,3.0,986.8,982.367,100.0,100.0,100.0,100.0,24140.0,20.883104,34.589985,36.77402,,179.01227,177.6141,177.70944,,42.839996,14.464999,14.315,
39,2025-10-23 15:00:00+00:00,14.8085,84.0,12.130453,12.692097,68.0,0.0,0.0,0.0,0.0,0.0,3.0,986.8,982.36304,100.0,5.0,100.0,100.0,24140.0,19.06301,32.569557,34.845463,,190.88548,193.42184,194.03627,,44.639996,14.565,14.415,
40,2025-10-23 16:00:00+00:00,15.158501,74.0,10.55586,12.915546,55.0,0.1,0.0,0.1,0.0,0.0,51.0,986.8,982.36865,100.0,79.0,53.0,100.0,24140.0,16.595179,30.10685,32.20977,,204.34108,206.25859,207.1496,,37.44,15.165,15.065,
41,2025-10-23 17:00:00+00:00,14.0585,74.0,9.494647,11.155968,40.0,0.0,0.0,0.0,0.0,0.0,3.0,987.8,983.3471,100.0,13.0,100.0,100.0,24140.0,19.0392,33.425762,35.416187,,195.35019,202.14523,202.57417,,39.239998,13.915,13.764999,
42,2025-10-23 18:00:00+00:00,13.8085,70.0,8.430392,10.03278,26.0,0.0,0.0,0.0,0.0,0.0,3.0,988.0,983.54224,100.0,5.0,100.0,100.0,24140.0,23.068108,38.96158,41.575058,,202.9638,206.32823,206.79144,,45.719997,13.615,13.514999,
43,2025-10-23 19:00:00+00:00,13.3585005,68.0,7.573279,9.454027,15.0,0.0,0.0,0.0,0.0,0.0,3.0,987.9,983.436,100.0,5.0,100.0,100.0,24140.0,22.461807,37.868507,40.445816,,201.63095,204.1284,204.70241,,45.0,13.065,12.915,
44,2025-10-23 20:00:00+00:00,13.158501,67.0,7.1654954,9.075992,6.0,0.0,0.0,0.0,0.0,0.0,3.0,988.7,984.2292,100.0,5.0,100.0,100.0,24140.0,23.000591,39.31259,42.237152,,197.30061,200.92458,201.43123,,46.8,12.815,12.665,
45,2025-10-23 21:00:00+00:00,12.8085,65.0,6.390726,8.560523,0.0,0.0,0.0,0.0,0.0,0.0,3.0,988.7,984.2237,100.0,56.0,100.0,100.0,24140.0,22.884789,38.714645,41.49379,,199.29015,202.98874,202.93213,,46.44,12.514999,12.365,
46,2025-10-23 22:00:00+00:00,12.7585,67.0,6.783975,8.323369,0.0,0.0,0.0,0.0,0.0,0.0,3.0,988.7,984.2228,100.0,100.0,100.0,100.0,24140.0,24.795612,41.616997,44.62015,,205.82094,210.11365,210.15446,,48.239998,12.315,12.165,
47,2025-10-23 23:00:00+00:00,12.0585,75.0,7.761709,7.8362865,0.0,0.0,0.0,0.0,0.0,0.0,3.0,988.5,984.0128,100.0,81.0,47.0,100.0,24140.0,24.962307,42.626186,45.569275,,213.23172,217.45065,217.794,,48.239998,11.464999,11.264999,
48,2025-10-24 00:00:00+00:00,12.5085,69.0,6.97399,7.90156,0.0,0.0,0.0,0.0,0.0,0.0,3.0,988.9,984.41815,100.0,100.0,100.0,100.0,24140.0,26.282463,42.51812,45.243675,,246.59529,248.64896,249.06264,,48.6,12.115,11.915,
49,2025-10-24 01:00:00+00:00,12.408501,68.0,6.66559,7.9777765,0.0,0.0,0.0,0.0,0.0,0.0,3.0,989.3,984.81476,100.0,100.0,100.0,100.0,24140.0,24.57511,40.946735,43.75544,,238.17259,240.50513,240.85202,,51.12,12.065,11.865,
50,2025-10-24 02:00:00+00:00,12.3085,68.0,6.5700336,7.855507,1.0,0.0,0.0,0.0,0.0,0.0,3.0,989.6,985.1119,100.0,100.0,100.0,100.0,24140.0,24.57511,40.502796,43.297905,,238.17259,239.56035,239.95364,,49.32,11.815,11.615,
51,2025-10-24 03:00:00+00:00,12.158501,63.0,5.3220334,7.3632927,3.0,0.0,0.0,0.0,0.0,0.0,3.0,990.3,985.8063,100.0,100.0,5.0,100.0,24140.0,25.0064,39.575443,42.237152,,247.1263,248.10175,248.56877,,47.88,11.665,11.514999,
52,2025-10-24 04:00:00+00:00,11.9585,60.0,4.433069,7.217305,7.0,0.0,0.0,0.0,0.0,0.0,3.0,991.2,986.69904,100.0,100.0,10.0,100.0,24140.0,23.358425,37.038036,39.782753,,245.4099,248.92242,248.88643,,45.0,11.464999,11.264999,
53,2025-10-24 05:00:00+00:00,11.7585,63.0,4.9431605,7.122979,12.0,0.0,0.0,0.0,0.0,0.0,3.0,991.7,987.1937,100.0,100.0,64.0,100.0,24140.0,23.358423,37.67637,40.42578,,241.46011,242.70052,242.96922,,45.0,11.115,10.915,
54,2025-10-24 06:00:00+00:00,11.7085,64.0,5.1220045,7.1832,16.0,0.0,0.0,0.0,0.0,0.0,3.0,992.5,987.98914,100.0,100.0,83.0,100.0,24140.0,22.862123,36.871452,39.27725,,243.8385,242.68448,242.71587,,46.079998,10.964999,10.815,
55,2025-10-24 07:00:00+00:00,11.6085005,64.0,5.027108,6.9653034,19.0,0.0,0.0,0.0,0.0,0.0,3.0,993.3,988.78394,100.0,100.0,5.0,75.0,24140.0,23.532547,38.71465,41.155632,,240.6901,239.85869,240.0014,,45.36,10.815,10.615,
56,2025-10-24 08:00:00+00:00,11.158501,66.0,5.041376,6.2211866,22.0,0.0,0.0,0.0,0.0,0.0,3.0,993.9,989.3741,100.0,100.0,5.0,100.0,24140.0,25.570139,41.180286,44.174633,,234.74356,238.95041,238.95457,,45.0,10.315,10.115,
57,2025-10-24 09:00:00+00:00,10.908501,70.0,5.649908,6.168457,26.0,0.0,0.0,0.0,0.0,0.0,3.0,995.0,990.4651,100.0,100.0,5.0,5.0,24140.0,25.11758,40.894478,43.55441,,242.7005,243.88614,244.51591,,48.239998,9.915,9.714999,
58,2025-10-24 10:00:00+00:00,11.408501,66.0,5.2794824,6.6925383,32.0,0.0,0.0,0.0,0.0,0.0,3.0,996.4,991.8667,100.0,100.0,5.0,0.0,24140.0,24.40046,38.600662,41.253937,,248.3555,250.38203,250.75803,,44.28,10.464999,10.214999,
59,2025-10-24 11:00:00+00:00,13.0085,57.0,4.684862,7.838291,39.0,0.1,0.0,0.1,0.0,0.0,51.0,997.0,992.48914,70.0,63.0,5.0,0.0,24140.0,26.654589,41.741375,44.381985,,253.52304,255.00487,255.61856,,43.92,11.264999,11.014999,
60,2025-10-24 12:00:00+00:00,13.2085,54.0,4.0987344,7.9222546,42.0,0.1,0.0,0.1,0.0,0.0,51.0,997.2,992.69147,86.0,64.0,52.0,0.0,24140.0,26.6327,41.4438,43.81403,,256.71512,258.98294,258.87857,,44.28,11.764999,11.514999,
61,2025-10-24 13:00:00+00:00,12.9585,53.0,3.60045,7.6214056,37.0,0.1,0.0,0.1,0.0,0.0,51.0,998.0,993.4841,97.0,96.0,5.0,0.0,20040.0,26.309572,42.525738,45.27798,,253.30067,256.78723,256.86597,,45.0,11.514999,11.315,
62,2025-10-24 14:00:00+00:00,12.408501,54.0,3.3545237,6.908478,27.0,0.1,0.0,0.1,0.0,0.0,51.0,998.8,994.27167,100.0,100.0,5.0,0.0,24140.0,27.103,42.34708,45.094215,,253.0091,255.72745,255.8505,,42.839996,11.514999,11.264999,
63,2025-10-24 15:00:00+00:00,11.5585,56.0,3.0768125,6.17198,19.0,0.0,0.0,0.0,0.0,0.0,1.0,999.6,995.0543,38.0,35.0,5.0,0.0,24140.0,25.96496,41.560905,44.29215,,253.0724,255.96373,256.079,,44.639996,10.865,10.665,
64,2025-10-24 16:00:00+00:00,10.9585,57.0,2.7654793,5.779745,14.0,0.0,0.0,0.0,0.0,0.0,3.0,1000.3,995.7417,100.0,54.0,100.0,0.0,24140.0,24.144167,39.389984,42.06579,,249.94382,251.89613,252.19803,,45.719997,10.365,10.165,
65,2025-10-24 17:00:00+00:00,10.7085,55.0,2.0295203,5.581645,9.0,0.0,0.0,0.0,0.0,0.0,3.0,1001.0,996.4345,100.0,60.0,100.0,0.0,24140.0,22.881958,37.63679,40.258442,,245.85446,248.09677,248.58696,,45.0,10.315,10.115,
66,2025-10-24 18:00:00+00:00,10.6085005,53.0,1.4183869,5.667963,6.0,0.0,0.0,0.0,0.0,0.0,3.0,1001.3,996.7316,100.0,5.0,100.0,100.0,24140.0,20.883102,35.14935,37.51014,,234.11777,237.12373,237.39967,,44.639996,10.065,9.915,
67,2025-10-24 19:00:00+00:00,10.408501,54.0,1.4932685,5.5006084,3.0,0.0,0.0,0.0,0.0,0.0,3.0,1001.4,996.828,100.0,18.0,100.0,100.0,24140.0,20.746122,35.65636,38.53109,,231.34018,234.86572,235.09743,,44.639996,9.915,9.764999,
68,2025-10-24 20:00:00+00:00,9.9585,61.0,2.7818956,5.0234795,1.0,0.0,0.0,0.0,0.0,0.0,3.0,1001.7,997.11914,100.0,5.0,100.0,100.0,24140.0,22.493519,38.59227,41.009388,,230.19447,233.3438,233.74606,,43.56,9.365,9.165,
69,2025-10-24 21:00:00+00:00,9.5085,63.0,2.8114135,4.5450497,0.0,0.0,0.0,0.0,0.0,0.0,3.0,1001.9,997.31104,100.0,5.0,100.0,100.0,24140.0,22.725668,38.59227,41.227745,,229.49724,233.3438,233.33427,,44.28,8.915,8.714999,
70,2025-10-24 22:00:00+00:00,9.3085,63.0,2.6218758,4.4920244,0.0,0.0,0.0,0.0,0.0,0.0,3.0,1001.9,997.308,100.0,5.0,100.0,100.0,24140.0,21.479664,37.372437,40.06682,,230.44037,234.0131,234.70656,,43.56,8.764999,8.565,
71,2025-10-24 23:00:00+00:00,9.0585,63.0,2.384943,4.205347,0.0,0.0,0.0,0.0,0.0,0.0,3.0,1001.9,997.30396,100.0,5.0,53.0,100.0,24140.0,21.437386,36.721764,39.096367,,229.08571,232.56833,233.02231,,42.48,8.615,8.464999,
72,2025-10-25 00:00:00+00:00,8.9585,63.0,2.2901654,4.31907,0.0,0.0,0.0,0.0,0.0,0.0,3.0,1001.5,996.9041,100.0,5.0,0.0,100.0,24140.0,19.85556,33.46451,35.990993,,224.9999,229.7999,229.9698,,41.760002,8.615,8.464999,
73,2025-10-25 01:00:00+00:00,8.7085,67.0,2.9195235,4.265148,0.0,0.0,0.0,0.0,0.0,0.0,0.0,1000.9,996.30286,16.0,5.0,0.0,10.0,24140.0,19.296135,32.409996,34.878384,,216.6562,220.94635,221.58331,,39.6,8.365,8.214999,
74,2025-10-25 02:00:00+00:00,8.658501,69.0,3.2877443,4.3019543,0.0,0.0,0.0,0.0,0.0,0.0,0.0,1000.3,995.70465,7.0,5.0,0.0,0.0,24140.0,19.174856,33.60171,36.116444,,219.6678,224.9999,225.41214,,39.96,8.365,8.165,
75,2025-10-25 03:00:00+00:00,9.5085,63.0,2.8114135,5.136791,0.0,0.0,0.0,0.0,0.0,0.0,3.0,999.9,995.3202,100.0,100.0,0.0,0.0,24140.0,18.668005,31.581665,33.526333,,219.5226,223.1524,223.66785,,36.36,8.615,8.415,
76,2025-10-25 04:00:00+00:00,9.7085,62.0,2.775031,5.330099,0.0,0.0,0.0,0.0,0.0,0.0,3.0,999.5,994.9252,100.0,100.0,0.0,5.0,24140.0,18.668005,30.551254,32.998646,,219.5226,224.04526,224.54892,,35.28,9.014999,8.815,
77,2025-10-25 05:00:00+00:00,9.5585,65.0,3.300744,5.145936,0.0,0.0,0.0,0.0,0.0,0.0,3.0,999.2,994.6243,100.0,100.0,5.0,5.0,24140.0,19.576189,33.283943,35.52277,,212.22873,218.85338,219.1226,,35.28,8.915,8.714999,
78,2025-10-25 06:00:00+00:00,9.2085,67.0,3.3967705,4.537957,0.0,0.0,0.0,0.0,0.0,0.0,3.0,999.0,994.4197,100.0,100.0,5.0,0.0,24140.0,21.470612,35.141975,37.416435,,214.75598,217.92653,218.22047,,41.039997,8.415,8.214999,
79,2025-10-25 07:00:00+00:00,9.0085,68.0,3.4157732,4.535528,0.0,0.0,0.0,0.0,0.0,0.0,3.0,998.8,994.21716,100.0,100.0,10.0,0.0,24140.0,20.140705,33.948975,36.183674,,208.85556,214.19565,214.65842,,42.839996,7.965,7.765,
80,2025-10-25 08:00:00+00:00,9.5085,68.0,3.89381,5.0823393,0.0,0.0,0.0,0.0,0.0,0.0,3.0,998.4,993.8271,100.0,100.0,39.0,0.0,24140.0,20.456745,34.746994,36.997307,,208.36896,214.0194,214.47928,,40.68,8.764999,8.565,
81,2025-10-25 09:00:00+00:00,10.8585005,64.0,4.3153205,6.132476,0.0,0.0,0.0,0.0,0.0,0.0,3.0,998.2,993.6498,100.0,5.0,100.0,0.0,24140.0,23.090569,37.54543,39.646763,,210.96368,214.452,214.42653,,38.88,9.615,9.365,
82,2025-10-25 10:00:00+00:00,11.908501,60.0,4.3859787,7.2838516,0.0,0.0,0.0,0.0,0.0,0.0,3.0,997.7,993.1686,100.0,5.0,100.0,0.0,24140.0,22.493519,37.179478,39.506893,,219.80553,223.4307,223.49261,,36.719997,10.565,10.315,
83,2025-10-25 11:00:00+00:00,12.5585,55.0,3.7547035,7.6356087,0.0,0.0,0.0,0.0,0.0,0.0,3.0,997.0,992.482,100.0,18.0,100.0,5.0,24140.0,23.675303,38.96823,41.332405,,224.38402,226.87172,226.80113,,36.36,11.214999,10.964999,
84,2025-10-25 12:00:00+00:00,13.0085,53.0,3.6468613,8.351068,0.0,0.0,0.0,0.0,0.0,0.0,3.0,996.0,991.4937,100.0,53.0,100.0,100.0,24140.0,21.710716,35.384537,37.41463,,220.29207,224.58784,224.9999,,37.44,11.714999,11.464999,
85,2025-10-25 13:00:00+00:00,12.8585005,57.0,4.544454,8.102222,6.0,0.1,0.0,0.1,0.0,0.0,51.0,995.3,990.79474,83.0,20.0,10.0,72.0,24140.0,23.617756,37.490158,39.821762,,217.56866,221.49637,221.63344,,38.519997,11.615,11.415,
86,2025-10-25 14:00:00+00:00,12.0585,60.0,4.5272536,7.433832,15.0,0.1,0.0,0.1,0.0,0.0,51.0,995.0,990.4833,100.0,100.0,10.0,90.0,24140.0,22.691423,36.95396,39.275528,,221.78442,222.23608,222.34575,,38.16,11.214999,11.014999,
87,2025-10-25 15:00:00+00:00,11.3085,67.0,5.400734,7.428973,26.0,0.1,0.0,0.1,0.0,0.0,51.0,994.9,990.372,100.0,100.0,14.0,100.0,24140.0,18.844202,32.37799,34.359676,,226.54811,228.15492,228.46832,,36.36,10.714999,10.514999,
88,2025-10-25 16:00:00+00:00,11.1085005,69.0,5.6338153,6.87047,41.0,0.1,0.0,0.1,0.0,0.0,51.0,995.0,990.46814,100.0,100.0,5.0,100.0,24140.0,21.650938,35.69632,38.265617,,227.02136,228.27058,228.50363,,37.44,10.464999,10.264999,
89,2025-10-25 17:00:00+00:00,10.408501,76.0,6.3588305,6.727539,58.0,0.2,0.2,0.0,0.0,0.0,51.0,995.0,990.4572,100.0,100.0,88.0,100.0,24140.0,18.947083,31.565245,34.03791,,218.82983,224.9999,225.43732,,39.239998,9.665,9.464999,
90,2025-10-25 18:00:00+00:00,10.4585,78.0,6.785139,6.4840803,68.0,0.1,0.1,0.0,0.0,0.0,51.0,995.0,990.4579,100.0,100.0,100.0,94.0,24140.0,21.638964,36.424103,39.004738,,224.32605,227.00253,227.29063,,43.199997,9.764999,9.565,
91,2025-10-25 19:00:00+00:00,10.408501,82.0,7.4670877,6.5357656,68.0,0.1,0.0,0.1,0.0,0.0,51.0,995.3,990.7558,100.0,100.0,100.0,75.0,24140.0,22.065973,36.84332,39.440193,,236.3099,236.15462,236.0138,,43.56,9.665,9.464999,
92,2025-10-25 20:00:00+00:00,10.908501,79.0,7.408582,7.2598076,62.0,0.1,0.1,0.0,0.0,0.0,51.0,995.9,991.36096,100.0,100.0,10.0,5.0,24140.0,20.431387,34.38895,36.909615,,255.71887,259.74887,260.25644,,40.32,10.315,10.165,
93,2025-10-25 21:00:00+00:00,10.7585,74.0,6.3100395,6.5842285,52.0,0.0,0.0,0.0,0.0,0.0,3.0,996.6,992.05554,100.0,53.0,100.0,100.0,24140.0,22.253124,37.330803,39.563244,,260.69012,263.35483,263.60114,,40.68,10.615,10.415,
94,2025-10-25 22:00:00+00:00,10.0085,78.0,6.348076,5.8947325,37.0,0.0,0.0,0.0,0.0,0.0,1.0,997.5,992.9393,29.0,13.0,5.0,10.0,24140.0,21.897945,36.35109,39.287563,,260.53775,262.0305,262.47626,,40.68,9.865,9.665,
95,2025-10-25 23:00:00+00:00,9.2085,81.0,6.1167645,5.1629963,19.0,0.0,0.0,0.0,0.0,0.0,2.0,998.2,993.62335,56.0,27.0,5.0,32.0,24140.0,21.068459,35.455887,38.062195,,253.11313,257.0926,257.1712,,41.760002,9.014999,8.815,
96,2025-10-26 00:00:00+00:00,8.7085,81.0,5.628935,4.5655203,6.0,0.0,0.0,0.0,0.0,0.0,3.0,998.2,993.61523,100.0,41.0,68.0,100.0,24140.0,20.991426,35.29102,37.76841,,247.8336,251.56496,252.44637,,42.839996,8.415,8.264999,
97,2025-10-26 01:00:00+00:00,8.2585,80.0,5.011302,3.9636192,1.0,0.0,0.0,0.0,0.0,0.0,2.0,998.1,993.50824,66.0,46.0,0.0,29.0,24140.0,21.120682,35.785156,38.166695,,240.37634,246.2716,246.14952,,41.039997,8.014999,7.8650002,
98,2025-10-26 02:00:00+00:00,7.9084997,79.0,4.490228,3.6411152,0.0,0.0,0.0,0.0,0.0,0.0,2.0,997.7,993.10443,75.0,5.0,0.0,70.0,24140.0,20.188908,33.818928,36.317757,,238.8611,242.0711,242.91653,,41.399998,7.6150002,7.465,
99,2025-10-26 03:00:00+00:00,7.5585,79.0,4.1496906,3.2390304,0.0,0.0,0.0,0.0,0.0,0.0,3.0,997.7,993.0986,100.0,5.0,0.0,100.0,24140.0,20.073025,33.847656,36.18927,,237.45,240.70874,240.83249,,42.12,7.315,7.1150002,
100,2025-10-26 04:00:00+00:00,7.3585,76.0,3.40495,3.0163126,0.0,0.0,0.0,0.0,0.0,0.0,0.0,997.8,993.1949,12.0,5.0,0.0,5.0,24140.0,19.228851,31.104082,33.660976,,231.84273,232.99739,233.88057,,40.68,6.915,6.765,
101,2025-10-26 05:00:00+00:00,6.9585,78.0,3.3851595,2.9654436,0.0,0.0,0.0,0.0,0.0,0.0,0.0,997.6,992.9893,7.0,5.0,5.0,0.0,24140.0,16.80857,28.019936,30.179855,,223.26433,227.08257,227.96101,,38.88,6.315,6.165,
102,2025-10-26 06:00:00+00:00,6.5585,81.0,3.5309942,2.7435985,0.0,0.0,0.0,0.0,0.0,0.0,0.0,997.2,992.5846,15.0,5.0,5.0,0.0,24140.0,15.778516,27.333935,29.174406,,214.77791,220.19197,220.91429,,39.6,6.015,5.8650002,
103,2025-10-26 07:00:00+00:00,6.9585,80.0,3.744597,2.892826,1.0,0.0,0.0,0.0,0.0,0.0,3.0,997.0,992.39215,83.0,10.0,77.0,0.0,24140.0,17.782686,30.096085,32.262123,,211.75943,216.73291,217.13101,,39.96,6.065,5.8650002,
104,2025-10-26 08:00:00+00:00,8.2085,73.0,3.654762,3.7768793,3.0,0.0,0.0,0.0,0.0,0.0,0.0,996.6,992.0142,7.0,5.0,0.0,0.0,21000.0,20.172853,33.233284,35.19246,,214.82455,219.72606,220.34167,,39.6,6.915,6.715,
105,2025-10-26 09:00:00+00:00,9.1085005,60.0,1.747919,3.8149529,10.0,0.0,0.0,0.0,0.0,0.0,0.0,996.1,991.53107,9.0,5.0,0.0,0.0,24140.0,23.688984,37.462494,39.794624,,216.34755,222.27362,222.3804,,42.12,7.765,7.515,
106,2025-10-26 10:00:00+00:00,9.8085,55.0,1.1899313,3.9226007,27.0,0.0,0.0,0.0,0.0,0.0,0.0,995.4,990.8459,12.0,10.0,0.0,0.0,24140.0,27.103003,43.057266,45.755554,,219.61066,222.62813,223.0475,,46.44,8.214999,7.965,
107,2025-10-26 11:00:00+00:00,8.3085,69.0,2.95251,2.3604689,48.0,0.2,0.2,0.0,0.0,0.0,51.0,995.0,990.42334,100.0,97.0,86.0,0.0,24040.0,29.655787,47.677917,50.500824,,213.11134,218.25447,218.2041,,54.0,6.765,6.465,
108,2025-10-26 12:00:00+00:00,4.6085,90.0,3.1091428,-1.479217,65.0,1.8,1.5999999,0.1,0.07,0.0,85.0,994.3,989.66583,100.0,100.0,100.0,100.0,5260.0,30.811037,51.984802,55.63143,,210.15997,216.55257,216.94568,,55.079998,3.515,3.265,
109,2025-10-26 13:00:00+00:00,4.3585,88.0,2.5453367,-1.4366727,73.0,0.9,0.9,0.0,0.0,0.0,53.0,993.2,988.5669,100.0,100.0,100.0,100.0,1800.0,28.091534,48.33796,51.38603,,210.83777,214.9921,215.39488,,61.199997,2.765,2.615,
110,2025-10-26 14:00:00+00:00,5.7695,89.0,4.096679,2.020399,100.0,2.2,1.9,0.4,0.0,0.0,61.0,992.1,987.4952,100.0,96.0,100.0,100.0,13880.0,16.08761,35.406506,42.76885,51.544155,220.46214,222.93988,225.68198,228.96475,43.92,5.1194997,4.5195,3.9195
111,2025-10-26 15:00:00+00:00,8.669499,86.0,6.458302,5.050041,88.0,0.9,0.8,0.2,0.0,0.0,61.0,992.3,987.7417,100.0,94.0,92.0,100.0,24140.0,18.681883,43.31983,53.737762,64.13761,244.91644,248.5522,250.83665,253.70113,46.44,8.419499,7.9195,7.3195
112,2025-10-26 16:00:00+00:00,9.8695,78.0,6.213066,5.4784927,68.0,0.8,0.1,0.7,0.0,0.0,80.0,992.9,988.3582,98.0,98.0,93.0,59.0,24140.0,23.587555,52.03961,60.95492,68.76848,254.05453,255.5792,257.03073,258.2195,59.399998,9.3195,8.7195,8.0195
113,2025-10-26 17:00:00+00:00,10.0195,73.0,5.400482,5.3049345,60.0,0.0,0.0,0.0,0.0,0.0,3.0,994.1,989.5552,100.0,99.0,98.0,100.0,20880.0,24.569832,53.975994,62.570652,70.3724,259.01938,260.78903,261.73013,262.94778,63.0,9.419499,8.8195,8.0195
114,2025-10-26 18:00:00+00:00,9.6195,77.0,5.783599,5.0446424,40.0,0.0,0.0,0.0,0.0,0.0,3.0,994.9,990.345,100.0,85.0,100.0,100.0,24140.0,24.18707,52.214897,60.445698,67.84925,255.3432,256.44278,257.61926,258.98822,62.279995,9.0195,8.419499,7.6194997
115,2025-10-26 19:00:00+00:00,9.5195,74.0,5.113991,4.8867073,13.0,0.1,0.0,0.1,0.0,0.0,3.0,995.8,991.2393,100.0,100.0,100.0,100.0,24140.0,23.587555,50.466812,58.769375,65.44974,254.05453,255.96373,256.90015,258.25745,59.399998,8.8195,8.2195,7.4195
116,2025-10-26 20:00:00+00:00,9.2695,73.0,4.677572,4.5805664,10.0,0.0,0.0,0.0,0.0,0.0,3.0,996.1,991.53394,100.0,92.0,99.0,3.0,24140.0,23.34455,49.950565,57.628117,64.00513,252.96214,254.96213,255.52966,256.6672,58.32,8.5195,7.9195,7.1194997
117,2025-10-26 21:00:00+00:00,8.8695,74.0,4.4864407,4.156225,8.0,0.0,0.0,0.0,0.0,0.0,3.0,996.4,991.826,100.0,100.0,98.0,0.0,24140.0,23.241617,49.510143,57.10285,63.41316,253.81071,255.2564,256.13895,257.54175,57.6,8.1195,7.4195,6.6194997
118,2025-10-26 22:00:00+00:00,8.169499,76.0,4.1905017,3.4465723,8.0,0.1,0.0,0.0,0.0,0.0,61.0,996.9,992.31213,100.0,95.0,100.0,10.0,24140.0,22.89611,48.908356,56.0549,62.43898,253.55954,254.63385,255.87448,257.00537,57.239998,7.4195,6.7194996,5.9195
119,2025-10-26 23:00:00+00:00,7.6695,71.0,2.7427154,2.9028559,5.0,0.0,0.0,0.0,0.0,0.0,3.0,996.9,992.30414,100.0,61.0,72.0,100.0,24140.0,21.288757,46.240036,53.45606,59.551437,251.25856,253.25795,254.37256,255.29166,56.519997,6.9195,6.3195,5.5195
120,2025-10-27 00:00:00+00:00,7.4694996,71.0,2.5504956,2.7840333,0.0,0.0,0.0,0.0,0.0,0.0,3.0,997.0,992.4005,98.0,80.0,95.0,48.0,24140.0,20.49156,43.38112,50.241608,56.583023,251.56496,252.61752,253.77257,255.2564,52.56,6.7194996,6.1194997,5.3195
121,2025-10-27 01:00:00+00:00,7.3195,68.0,1.800656,2.7869806,0.0,0.0,0.0,0.0,0.0,0.0,3.0,997.2,992.5971,96.0,58.0,89.0,3.0,24140.0,18.532133,39.777966,46.35061,52.25459,245.9245,248.77628,250.0168,251.93944,48.96,6.6194997,6.0195,5.2194996
122,2025-10-27 02:00:00+00:00,6.9195,67.0,1.2115747,2.6015258,3.0,0.0,0.0,0.0,0.0,0.0,3.0,996.3,991.69476,99.0,45.0,97.0,51.0,24140.0,16.375053,35.008957,40.91349,46.367386,236.65927,239.74364,241.63104,243.23607,45.0,6.3195,5.7194996,4.9195
123,2025-10-27 03:00:00+00:00,6.2695,74.0,1.975679,2.1670732,38.0,0.1,0.1,0.0,0.0,0.0,61.0,996.0,991.3852,100.0,94.0,100.0,12.0,24140.0,15.7908325,33.233284,38.457703,43.857986,226.8476,230.27394,231.84273,234.35289,39.6,5.5195,4.8195,4.1194997
124,2025-10-27 04:00:00+00:00,5.9195,81.0,2.9073825,2.0720387,60.0,0.1,0.1,0.0,0.0,0.0,61.0,995.1,990.4838,99.0,90.0,74.0,90.0,24140.0,15.192682,32.49785,38.03243,43.565945,216.32692,219.15543,220.77768,222.65584,37.8,5.1194997,4.5195,3.7195
125,2025-10-27 05:00:00+00:00,6.0195,83.0,3.3501747,2.32802,43.0,0.1,0.1,0.0,0.0,0.0,61.0,994.2,989.5896,97.0,85.0,93.0,51.0,24140.0,14.693999,31.853388,37.87535,44.52954,210.96368,214.40852,216.10754,219.09386,36.719997,5.3195,4.7194996,4.0195
126,2025-10-27 06:00:00+00:00,6.0195,87.0,4.0190406,2.2697048,80.0,0.7,0.7,0.0,0.0,0.0,61.0,993.3,988.6937,100.0,100.0,100.0,100.0,8840.0,15.986593,34.353127,40.377815,47.635765,215.83774,218.191,219.93633,222.85623,37.8,5.3195,4.7194996,4.0195
127,2025-10-27 07:00:00+00:00,6.0695,86.0,3.9035506,2.4426842,88.0,1.5,1.4,0.0,0.0,0.0,61.0,992.3,987.6993,100.0,100.0,100.0,100.0,7720.0,14.986553,32.20944,37.911266,44.53681,204.10223,207.99706,210.2172,212.79088,37.44,5.4195,4.8195,4.1194997
128,2025-10-27 08:00:00+00:00,6.4694996,85.0,4.129697,2.6690807,73.0,0.2,0.1,0.1,0.0,0.0,3.0,991.4,986.80994,100.0,85.0,100.0,100.0,22080.0,16.485485,35.246925,41.2636,46.95068,211.60745,214.17703,215.7702,217.83652,39.6,5.7194996,5.1194997,4.3195
129,2025-10-27 09:00:00+00:00,6.8694997,85.0,4.5222235,3.2374086,68.0,0.7,0.4,0.3,0.0,0.0,61.0,991.3,986.7169,100.0,98.0,100.0,100.0,22280.0,15.876775,33.651817,39.6752,45.656174,212.9694,214.54016,216.14214,217.95428,39.6,6.1194997,5.4195,4.7194996
130,2025-10-27 10:00:00+00:00,7.5195,86.0,5.3283725,4.2294283,45.0,0.5,0.2,0.2,0.0,0.0,61.0,990.9,986.32935,100.0,84.0,100.0,87.0,24140.0,14.693999,31.056128,36.288643,42.63987,210.96368,214.6112,216.52895,220.54874,39.6,6.6194997,6.0195,5.2194996
131,2025-10-27 11:00:00+00:00,8.6195,82.0,5.719228,5.4412937,48.0,0.1,0.0,0.1,0.0,0.0,3.0,990.7,986.1482,99.0,88.0,85.0,88.0,24140.0,14.512064,30.30208,35.428463,42.17535,223.99501,226.44406,227.88304,230.19447,40.68,7.6194997,6.9195,6.2194996
132,2025-10-27 12:00:00+00:00,8.669499,85.0,6.28845,5.9396944,83.0,0.4,0.0,0.4,0.0,0.0,80.0,990.3,985.7509,100.0,96.0,100.0,100.0,9320.0,12.313894,26.959166,32.783726,39.122574,232.12495,235.88548,238.9284,243.19923,34.2,7.9195,7.3195,6.7194996
133,2025-10-27 13:00:00+00:00,9.2695,84.0,6.7047005,6.372923,100.0,1.3,0.2,1.1,0.0,0.0,80.0,990.4,985.8601,100.0,81.0,100.0,100.0,6340.0,14.118243,30.5173,35.457714,40.53159,250.64091,252.84749,254.6938,257.692,34.2,8.419499,7.8195,7.0195
134,2025-10-27 14:00:00+00:00,9.0695,86.0,6.8512993,6.155857,100.0,1.1,0.2,0.9,0.0,0.0,80.0,990.4,985.8567,100.0,90.0,100.0,100.0,12400.0,14.471821,30.676142,36.04497,41.401566,264.2895,265.96237,267.13766,269.5018,35.28,8.3195,7.7194996,6.9195
135,2025-10-27 15:00:00+00:00,9.0195,85.0,6.631856,5.825736,90.0,1.1,0.3,0.8,0.0,0.0,80.0,991.8,987.2495,100.0,71.0,100.0,100.0,24140.0,16.039202,34.524353,40.25888,45.40569,279.0394,281.42706,282.91782,284.69736,40.32,8.3195,7.7194996,6.9195
136,2025-10-27 16:00:00+00:00,8.8195,85.0,6.435624,5.9513874,65.0,0.0,0.0,0.0,0.0,0.0,3.0,992.9,988.3411,97.0,76.0,88.0,0.0,24140.0,13.493999,30.147717,36.23861,42.626186,279.21094,281.71243,283.20795,285.6796,38.519997,8.2195,7.6194997,6.9195
137,2025-10-27 17:00:00+00:00,8.669499,87.0,6.626418,5.9053516,50.0,0.0,0.0,0.0,0.0,0.0,2.0,994.2,989.633,79.0,67.0,41.0,0.0,24140.0,13.084402,29.237675,35.377213,41.741375,277.90707,279.92618,282.33908,284.99512,33.12,8.1195,7.5195,6.8195
138,2025-10-27 18:00:00+00:00,8.2695,88.0,6.398774,5.520235,10.0,0.0,0.0,0.0,0.0,0.0,2.0,995.9,991.31866,94.0,72.0,77.0,0.0,24140.0,12.620554,28.08,34.2303,40.872288,266.72958,270.0,272.41098,275.55984,31.68,7.6194997,7.0195,6.3195
139,2025-10-27 19:00:00+00:00,8.3695,87.0,6.331266,5.4440365,5.0,0.1,0.0,0.1,0.0,0.0,3.0,996.7,992.11646,89.0,86.0,71.0,5.0,24140.0,13.722565,30.619051,36.721764,43.223995,265.48608,267.97867,269.4383,271.90912,34.2,7.7194996,7.1194997,6.3195
140,2025-10-27 20:00:00+00:00,8.3195,85.0,5.9450355,5.191449,0.0,0.0,0.0,0.0,0.0,0.0,3.0,997.5,992.91187,100.0,80.0,100.0,0.0,24140.0,14.512064,31.810638,37.524708,43.573387,262.8751,264.80566,266.14944,268.57977,35.28,7.6194997,7.0195,6.3195
141,2025-10-27 21:00:00+00:00,8.3195,86.0,6.11442,5.204301,0.0,0.1,0.0,0.1,0.0,0.0,3.0,997.9,993.31006,92.0,80.0,74.0,0.0,24140.0,14.685176,32.789658,39.160656,45.475567,258.6901,261.15826,263.1364,265.91446,36.719997,7.6194997,7.0195,6.3195
142,2025-10-27 22:00:00+00:00,8.419499,85.0,6.0431547,4.994363,0.0,0.2,0.0,0.2,0.0,0.0,80.0,998.6,994.0084,94.0,89.0,82.0,0.0,24140.0,16.700275,36.537785,43.29589,49.700863,262.5687,264.34567,266.186,268.33975,41.039997,7.7194996,7.1194997,6.4195
143,2025-10-27 23:00:00+00:00,8.5695,84.0,6.01884,5.1451397,8.0,0.1,0.0,0.1,0.0,0.0,3.0,999.3,994.7077,89.0,81.0,44.0,0.0,24140.0,16.65754,36.44722,43.223995,50.039997,263.79663,266.03543,268.09088,270.0,40.68,7.9195,7.3195,6.6194997
144,2025-10-28 00:00:00+00:00,8.4695,82.0,5.572664,4.776806,0.0,0.0,0.0,0.0,0.0,0.0,3.0,1000.1,995.50244,95.0,92.0,76.0,0.0,24140.0,17.81909,39.43931,46.220413,52.638844,261.87,264.23746,265.53293,266.8637,44.639996,7.8195,7.2194996,6.5195
145,2025-10-28 01:00:00+00:00,8.5695,79.0,5.13332,4.6780195,10.0,0.0,0.0,0.0,0.0,0.0,3.0,1000.6,996.0017,100.0,95.0,100.0,0.0,24140.0,18.532133,40.94832,48.074493,54.479076,262.18478,263.4374,264.8445,266.21118,46.44,7.9195,7.3195,6.5195
146,2025-10-28 02:00:00+00:00,8.6195,76.0,4.626348,4.5176945,8.0,0.0,0.0,0.0,0.0,0.0,3.0,1000.8,996.2017,97.0,84.0,92.0,0.0,24140.0,19.245697,42.340958,49.478718,55.893982,262.47626,264.14407,265.40955,266.67694,48.239998,7.9195,7.3195,6.5195
147,2025-10-28 03:00:00+00:00,8.5695,76.0,4.5779214,4.405657,8.0,0.0,0.0,0.0,0.0,0.0,3.0,1001.4,996.7981,85.0,70.0,57.0,0.0,24140.0,19.602652,42.73702,49.86747,56.63453,262.61404,263.7132,265.03033,266.3556,48.96,7.8195,7.2194996,6.4195
148,2025-10-28 04:00:00+00:00,8.3195,76.0,4.3357863,4.158251,0.0,0.0,0.0,0.0,0.0,0.0,2.0,1002.2,997.5902,78.0,70.0,15.0,0.0,24140.0,19.245697,42.340958,49.15022,55.175213,262.47626,264.14407,264.95764,266.6336,48.96,7.6194997,7.0195,6.2194996
149,2025-10-28 05:00:00+00:00,8.169499,77.0,4.37717,4.2766438,0.0,0.0,0.0,0.0,0.0,0.0,3.0,1003.0,998.38403,97.0,97.0,0.0,0.0,24140.0,17.462784,38.761486,45.1739,50.841637,261.70294,263.60114,264.971,266.75272,47.88,7.4195,6.8195,6.0195
150,2025-10-28 06:00:00+00:00,7.7194996,79.0,4.30634,4.0004873,0.0,0.0,0.0,0.0,0.0,0.0,3.0,1003.7,999.0737,86.0,78.0,11.0,0.0,24140.0,16.171976,35.016357,41.47506,47.021015,253.17851,255.10648,256.44623,258.51804,43.56,7.0195,6.4195,5.6194997
151,2025-10-28 07:00:00+00:00,7.8195,77.0,4.0376506,4.0807285,0.0,0.0,0.0,0.0,0.0,0.0,3.0,1003.6,998.9757,100.0,70.0,100.0,100.0,24140.0,15.937878,34.51685,40.257275,45.494087,251.56496,253.6441,254.96951,256.73352,39.239998,7.0195,6.3195,5.5195
152,2025-10-28 08:00:00+00:00,8.0695,76.0,4.093644,4.482538,0.0,0.0,0.0,0.0,0.0,0.0,3.0,1003.6,998.97974,100.0,53.0,100.0,100.0,24140.0,14.973577,32.058197,36.776424,41.38121,242.81897,245.44955,246.94867,248.56877,39.239998,7.1194997,6.4195,5.6194997
153,2025-10-28 09:00:00+00:00,8.2695,75.0,4.0983586,4.9705896,35.0,0.1,0.0,0.0,0.0,0.0,3.0,1003.4,998.7841,100.0,49.0,100.0,91.0,24140.0,13.004922,27.155552,31.608328,35.65636,228.36655,231.45879,232.86899,234.86572,36.719997,7.3195,6.6194997,5.8195
154,2025-10-28 10:00:00+00:00,8.2695,80.0,5.0220203,5.1137743,90.0,0.3,0.3,0.0,0.0,0.0,61.0,1003.0,998.3859,99.0,87.0,90.0,74.0,9240.0,13.324863,28.583183,33.127823,38.18716,218.41809,220.91429,222.35739,225.76381,34.2,7.4195,6.7194996,6.0195
155,2025-10-28 11:00:00+00:00,8.0195,87.0,5.986914,5.4204216,98.0,1.5,1.3,0.2,0.0,0.0,61.0,1001.7,997.08795,100.0,100.0,100.0,100.0,6000.0,10.948973,23.893261,28.162954,33.481937,207.40749,210.81564,212.47118,216.25392,32.760002,7.2194996,6.6194997,5.8195
156,2025-10-28 12:00:00+00:00,8.3195,91.0,6.9361,5.9605026,98.0,1.5,1.4,0.1,0.0,0.0,61.0,1000.8,996.19666,100.0,100.0,100.0,0.0,7460.0,10.805999,23.14103,28.001427,34.925564,181.9091,185.35573,188.13002,194.32275,26.64,7.4195,6.7194996,6.1194997
157,2025-10-28 13:00:00+00:00,8.669499,92.0,7.44223,6.081007,98.0,1.2,1.1,0.1,0.0,0.0,61.0,999.4,994.80914,97.0,96.0,90.0,0.0,13720.0,13.217443,29.15778,35.069984,43.619465,209.35765,212.90524,215.81125,221.31927,32.760002,7.9195,7.3195,6.8195
158,2025-10-28 14:00:00+00:00,9.7195,89.0,7.993328,7.178933,60.0,0.0,0.0,0.0,0.0,0.0,2.0,999.2,994.62683,81.0,73.0,52.0,0.0,15140.0,13.830749,31.056128,37.664326,45.5624,231.34016,235.3888,238.28491,243.23256,33.839996,9.1195,8.5195,7.9195
159,2025-10-28 15:00:00+00:00,10.4695,87.0,8.397214,8.076015,35.0,0.0,0.0,0.0,0.0,0.0,3.0,999.5,994.93756,90.0,74.0,71.0,0.0,21320.0,13.53236,30.7542,37.440002,44.513527,241.38963,244.33485,247.3801,251.12535,34.2,9.919499,9.3195,8.7195
160,2025-10-28 16:00:00+00:00,10.7695,86.0,8.521418,8.255747,23.0,0.0,0.0,0.0,0.0,0.0,3.0,1000.0,995.44006,93.0,83.0,60.0,0.0,24140.0,14.578888,33.137604,40.513992,47.798725,249.77505,252.94295,255.59328,258.26694,42.48,10.3195,9.8195,9.1195
161,2025-10-28 17:00:00+00:00,10.7195,85.0,8.299694,7.9948807,55.0,0.3,0.0,0.3,0.0,0.0,80.0,1000.8,996.2358,63.0,63.0,0.0,0.0,24140.0,15.629971,35.58359,42.67177,49.698254,255.32356,258.91748,260.77615,262.92654,44.28,10.3195,9.7195,9.0195
162,2025-10-28 18:00:00+00:00,10.419499,85.0,8.005385,7.797674,33.0,0.0,0.0,0.0,0.0,0.0,3.0,1001.5,996.9275,98.0,95.0,48.0,0.0,24140.0,14.408997,32.908016,39.609814,46.96724,257.00537,259.91946,262.16455,265.1635,38.519997,9.919499,9.419499,8.7195
163,2025-10-28 19:00:00+00:00,10.419499,84.0,7.8313866,7.727726,15.0,0.0,0.0,0.0,0.0,0.0,3.0,1002.4,997.8234,84.0,81.0,4.0,0.0,24140.0,14.587776,33.541878,40.60347,47.555443,254.24875,257.6046,259.78607,262.60608,36.719997,9.919499,9.419499,8.7195
164,2025-10-28 20:00:00+00:00,10.169499,84.0,7.586464,7.4167347,18.0,0.1,0.0,0.1,0.0,0.0,2.0,1003.2,998.6157,78.0,66.0,39.0,0.0,24140.0,14.587776,33.541878,40.60347,47.912468,254.24875,257.6046,259.78607,262.6615,40.32,9.7195,9.1195,8.419499
165,2025-10-28 21:00:00+00:00,10.2195,82.0,7.2824464,7.3271923,3.0,0.0,0.0,0.0,0.0,0.0,3.0,1004.1,999.5125,89.0,81.0,34.0,0.0,24140.0,15.034041,34.488674,41.514103,48.774353,253.30067,256.1088,258.4952,261.51114,37.8,9.7195,9.2195,8.5195
166,2025-10-28 22:00:00+00:00,10.0195,82.0,7.087057,7.1302805,0.0,0.0,0.0,0.0,0.0,0.0,3.0,1004.9,1000.30585,90.0,82.0,48.0,0.0,24140.0,14.689589,33.1845,40.25888,47.590855,252.89719,254.90837,257.08218,259.54013,37.8,9.5195,9.0195,8.3195
167,2025-10-28 23:00:00+00:00,9.919499,80.0,6.6295147,6.886318,0.0,0.0,0.0,0.0,0.0,0.0,3.0,1005.3,1000.7021,87.0,78.0,23.0,0.0,24140.0,14.934577,33.971867,41.090492,48.366104,254.62369,257.1419,258.887,261.87,37.079998,9.5195,8.919499,8.2195
168,2025-10-29 00:00:00+00:00,9.1195,82.0,6.2077584,6.311695,0.0,0.0,0.0,0.0,0.0,0.0,2.0,1006.3,1001.6846,64.0,64.0,0.0,0.0,24140.0,12.72283,29.882166,36.885506,45.664692,244.8852,248.07036,251.21129,255.85417,37.079998,8.7195,8.2195,7.7194996
169,2025-10-29 01:00:00+00:00,8.7695,84.0,6.2148046,6.0711403,0.0,0.0,0.0,0.0,0.0,0.0,2.0,1006.2,1001.57947,55.0,55.0,0.0,0.0,24140.0,11.983188,28.220419,35.58359,45.429943,237.26477,240.16455,244.21272,250.55988,32.039997,8.3195,7.9195,7.5195
170,2025-10-29 02:00:00+00:00,8.5695,85.0,6.190332,5.8655634,0.0,0.0,0.0,0.0,0.0,0.0,2.0,1006.7,1002.0737,68.0,68.0,0.0,0.0,24140.0,11.983188,28.357855,36.55906,47.01688,237.26477,241.15744,244.94905,251.70369,29.16,8.2195,7.8195,7.4195
171,2025-10-29 03:00:00+00:00,8.5695,84.0,6.01884,5.8197327,0.0,0.0,0.0,0.0,0.0,0.0,2.0,1006.8,1002.1732,54.0,54.0,0.0,0.0,24140.0,12.031756,28.257132,36.575005,47.827187,231.07245,235.90497,241.1646,250.20103,29.88,8.1195,7.7194996,7.6194997
172,2025-10-29 04:00:00+00:00,8.1195,86.0,5.9179125,5.5015364,0.0,0.0,0.0,0.0,0.0,0.0,1.0,1007.6,1002.9623,42.0,42.0,0.0,0.0,24140.0,10.97262,26.574244,35.9946,49.184483,228.99101,234.372,239.33115,250.76923,29.519999,7.8195,7.6194997,7.8195
173,2025-10-29 05:00:00+00:00,7.6194997,87.0,5.5933595,5.0815983,0.0,0.0,0.0,0.0,0.0,0.0,1.0,1007.7,1003.05365,39.0,39.0,0.0,0.0,24140.0,9.931042,25.305208,36.74999,49.677387,223.53127,230.19447,237.39967,249.2009,26.64,7.4195,7.5195,8.0195
174,2025-10-29 06:00:00+00:00,7.3694997,86.0,5.180984,4.738595,0.0,0.0,0.0,0.0,0.0,0.0,2.0,1008.3,1003.6468,74.0,44.0,0.0,49.0,24140.0,9.957108,25.72174,37.455574,49.1634,220.60121,226.70131,234.78232,246.25049,23.4,7.2194996,7.3195,8.0195
175,2025-10-29 07:00:00+00:00,7.4195,87.0,5.3965797,4.974518,0.0,0.0,0.0,0.0,0.0,0.0,3.0,1008.3,1003.6474,91.0,6.0,28.0,81.0,24140.0,9.0,23.686249,36.659946,47.08161,216.86998,223.1524,234.59305,246.57129,22.68,7.1194997,7.4195,8.1195
176,2025-10-29 08:00:00+00:00,8.4695,83.0,5.7476873,6.027871,0.0,0.0,0.0,0.0,0.0,0.0,3.0,1008.3,1003.6648,87.0,3.0,45.0,68.0,24140.0,9.504272,21.142147,33.121956,45.086315,217.30403,222.92996,232.50728,244.45802,23.039999,7.6194997,7.4195,8.1195
177,2025-10-29 09:00:00+00:00,9.919499,78.0,6.2616305,7.5512543,0.0,0.0,0.0,0.0,0.0,0.0,3.0,1008.3,1003.68835,87.0,5.0,85.0,36.0,24140.0,9.793059,18.947083,21.437386,36.674088,216.02747,218.82983,220.91429,238.65048,24.84,8.7195,8.0195,7.9195
178,2025-10-29 10:00:00+00:00,11.419499,73.0,6.749705,9.121475,0.0,0.0,0.0,0.0,0.0,0.0,1.0,1008.4,1003.81213,31.0,7.0,20.0,8.0,24140.0,10.086427,18.723461,20.466246,22.45315,214.82455,217.97166,219.28938,221.09941,25.56,9.919499,9.2195,8.419499
179,2025-10-29 11:00:00+00:00,12.8195,69.0,7.271656,10.637594,0.0,0.0,0.0,0.0,0.0,0.0,3.0,1008.2,1003.6356,84.0,25.0,43.0,58.0,24140.0,10.144082,18.089775,19.576189,20.570463,207.47435,211.15924,212.22873,212.85571,25.919998,11.2195,10.5195,9.6195
180,2025-10-29 12:00:00+00:00,14.1195,62.0,6.9453483,11.647804,0.0,0.0,0.0,0.0,0.0,0.0,2.0,1007.7,1003.1584,49.0,45.0,0.0,9.0,24140.0,11.592894,20.466246,21.986542,22.961115,216.15828,219.28938,219.68541,221.18582,27.0,12.5195,11.8195,10.919499
181,2025-10-29 13:00:00+00:00,14.2695,64.0,7.551657,11.921146,0.0,0.0,0.0,0.0,0.0,0.0,3.0,1006.9,1002.3645,95.0,69.0,0.0,82.0,24140.0,11.753876,21.915691,23.686249,24.951921,220.0302,222.33694,223.1524,223.83095,28.8,12.919499,12.2195,11.3195
182,2025-10-29 14:00:00+00:00,14.1195,66.0,7.8607917,11.931351,0.0,0.0,0.0,0.0,0.0,0.0,3.0,1006.7,1002.1629,84.0,66.0,28.0,35.0,24140.0,11.183201,22.26768,24.27265,25.992401,213.17853,214.46088,215.3402,216.55257,28.44,13.0195,12.3195,11.5195
183,2025-10-29 15:00:00+00:00,13.6195,69.0,8.037289,11.810234,0.0,0.0,0.0,0.0,0.0,0.0,3.0,1006.4,1001.8564,97.0,45.0,30.0,93.0,24140.0,8.891344,19.813087,23.34455,26.260265,201.37068,204.70241,206.56499,208.67305,27.0,12.919499,12.3195,11.5195
184,2025-10-29 16:00:00+00:00,12.7195,73.0,8.00231,11.356471,0.0,0.0,0.0,0.0,0.0,0.0,3.0,1006.1,1001.54333,100.0,8.0,100.0,100.0,24140.0,5.771239,17.208603,22.127556,25.9225,183.57626,195.78082,201.97456,207.27667,21.24,12.6195,12.2195,11.6195
185,2025-10-29 17:00:00+00:00,11.7695,80.0,8.431536,10.362251,0.0,0.0,0.0,0.0,0.0,0.0,3.0,1005.8,1001.2296,100.0,0.0,93.0,100.0,24140.0,6.830519,21.288757,26.368616,30.652895,161.56496,176.12155,184.6986,192.89374,15.119999,12.419499,12.3195,11.8195
186,2025-10-29 18:00:00+00:00,10.7695,85.0,8.348745,9.20604,0.0,0.0,0.0,0.0,0.0,0.0,3.0,1005.3,1000.7159,100.0,0.0,100.0,100.0,24140.0,7.754637,24.923338,32.407997,37.017033,158.19853,169.17703,178.727,187.26315,18.72,11.3195,11.5195,11.2195
187,2025-10-29 19:00:00+00:00,10.4695,85.0,8.054438,8.781649,0.0,0.0,0.0,0.0,0.0,0.0,3.0,1004.3,999.7157,100.0,0.0,100.0,100.0,24140.0,8.089993,25.050413,33.887836,40.609848,159.14546,172.56868,183.04471,192.80426,18.359999,10.8195,11.2195,11.3195
188,2025-10-29 20:00:00+00:00,10.1195,83.0,7.3620534,8.239538,0.0,0.0,0.0,0.0,0.0,0.0,3.0,1003.6,999.0133,100.0,0.0,100.0,100.0,24140.0,8.225035,24.993439,34.57687,41.750687,156.80139,168.3664,178.21013,187.43132,19.08,10.419499,10.8195,11.0195
189,2025-10-29 21:00:00+00:00,9.8695,84.0,7.2925496,7.8305244,0.0,0.0,0.0,0.0,0.0,0.0,3.0,1002.5,997.9143,100.0,0.0,93.0,100.0,24140.0,9.19939,26.420174,37.84283,45.05181,149.42085,160.08351,168.47632,177.25197,21.599998,10.0195,10.6195,11.0195
190,2025-10-29 22:00:00+00:00,9.7695,84.0,7.1945767,7.5858974,0.0,0.0,0.0,0.0,0.0,0.0,3.0,1002.3,997.71356,100.0,0.0,86.0,100.0,24140.0,10.028439,26.368616,39.834938,48.04348,158.96242,165.774,173.77426,184.7279,23.4,9.7195,10.419499,10.919499
191,2025-10-29 23:00:00+00:00,9.8195,81.0,6.7128606,7.505355,0.0,0.0,0.0,0.0,0.0,0.0,3.0,1001.3,996.7188,100.0,38.0,92.0,100.0,24140.0,10.137692,25.277023,40.32,51.045155,163.49556,169.33026,180.0,191.38914,24.48,9.419499,9.919499,10.8195
192,2025-10-30 00:00:00+00:00,9.7695,80.0,6.483391,7.46673,0.0,0.0,0.0,0.0,0.0,0.0,3.0,1000.9,996.32,100.0,63.0,76.0,100.0,24140.0,9.693296,24.798223,37.806854,46.741806,158.19853,166.56895,178.90881,192.00227,24.48,9.5195,10.3195,11.2195
193,2025-10-30 01:00:00+00:00,9.7195,80.0,6.4346814,7.3566074,5.0,0.0,0.0,0.0,0.0,0.0,3.0,999.6,995.02496,88.0,24.0,46.0,68.0,24140.0,10.028439,26.983194,40.326424,49.986877,158.96242,166.8908,178.97699,191.6336,24.119999,9.7195,10.419499,11.0195
194,2025-10-30 02:00:00+00:00,9.9695,79.0,6.4952383,7.618718,60.0,0.0,0.0,0.0,0.0,0.0,3.0,998.6,994.0336,100.0,0.0,90.0,96.0,24140.0,10.041354,26.079508,39.37353,51.461113,165.4655,173.6599,184.72005,199.19556,25.56,9.7195,9.919499,10.6195
195,2025-10-30 03:00:00+00:00,9.9695,84.0,7.390522,7.8175526,85.0,0.2,0.2,0.0,0.0,0.0,61.0,997.7,993.1378,100.0,21.0,100.0,100.0,17500.0,10.1376915,26.64,39.89508,51.54164,173.8846,180.0,190.39728,201.72716,24.84,9.7195,9.919499,10.8195
196,2025-10-30 04:00:00+00:00,10.2195,87.0,8.151282,8.257716,100.0,1.1,1.1,0.0,0.0,0.0,61.0,997.0,992.445,100.0,57.0,100.0,100.0,14900.0,10.1376915,26.649727,40.315178,55.239765,173.8846,181.54813,190.80818,200.20651,24.84,10.1195,10.2195,11.1195
197,2025-10-30 05:00:00+00:00,10.5695,88.0,8.664505,8.630466,100.0,1.8,1.8,0.0,0.0,0.0,61.0,995.9,991.3557,100.0,77.0,100.0,16.0,13880.0,10.8955765,27.009598,36.504074,55.82902,172.40544,178.4725,185.09203,196.09772,27.0,10.2195,10.0195,10.7195
198,2025-10-30 06:00:00+00:00,10.7695,88.0,8.86151,8.470449,100.0,3.0,2.9,0.0,0.0,0.0,63.0,995.4,990.861,100.0,80.0,100.0,100.0,19580.0,13.722565,32.24161,42.021423,56.275265,184.5139,186.41075,189.86574,196.34825,32.760002,10.3195,10.0195,9.6195
199,2025-10-30 07:00:00+00:00,11.2195,88.0,9.304763,8.762108,98.0,2.0,2.0,0.0,0.0,0.0,61.0,995.8,991.26636,100.0,83.0,100.0,0.0,18820.0,15.629971,35.494247,43.301876,52.199997,218.45374,220.47514,222.97864,226.39711,39.239998,10.7195,10.2195,9.6195
200,2025-10-30 08:00:00+00:00,11.9695,83.0,9.171828,9.112905,75.0,0.2,0.2,0.0,0.0,0.0,61.0,996.6,992.07446,88.0,72.0,66.0,0.0,24140.0,18.11841,40.64175,47.827187,54.496914,249.04414,251.40446,252.9289,254.67844,45.719997,11.3195,10.7195,10.0195
201,2025-10-30 09:00:00+00:00,11.8695,75.0,7.579018,8.039747,38.0,0.5,0.5,0.0,0.0,0.0,80.0,998.3,993.7652,88.0,79.0,37.0,0.0,24140.0,21.96,47.40668,54.88318,60.907055,259.6112,260.82388,262.08258,263.21112,55.079998,10.919499,10.3195,9.419499
202,2025-10-30 10:00:00+00:00,11.7695,74.0,7.285842,7.595525,28.0,0.5,0.5,0.0,0.0,0.0,80.0,1000.6,996.0532,100.0,79.0,100.0,0.0,13800.0,23.828083,50.46296,57.655094,63.385563,265.66776,267.13766,267.49496,268.37274,63.36,10.6195,9.919499,9.1195
203,2025-10-30 11:00:00+00:00,10.9695,77.0,7.092813,7.0738955,85.0,0.0,0.0,0.0,0.0,0.0,80.0,1002.5,997.9317,100.0,91.0,100.0,0.0,10560.0,21.599998,46.812458,54.043182,59.847767,270.0,271.32196,272.29056,273.1033,60.479996,10.1195,9.419499,8.6195
204,2025-10-30 12:00:00+00:00,10.8195,77.0,6.9473543,6.4691525,80.0,0.6,0.5,0.0,0.0,0.0,61.0,1003.5,998.92505,87.0,77.0,50.0,0.0,24140.0,24.48,51.131405,58.7076,64.88094,270.0,271.21027,271.75696,272.86234,59.76,9.8195,9.1195,8.3195
205,2025-10-30 13:00:00+00:00,11.169499,71.0,6.1055846,6.8848133,13.0,0.1,0.1,0.0,0.0,0.0,3.0,1004.9,1000.32434,87.0,87.0,0.0,0.0,24140.0,22.691425,47.521362,54.36,59.769756,268.18173,269.56595,270.0,271.03534,65.88,10.1195,9.419499,8.6195
206,2025-10-30 14:00:00+00:00,11.4695,68.0,5.7682605,7.309923,0.0,0.0,0.0,0.0,0.0,0.0,2.0,1006.0,1001.42395,80.0,63.0,44.0,0.0,24140.0,21.316135,44.732803,51.20106,56.201527,265.1561,266.3087,266.77554,267.79745,64.439995,10.5195,9.8195,9.0195
207,2025-10-30 15:00:00+00:00,11.2695,69.0,5.787951,7.607362,0.0,0.0,0.0,0.0,0.0,0.0,2.0,1007.4,1002.8145,57.0,45.0,28.0,0.0,24140.0,17.935081,38.592266,45.05756,51.127605,259.59235,261.41647,262.1937,263.12527,51.48,10.6195,10.0195,9.2195
208,2025-10-30 16:00:00+00:00,10.8195,69.0,5.3571243,7.2178793,0.0,0.0,0.0,0.0,0.0,0.0,2.0,1008.5,1003.9022,48.0,48.0,0.0,0.0,24140.0,16.87398,37.52471,45.05756,52.51683,258.92984,261.17032,262.1937,263.70328,43.56,10.419499,9.919499,9.2195
209,2025-10-30 17:00:00+00:00,10.3695,70.0,5.1329756,6.862875,0.0,0.0,0.0,0.0,0.0,0.0,1.0,1009.6,1004.9899,39.0,39.0,0.0,0.0,24140.0,15.893093,35.870163,43.631348,52.084423,256.9081,259.59235,261.93683,264.4471,40.68,10.1195,9.5195,8.919499
210,2025-10-30 18:00:00+00:00,10.169499,67.0,4.313918,6.416197,0.0,0.0,0.0,0.0,0.0,0.0,1.0,1010.8,1006.18097,35.0,35.0,0.0,0.0,24140.0,16.418526,36.23861,43.70257,52.388344,254.74483,256.79205,258.59753,261.70294,38.519997,9.8195,9.3195,8.7195
211,2025-10-30 19:00:00+00:00,9.6195,71.0,4.616541,6.1949997,0.0,0.0,0.0,0.0,0.0,0.0,1.0,1011.6,1006.96844,38.0,38.0,0.0,0.0,24140.0,14.587776,32.919827,40.66885,49.65521,254.24875,256.7236,259.28693,263.3388,37.44,9.3195,8.8195,8.3195
212,2025-10-30 20:00:00+00:00,9.1195,74.0,4.727813,5.919277,0.0,0.0,0.0,0.0,0.0,0.0,1.0,1012.3,1007.65704,37.0,37.0,0.0,0.0,24140.0,13.207634,30.385365,38.059677,48.04348,252.55272,256.29303,259.64673,265.2721,34.2,8.8195,8.3195,7.9195
213,2025-10-30 21:00:00+00:00,8.5695,77.0,4.765175,5.526638,0.0,0.0,0.0,0.0,0.0,0.0,1.0,1013.0,1008.3447,27.0,27.0,0.0,0.0,24140.0,12.181625,28.291512,36.57855,47.56906,251.0295,255.2564,259.79608,267.3975,30.960001,8.3195,7.9195,7.7194996
214,2025-10-30 22:00:00+00:00,7.9694996,81.0,4.9078774,5.1335964,0.0,0.0,0.0,0.0,0.0,0.0,2.0,1013.9,1009.23083,76.0,34.0,0.0,53.0,24140.0,10.966713,26.525429,36.080906,48.252083,246.80138,251.81085,257.90524,268.7175,28.08,7.7194996,7.5195,7.7194996
215,2025-10-30 23:00:00+00:00,7.5195,84.0,4.989977,4.8865395,0.0,0.0,0.0,0.0,0.0,0.0,3.0,1014.8,1010.1191,100.0,26.0,0.0,100.0,24140.0,9.693296,24.379204,35.543507,45.755417,248.19853,253.70587,263.01904,272.25452,25.56,7.3195,7.4195,7.6194997
216,2025-10-31 00:00:00+00:00,6.8694997,84.0,4.353018,4.248457,0.0,0.0,0.0,0.0,0.0,0.0,3.0,1015.3,1010.60596,100.0,21.0,0.0,100.0,24140.0,8.707237,23.565567,33.805515,41.476624,240.2552,251.28816,262.04257,273.4832,22.319998,6.8195,7.1194997,7.4195
217,2025-10-31 01:00:00+00:00,6.4694996,87.0,4.4618344,4.0328712,0.0,0.0,0.0,0.0,0.0,0.0,1.0,1015.8,1011.0969,42.0,20.0,0.0,24.0,24140.0,7.5942082,22.086521,30.141266,35.78697,238.57048,250.9743,262.45065,275.19434,19.44,6.8195,7.1194997,7.2194996
218,2025-10-31 02:00:00+00:00,5.8694997,90.0,4.3548813,3.5100036,0.0,0.0,0.0,0.0,0.0,0.0,0.0,1015.3,1010.5892,3.0,0.0,0.0,3.0,24140.0,6.9153743,21.933426,27.466372,30.274265,231.34016,246.80138,259.4265,272.72626,16.919998,6.6194997,6.9195,7.1194997
219,2025-10-31 03:00:00+00:00,5.5195,92.0,4.3226824,3.258667,0.0,0.0,0.0,0.0,0.0,0.0,1.0,1015.6,1010.882,25.0,0.0,25.0,0.0,24140.0,6.193674,21.461555,26.552288,27.72,234.46223,247.30617,257.4712,270.0,15.4800005,6.5195,7.0195,7.1194997
220,2025-10-31 04:00:00+00:00,5.3195,91.0,3.968837,3.1448412,0.0,0.0,0.0,0.0,0.0,0.0,1.0,1015.8,1011.07764,31.0,0.0,31.0,0.0,24140.0,5.1165614,19.33639,24.448214,24.881702,230.71062,245.82089,256.373,266.68228,13.679999,6.4195,7.1194997,7.2194996
221,2025-10-31 05:00:00+00:00,5.0195,91.0,3.6720886,2.934116,0.0,0.0,0.0,0.0,0.0,0.0,2.0,1016.4,1011.66986,62.0,0.0,0.0,62.0,24140.0,4.1046314,16.179987,20.858265,21.2522,217.87505,237.72438,248.74942,259.26114,11.159999,6.4195,7.1194997,7.3195
222,2025-10-31 06:00:00+00:00,3.9195,93.0,2.8905544,1.7360458,0.0,0.0,0.0,0.0,0.0,0.0,1.0,1016.2,1011.452,38.0,0.0,38.0,4.0,24140.0,3.7585104,15.281989,19.386593,19.386593,196.69933,223.09087,238.67136,248.19853,8.28,5.8195,7.0195,7.1194997
223,2025-10-31 07:00:00+00:00,4.0195,92.0,2.8370492,1.8492913,0.0,0.0,0.0,0.0,0.0,0.0,1.0,1016.8,1012.0508,11.0,0.0,11.0,0.0,24140.0,3.6,13.891522,17.31746,17.373497,180.0,211.21834,226.68465,235.9806,7.92,5.8195,7.1194997,7.2194996
224,2025-10-31 08:00:00+00:00,5.4195,85.0,3.0992568,3.184658,0.0,0.0,0.0,0.0,0.0,0.0,1.0,1017.0,1012.2736,21.0,0.0,0.0,21.0,24140.0,4.379589,14.408997,16.434305,15.696165,170.53775,192.99461,208.8107,216.60716,10.799999,5.9195,7.3195,7.6194997
225,2025-10-31 09:00:00+00:00,7.2194996,77.0,3.4555845,4.836568,0.0,0.0,0.0,0.0,0.0,0.0,2.0,1017.6,1012.90137,70.0,0.0,27.0,49.0,24140.0,5.8603754,11.525623,18.161278,17.193533,169.3804,178.21013,193.7608,199.57321,14.759999,5.9195,6.7194996,7.8195
226,2025-10-31 10:00:00+00:00,8.7195,72.0,3.9507947,6.3907146,0.0,0.0,0.0,0.0,0.0,0.0,3.0,1017.6,1012.9261,84.0,0.0,77.0,38.0,24140.0,6.151683,9.449572,14.081478,20.192118,159.44388,162.25523,175.60138,191.30989,16.199999,7.3195,6.7194996,7.8195
227,2025-10-31 11:00:00+00:00,10.169499,68.0,4.525708,7.7499657,0.0,0.0,0.0,0.0,0.0,0.0,2.0,1017.2,1012.55176,73.0,0.0,73.0,14.0,24140.0,7.5685663,11.91812,12.245293,20.523155,154.65387,154.98314,155.69547,178.99493,19.08,8.6195,7.9195,7.6194997
228,2025-10-31 12:00:00+00:00,11.919499,64.0,5.3222303,9.619698,0.0,0.0,0.0,0.0,0.0,0.0,2.0,1016.8,1012.1821,80.0,0.0,58.0,59.0,24140.0,7.8954163,12.57426,13.237039,13.570615,155.77226,156.3706,157.61983,158.19853,19.8,10.419499,9.7195,8.8195
229,2025-10-31 13:00:00+00:00,12.3695,63.0,5.5218744,9.87732,0.0,0.0,0.0,0.0,0.0,0.0,3.0,1016.0,1011.3931,100.0,0.0,77.0,98.0,24140.0,9.511088,16.904673,18.03237,18.837322,150.5242,153.43501,153.94656,153.9247,23.039999,11.1195,10.419499,9.5195
230,2025-10-31 14:00:00+00:00,12.3695,63.0,5.5218744,9.967699,0.0,0.0,0.0,0.0,0.0,0.0,3.0,1015.6,1010.99493,99.0,0.0,79.0,94.0,24140.0,8.891343,17.10284,18.532135,19.652176,148.24057,149.65683,150.9455,151.55717,23.039999,11.419499,10.7195,9.919499
231,2025-10-31 15:00:00+00:00,11.8195,65.0,5.4506288,9.344017,0.0,0.0,0.0,0.0,0.0,0.0,3.0,1015.5,1010.88654,100.0,0.0,90.0,100.0,24140.0,9.290511,20.570463,24.514387,28.657898,144.46223,147.14429,150.04648,153.11314,23.759998,11.2195,10.6195,9.8195
232,2025-10-31 16:00:00+00:00,11.0195,71.0,5.9614997,8.823627,0.0,0.0,0.0,0.0,0.0,0.0,3.0,1015.3,1010.6743,100.0,0.0,100.0,100.0,24140.0,8.14587,21.533897,29.268686,34.145008,135.0001,141.78893,148.06935,155.05612,21.96,10.7195,10.5195,10.1195
233,2025-10-31 17:00:00+00:00,10.3195,74.0,5.886281,8.069136,0.0,0.0,0.0,0.0,0.0,0.0,3.0,1015.3,1010.66296,100.0,0.0,100.0,100.0,24140.0,8.404285,24.063513,32.47591,37.249126,133.26433,141.07245,148.6006,156.65598,19.44,10.419499,10.6195,10.5195
234,2025-10-31 18:00:00+00:00,9.5695,78.0,5.9216733,7.327018,0.0,0.0,0.0,0.0,0.0,0.0,3.0,1015.5,1010.8497,100.0,0.0,100.0,100.0,24140.0,8.404285,24.29133,34.04808,38.82162,133.26433,140.4119,146.64597,155.33621,19.44,9.6195,10.0195,10.2195
235,2025-10-31 19:00:00+00:00,9.169499,80.0,5.898869,6.9219084,0.0,0.0,0.0,0.0,0.0,0.0,3.0,1015.4,1010.74384,100.0,0.0,100.0,100.0,24140.0,8.404285,24.27265,33.672993,38.141315,136.73567,144.6598,151.24298,160.70985,19.44,9.3195,9.7195,10.419499
236,2025-10-31 20:00:00+00:00,8.8695,82.0,5.9634957,6.4879084,0.0,0.0,0.0,0.0,0.0,0.0,3.0,1015.4,1010.7388,100.0,0.0,100.0,100.0,24140.0,9.422101,25.922499,34.966362,38.141315,133.45189,142.33432,151.06009,162.42006,21.599998,8.919499,9.419499,10.6195
237,2025-10-31 21:00:00+00:00,8.7195,81.0,5.639667,6.2540874,0.0,0.0,0.0,0.0,0.0,0.0,3.0,1015.1,1010.43756,100.0,0.0,100.0,100.0,24140.0,9.504272,24.20314,34.76377,38.848316,142.69597,149.62096,158.74942,172.54579,22.319998,8.419499,9.1195,10.6195
238,2025-10-31 22:00:00+00:00,8.5695,78.0,4.95029,5.9439526,0.0,0.0,0.0,0.0,0.0,0.0,3.0,1015.2,1010.53467,100.0,0.0,100.0,100.0,24140.0,9.585739,24.312662,34.763775,39.6,145.71307,152.6762,164.38055,180.0,23.4,8.3195,9.2195,10.919499
239,2025-10-31 23:00:00+00:00,8.419499,75.0,4.243418,5.733753,0.0,0.0,0.0,0.0,0.0,0.0,3.0,1014.6,1009.9348,100.0,0.0,100.0,100.0,24140.0,9.0,24.162947,33.39473,38.36492,143.13002,155.34412,168.81123,185.92448,22.319998,8.3195,9.3195,10.919499
240,2025-11-01 00:00:00+00:00,8.0195,74.0,3.6657138,5.310748,0.0,0.0,0.0,0.0,0.0,0.0,3.0,1014.6,1009.92847,100.0,0.0,100.0,100.0,24140.0,8.373386,23.83896,34.2303,40.456375,154.5367,165.12427,177.58902,191.80986,21.96,8.1195,9.3195,10.419499
241,2025-11-01 01:00:00+00:00,7.9694996,73.0,3.4243424,5.322832,0.0,0.0,0.0,0.0,0.0,0.0,3.0,1014.3,1009.6289,100.0,0.0,100.0,0.0,24140.0,7.628263,23.469128,32.97293,39.777966,160.70985,175.60138,190.69646,205.1735,19.08,8.419499,9.5195,10.5195
242,2025-11-01 02:00:00+00:00,7.6695,74.0,3.3277397,5.0707626,0.0,0.0,0.0,0.0,0.0,0.0,1.0,1014.2,1009.52435,42.0,0.0,42.0,0.0,24140.0,7.172949,23.770906,31.70658,36.719997,162.47433,178.26433,192.45824,208.07239,17.28,8.5195,9.419499,10.7195
243,2025-11-01 03:00:00+00:00,7.2194996,78.0,3.6387475,4.6950912,0.0,0.0,0.0,0.0,0.0,0.0,1.0,1014.4,1009.7162,7.0,0.0,7.0,0.0,24140.0,7.072878,23.469128,31.079071,35.844864,165.2564,184.39862,198.22517,213.53049,16.56,8.6195,9.5195,10.7195
244,2025-11-01 04:00:00+00:00,6.9195,81.0,3.8832834,4.6712465,0.0,0.0,0.0,0.0,0.0,0.0,0.0,1014.3,1009.6116,0.0,0.0,0.0,0.0,24140.0,5.506941,21.897945,29.49804,33.565056,168.69011,189.46225,203.7495,218.4679,15.4800005,8.5195,9.5195,10.5195
245,2025-11-01 05:00:00+00:00,6.8694997,85.0,4.5222235,4.8103094,0.0,0.0,0.0,0.0,0.0,0.0,1.0,1014.3,1009.6106,8.0,0.0,0.0,8.0,24140.0,5.0911684,20.617662,28.174458,31.122826,171.86998,192.09474,206.56499,221.24817,12.24,8.419499,9.5195,10.5195
246,2025-11-01 06:00:00+00:00,5.8694997,91.0,4.5128636,3.8866282,0.0,0.0,0.0,0.0,0.0,0.0,3.0,1013.8,1009.0961,100.0,0.0,0.0,100.0,24140.0,4.5536795,19.06301,25.9225,27.757376,161.56496,190.88548,207.27667,223.4235,10.799999,7.7194996,9.2195,10.7195
247,2025-11-01 07:00:00+00:00,6.2695,91.0,4.908512,4.257681,0.0,0.0,0.0,0.0,0.0,0.0,2.0,1013.7,1009.00323,48.0,0.0,0.0,48.0,24140.0,5.315336,20.519999,26.072052,26.674032,151.69934,180.0,197.68448,211.75943,11.5199995,8.0195,9.6195,11.0195
248,2025-11-01 08:00:00+00:00,7.6695,86.0,5.4757605,5.520089,0.0,0.0,0.0,0.0,0.0,0.0,3.0,1012.9,1008.2304,93.0,0.0,0.0,93.0,24140.0,7.0911775,22.007162,29.01743,31.079075,156.0375,176.24835,191.44931,205.3777,16.199999,8.3195,9.919499,11.5195
249,2025-11-01 09:00:00+00:00,9.919499,79.0,6.446602,7.975788,0.0,0.0,0.0,0.0,0.0,0.0,2.0,1012.9,1008.26733,67.0,0.0,0.0,67.0,24140.0,7.172949,19.201874,28.766228,34.366333,162.47433,173.54128,188.63705,202.80458,17.28,9.1195,10.3195,12.1195
250,2025-11-01 10:00:00+00:00,12.3195,73.0,7.616918,10.554976,0.0,0.0,0.0,0.0,0.0,0.0,2.0,1013.0,1008.40576,75.0,0.0,0.0,75.0,24140.0,7.8625183,14.408997,25.959969,36.204617,164.05453,167.00539,183.17976,199.1557,20.16,10.919499,10.919499,12.2195
251,2025-11-01 11:00:00+00:00,14.419499,69.0,8.8028145,12.742723,0.0,0.0,0.0,0.0,0.0,0.0,2.0,1012.4,1007.842,74.0,0.0,72.0,18.0,24140.0,9.346143,16.595179,18.289274,31.1374,164.3577,167.4712,169.79608,190.6603,23.039999,13.0195,12.3195,12.5195
252,2025-11-01 12:00:00+00:00,15.7695,66.0,9.431208,14.31315,0.0,0.0,0.0,0.0,0.0,0.0,3.0,1011.6,1007.0667,70.0,0.0,58.0,45.0,24140.0,9.0,17.727943,19.770523,24.482647,163.73972,167.09259,169.50858,179.1575,24.48,14.5195,13.8195,13.1195
253,2025-11-01 13:00:00+00:00,15.7455,64.0,8.951381,13.940495,5.0,0.0,0.0,0.0,0.0,0.0,3.0,1011.0,1006.46906,100.0,0.0,94.0,100.0,57100.0,10.495713,17.654688,19.011953,20.620806,157.8336,159.71736,161.22188,163.77974,23.4,14.7455,14.2455,13.7455
254,2025-11-01 14:00:00+00:00,15.7455,64.0,8.951381,13.916374,0.0,0.0,0.0,0.0,0.0,0.0,3.0,1011.4,1006.8673,100.0,48.0,93.0,99.0,57420.0,10.661107,19.562946,22.530937,27.181787,168.31065,167.24248,167.074,168.54128,23.759998,14.945499,14.445499,13.945499
255,2025-11-01 15:00:00+00:00,15.1455,69.0,9.497442,13.772186,33.0,0.1,0.1,0.0,0.0,0.0,61.0,1011.1,1006.55914,100.0,22.0,100.0,100.0,50520.0,8.557102,16.854767,20.037485,25.671307,157.75093,160.0168,162.21602,165.37909,22.68,14.445499,14.0455,13.6455
256,2025-11-01 16:00:00+00:00,14.445499,74.0,9.868017,13.078348,73.0,0.1,0.1,0.0,0.0,0.0,61.0,1010.7,1006.1499,100.0,6.0,100.0,100.0,42540.0,9.227524,18.899143,25.582806,31.569351,159.44388,162.25523,166.15929,172.79404,20.880001,13.945499,13.7455,13.945499
257,2025-11-01 17:00:00+00:00,13.695499,80.0,10.307219,12.348076,95.0,1.4000001,1.4000001,0.0,0.0,0.0,61.0,1011.2,1006.63605,100.0,46.0,100.0,100.0,30360.0,9.9571085,21.077686,29.528778,35.463196,167.4712,172.14677,178.60284,185.82625,21.96,13.2455,13.5455,13.8455
258,2025-11-01 18:00:00+00:00,12.9955,87.0,10.881884,11.904102,98.0,1.7,1.7,0.0,0.0,0.0,61.0,1011.3,1006.72424,100.0,76.0,100.0,100.0,15900.0,9.3669195,19.110542,28.594517,35.757988,177.79745,183.23964,190.88548,196.97559,22.319998,12.445499,12.3455,12.5455
259,2025-11-01 19:00:00+00:00,12.7955,90.0,11.19569,11.84342,100.0,1.2,1.2,0.0,0.0,0.0,61.0,1011.2,1006.62146,100.0,77.0,100.0,100.0,9060.0,9.0645685,19.083395,27.466372,34.726475,173.15732,181.0809,190.57347,199.37424,20.16,12.2455,12.2455,12.5455
260,2025-11-01 20:00:00+00:00,12.945499,92.0,11.676285,11.867817,100.0,1.3000001,1.3000001,0.0,0.0,0.0,61.0,1011.2,1006.62396,100.0,97.0,100.0,100.0,6580.0,10.948973,22.963936,28.691795,36.73588,189.46225,193.60056,197.52567,204.30453,25.199999,12.445499,12.1455,11.8455
261,2025-11-01 21:00:00+00:00,12.8955,93.0,11.790566,11.965729,70.0,1.4000001,1.4000001,0.0,0.0,0.0,61.0,1011.0,1006.4239,100.0,78.0,96.0,100.0,5400.0,10.182337,20.696085,24.933735,29.68636,188.13002,193.06932,197.6502,202.8337,26.64,12.3455,11.945499,11.5455
262,2025-11-01 22:00:00+00:00,13.0455,92.0,11.775296,12.3668,10.0,0.1,0.1,0.0,0.0,0.0,61.0,1011.0,1006.4265,100.0,73.0,82.0,100.0,5940.0,8.427383,17.709658,21.749483,26.562046,199.9832,206.56499,208.68605,212.82854,21.96,12.5455,12.1455,11.7455
263,2025-11-01 23:00:00+00:00,12.945499,93.0,11.840136,12.364965,5.0,0.0,0.0,0.0,0.0,0.0,3.0,1011.2,1006.62396,100.0,64.0,68.0,100.0,5100.0,7.8954163,17.581125,20.898613,28.90107,226.8476,227.4896,227.79277,230.55997,18.72,12.3455,11.945499,11.6455
264,2025-11-02 00:00:00+00:00,12.7955,96.0,12.173269,12.365837,0.0,0.0,0.0,0.0,0.0,0.0,3.0,1012.2,1007.61694,100.0,85.0,69.0,100.0,2760.0,7.5942082,16.263872,18.681883,22.127556,238.57048,242.30061,244.91644,248.02544,19.44,12.2455,11.8455,11.5455
265,2025-11-02 01:00:00+00:00,12.445499,97.0,11.982206,12.3193245,0.0,0.0,0.0,0.0,0.0,0.0,3.0,1011.5,1006.91473,100.0,67.0,100.0,100.0,1480.0,5.0911684,11.570515,15.484185,19.852295,261.87,264.64426,268.66782,274.15958,14.04,11.945499,11.8455,11.7455
266,2025-11-02 02:00:00+00:00,12.2455,97.0,11.782932,12.063301,0.0,0.0,0.0,0.0,0.0,0.0,3.0,1011.4,1006.8117,100.0,62.0,100.0,100.0,1500.0,5.04,11.542478,15.273505,18.861387,270.0,273.57626,278.13,283.24054,10.440001,11.7455,11.6455,11.445499
267,2025-11-02 03:00:00+00:00,11.8455,95.0,11.069931,11.412647,0.0,0.0,0.0,0.0,0.0,0.0,3.0,1011.7,1007.104,100.0,54.0,100.0,100.0,3920.0,5.2416787,12.605142,17.015474,20.617662,254.05453,268.36346,276.07236,282.09473,10.08,11.5455,11.7455,11.5455
268,2025-11-02 04:00:00+00:00,11.7955,92.0,10.537635,11.402333,5.0,0.0,0.0,0.0,0.0,0.0,3.0,1011.7,1007.10345,100.0,35.0,96.0,100.0,8520.0,3.8773184,9.47012,12.599999,14.869351,248.19853,261.2539,270.0,276.95285,11.5199995,11.5455,11.5455,11.2455
269,2025-11-02 05:00:00+00:00,11.3955,93.0,10.303452,10.974279,10.0,0.0,0.0,0.0,0.0,0.0,3.0,1011.9,1007.29596,100.0,80.0,100.0,100.0,6300.0,3.6,9.83268,12.758432,15.39184,233.13002,246.25049,253.61038,259.21576,10.440001,11.3455,11.2455,10.945499
270,2025-11-02 06:00:00+00:00,11.3455,95.0,10.572966,11.128389,23.0,0.0,0.0,0.0,0.0,0.0,3.0,1011.4,1006.7975,100.0,100.0,100.0,100.0,3080.0,2.7416782,8.209263,11.609651,14.764389,246.80138,254.74483,262.8751,268.60284,10.799999,10.945499,10.945499,10.6455
271,2025-11-02 07:00:00+00:00,11.3455,94.0,10.41417,10.89459,0.0,0.0,0.0,0.0,0.0,0.0,3.0,1011.5,1006.89703,100.0,44.0,100.0,100.0,4600.0,4.0249224,7.928177,9.585739,12.303366,190.3048,219.47243,235.71307,249.44386,8.28,10.945499,10.8455,10.6455
272,2025-11-02 08:00:00+00:00,11.6455,90.0,10.059997,10.947791,0.0,0.0,0.0,0.0,0.0,0.0,3.0,1012.5,1007.8973,100.0,73.0,100.0,100.0,8320.0,5.0142193,10.630672,14.186923,16.80857,201.03758,208.30066,215.70677,223.26433,10.799999,10.945499,10.945499,10.7455
273,2025-11-02 09:00:00+00:00,12.0455,89.0,10.287523,11.264555,5.0,0.0,0.0,0.0,0.0,0.0,3.0,1012.4,1007.8041,100.0,100.0,100.0,100.0,8380.0,6.0347,9.904906,14.182355,17.906157,197.35411,199.09358,203.9625,210.17343,14.759999,11.1455,10.8455,10.8455
274,2025-11-02 10:00:00+00:00,12.2955,89.0,10.534087,11.501493,0.0,0.0,0.0,0.0,0.0,0.0,3.0,1012.8,1008.2063,100.0,76.0,100.0,100.0,7900.0,6.6185193,9.83268,10.636766,14.982228,202.38017,203.7495,203.9625,215.21768,14.759999,11.3455,10.8455,10.6455
275,2025-11-02 11:00:00+00:00,12.7955,85.0,10.336132,12.062143,0.0,0.0,0.0,0.0,0.0,0.0,3.0,1012.0,1007.41785,100.0,73.0,100.0,100.0,15500.0,5.8048253,8.39657,8.891343,9.387651,209.7448,210.96368,211.75943,212.47118,14.759999,11.7455,11.2455,10.7455
276,2025-11-02 12:00:00+00:00,12.9955,81.0,9.8108225,11.705749,3.0,0.0,0.0,0.0,0.0,0.0,3.0,1011.3,1006.72424,100.0,56.0,100.0,100.0,22960.0,8.587338,13.684735,14.186923,14.689588,213.02386,215.36255,215.70677,216.02747,18.72,11.945499,11.445499,10.8455
277,2025-11-02 13:00:00+00:00,13.195499,78.0,9.442975,12.126526,0.0,0.0,0.0,0.0,0.0,0.0,3.0,1011.0,1006.429,100.0,55.0,32.0,100.0,30740.0,6.3690495,9.422101,9.931042,10.44,222.70937,223.45189,223.53127,223.60289,18.359999,12.1455,11.6455,11.0455
278,2025-11-02 14:00:00+00:00,13.2955,77.0,9.348042,11.755133,0.0,0.0,0.0,0.0,0.0,0.0,3.0,1011.3,1006.72925,100.0,65.0,15.0,100.0,33320.0,9.422101,15.273505,16.039202,16.29174,223.45189,224.9999,224.09071,224.9999,20.880001,12.2455,11.7455,11.2455
279,2025-11-02 15:00:00+00:00,12.8455,79.0,9.292359,11.8625965,0.0,0.0,0.0,0.0,0.0,0.0,3.0,1011.1,1006.5228,100.0,54.0,7.0,100.0,29820.0,5.495161,9.19939,9.511088,9.826088,238.39255,239.42085,240.5242,241.55717,21.96,11.945499,11.5455,10.945499
280,2025-11-02 16:00:00+00:00,12.3455,83.0,9.539618,11.591352,0.0,0.0,0.0,0.0,0.0,0.0,3.0,1011.5,1006.91315,100.0,38.0,76.0,100.0,23660.0,4.39436,9.0,10.464797,11.200571,214.9921,216.86998,220.81499,224.9999,14.04,11.7455,11.2455,10.7455
281,2025-11-02 17:00:00+00:00,11.8455,86.0,9.578401,11.310091,0.0,0.0,0.0,0.0,0.0,0.0,3.0,1011.7,1007.104,100.0,0.0,92.0,100.0,19120.0,2.968636,7.289445,8.942214,10.703569,194.03627,212.90524,220.10085,227.72638,10.799999,11.5455,11.2455,10.8455
282,2025-11-02 18:00:00+00:00,11.0955,92.0,9.844518,10.4691305,0.0,0.0,0.0,0.0,0.0,0.0,3.0,1011.9,1007.2912,100.0,0.0,100.0,100.0,7980.0,4.1046314,11.435313,13.779114,15.349684,195.25517,208.1785,213.2749,219.2894,7.92,11.1455,11.1455,10.7455
283,2025-11-02 19:00:00+00:00,10.8455,92.0,9.596972,10.2232275,0.0,0.0,0.0,0.0,0.0,0.0,3.0,1011.7,1007.088,100.0,13.0,100.0,100.0,8060.0,3.6,10.829958,13.70839,14.904173,180.0,201.4478,209.93143,217.14677,9.0,11.0455,11.1455,10.945499
284,2025-11-02 20:00:00+00:00,10.4955,92.0,9.250403,9.882622,0.0,0.0,0.0,0.0,0.0,0.0,3.0,1011.7,1007.0823,100.0,6.0,99.0,100.0,7800.0,2.8799999,9.826088,12.819235,14.512064,180.0,208.44283,218.15727,226.00499,6.8399997,10.945499,11.1455,11.1455
285,2025-11-02 21:00:00+00:00,10.1455,94.0,9.222921,9.315122,0.0,0.0,0.0,0.0,0.0,0.0,3.0,1012.3,1007.6739,100.0,38.0,100.0,100.0,5740.0,4.32,11.592895,15.124284,18.075441,180.0,205.76927,218.23386,225.80684,9.36,10.6455,11.0455,11.1455
286,2025-11-02 22:00:00+00:00,9.7955,93.0,8.717114,8.844789,3.0,0.0,0.0,0.0,0.0,0.0,3.0,1011.7,1007.0709,100.0,40.0,100.0,100.0,5600.0,4.2136917,9.9571085,12.904882,15.021105,160.0168,192.5288,210.1413,224.02907,9.0,10.2455,10.7455,10.945499
287,2025-11-02 23:00:00+00:00,9.7955,92.0,8.557253,8.778512,0.0,0.0,0.0,0.0,0.0,0.0,3.0,1012.2,1007.5686,100.0,58.0,100.0,100.0,6800.0,4.379589,12.015589,14.799459,16.610792,170.53775,188.61557,198.43504,209.8988,10.08,9.945499,10.3455,10.445499
288,2025-11-03 00:00:00+00:00,9.5455,93.0,8.469241,8.608797,5.0,0.0,0.0,0.0,0.0,0.0,3.0,1011.7,1007.06683,100.0,37.0,100.0,100.0,4740.0,3.671294,9.605998,12.397806,13.830749,168.69011,192.99461,205.82094,218.65984,8.28,9.6455,10.0455,10.2455
289,2025-11-03 01:00:00+00:00,9.445499,94.0,8.528007,8.447282,5.0,0.0,0.0,0.0,0.0,0.0,3.0,1012.1,1007.4633,100.0,89.0,100.0,100.0,4460.0,4.198285,11.200571,14.689588,17.22742,210.96368,224.9999,233.97253,243.97047,9.0,9.3455,9.7455,9.8455
290,2025-11-03 02:00:00+00:00,9.5955,92.0,8.359206,8.461252,20.0,0.0,0.0,0.0,0.0,0.0,3.0,1012.4,1007.76465,100.0,74.0,100.0,100.0,6020.0,4.829907,12.758432,17.163355,20.929596,243.43501,253.61038,260.34018,266.0549,11.159999,9.3455,9.5455,9.5455
291,2025-11-03 03:00:00+00:00,9.4955,92.0,8.260183,8.08201,40.0,0.0,0.0,0.0,0.0,0.0,3.0,1012.7,1008.06134,100.0,71.0,100.0,100.0,6460.0,6.5693827,15.188415,21.611998,28.082308,260.53775,264.55975,268.09088,270.7345,16.199999,8.945499,8.945499,9.0455
292,2025-11-03 04:00:00+00:00,9.4955,89.0,7.7723775,7.497838,58.0,0.0,0.0,0.0,0.0,0.0,3.0,1013.6,1008.95715,100.0,54.0,100.0,100.0,9680.0,9.726665,19.110542,22.392462,31.012281,272.12103,273.23962,274.61057,279.3529,21.24,8.8455,8.3455,8.3455
293,2025-11-03 05:00:00+00:00,9.0955,90.0,7.541488,7.093977,50.0,0.0,0.0,0.0,0.0,0.0,3.0,1014.3,1009.64764,92.0,86.0,69.0,0.0,7980.0,9.36,18.36353,21.611998,30.453527,270.0,271.1233,271.90912,276.78888,21.24,8.445499,7.9455,7.7454996
294,2025-11-03 06:00:00+00:00,9.2955,92.0,8.062134,7.424362,45.0,0.0,0.0,0.0,0.0,0.0,3.0,1015.2,1010.54663,100.0,100.0,68.0,0.0,6300.0,9.36,18.733839,22.725668,29.339449,270.0,272.20255,273.63287,276.3401,21.96,8.6455,8.1455,7.7454996
295,2025-11-03 07:00:00+00:00,9.6455,88.0,7.754309,7.221306,8.0,0.0,0.0,0.0,0.0,0.0,3.0,1015.6,1010.9505,100.0,88.0,100.0,0.0,11220.0,12.620554,23.803596,26.700743,29.957968,273.27042,273.46817,273.8654,274.13458,27.0,8.945499,8.445499,7.9455
296,2025-11-03 08:00:00+00:00,9.945499,86.0,7.7119255,7.24862,0.0,0.0,0.0,0.0,0.0,0.0,3.0,1016.7,1012.05054,90.0,82.0,44.0,0.0,15460.0,14.417988,27.086262,30.37683,32.59939,272.86234,274.57382,275.44025,276.3401,30.239998,9.0455,8.6455,8.0455
297,2025-11-03 09:00:00+00:00,10.4955,80.0,7.1906133,7.6734333,0.0,0.0,0.0,0.0,0.0,0.0,3.0,1016.8,1012.159,55.0,55.0,0.0,0.0,25380.0,14.4,26.28986,28.820242,31.012281,270.0,271.5693,272.14755,273.32733,36.719997,9.445499,8.945499,8.445499
298,2025-11-03 10:00:00+00:00,10.8955,74.0,6.4422784,7.834132,0.0,0.0,0.0,0.0,0.0,0.0,2.0,1017.8,1013.16113,75.0,63.0,0.0,30.0,36180.0,14.830076,26.437336,28.623962,30.096085,275.5721,276.25394,276.49924,276.8699,34.56,9.6455,9.1455,8.5455
299,2025-11-03 11:00:00+00:00,11.3955,67.0,5.483739,7.9720936,0.0,0.0,0.0,0.0,0.0,0.0,2.0,1018.3,1013.6668,93.0,93.0,0.0,0.0,50140.0,15.84,27.72,29.88217,31.32207,270.0,270.0,270.69025,270.6585,36.36,10.1455,9.6455,9.0455
300,2025-11-03 12:00:00+00:00,12.1455,61.0,4.8460755,8.740971,0.0,0.0,0.0,0.0,0.0,0.0,2.0,1018.2,1013.5793,77.0,77.0,0.0,0.0,60040.0,14.77755,25.570139,27.729347,28.802248,267.20737,268.3865,268.51218,269.28384,34.2,10.8455,10.3455,9.7455
301,2025-11-03 13:00:00+00:00,12.3455,60.0,4.797548,9.13701,0.0,0.0,0.0,0.0,0.0,0.0,2.0,1017.7,1013.0851,73.0,73.0,0.0,0.0,62080.0,13.363711,23.110207,24.881702,25.959969,265.36462,265.53293,266.68228,266.82022,33.48,11.1455,10.5455,10.0455
302,2025-11-03 14:00:00+00:00,12.3455,59.0,4.556779,9.009516,0.0,0.0,0.0,0.0,0.0,0.0,2.0,1018.5,1013.8814,37.0,24.0,14.0,0.0,64340.0,13.896187,24.627787,26.807312,28.291512,253.44284,254.74483,255.21722,255.2564,30.599998,11.2455,10.7455,10.1455
303,2025-11-03 15:00:00+00:00,12.1455,60.0,4.609192,9.405241,0.0,0.0,0.0,0.0,0.0,0.0,0.0,1018.9,1014.2761,0.0,0.0,0.0,0.0,64080.0,9.885262,18.892282,21.30093,23.532547,236.88864,239.0363,239.53453,240.6901,29.88,11.445499,10.945499,10.3455
304,2025-11-03 16:00:00+00:00,11.695499,61.0,4.42143,9.05854,0.0,0.0,0.0,0.0,0.0,0.0,3.0,1019.1,1014.46783,100.0,53.0,100.0,100.0,63680.0,8.913181,18.626305,21.986542,25.7041,226.63654,228.91835,230.31459,232.96953,21.96,11.1455,10.7455,10.2455
305,2025-11-03 17:00:00+00:00,10.8955,67.0,5.0066824,8.398144,0.0,0.0,0.0,0.0,0.0,0.0,3.0,1019.6,1014.95294,95.0,22.0,90.0,1.0,54120.0,8.78872,18.161278,22.159746,28.348713,214.9921,219.3693,223.02507,229.63554,19.08,10.3455,9.945499,9.7455
306,2025-11-03 18:00:00+00:00,10.2455,71.0,5.217966,7.472002,5.0,0.0,0.0,0.0,0.0,0.0,3.0,1020.0,1015.3403,97.0,20.0,88.0,53.0,47100.0,10.990322,21.67786,25.63847,34.11083,211.60745,215.53777,218.15727,224.9999,22.68,9.5455,9.1455,8.8455
307,2025-11-03 19:00:00+00:00,10.0955,72.0,5.275024,7.288456,23.0,0.0,0.0,0.0,0.0,0.0,2.0,1020.2,1015.53687,78.0,5.0,75.0,0.0,44700.0,11.304229,22.725668,26.493652,30.54701,217.23491,220.50276,222.79738,224.9999,24.84,9.5455,9.1455,8.6455
308,2025-11-03 20:00:00+00:00,9.8455,75.0,5.6223173,7.2608347,3.0,0.0,0.0,0.0,0.0,0.0,3.0,1020.1,1015.4334,98.0,9.0,96.0,0.0,39800.0,10.296251,20.746122,25.02971,33.864883,216.46933,218.65982,220.33307,226.29208,24.48,9.2455,8.8455,8.6455
309,2025-11-03 21:00:00+00:00,10.0455,72.0,5.2269106,7.3460445,10.0,0.0,0.0,0.0,0.0,0.0,3.0,1020.6,1015.93427,100.0,0.0,100.0,0.0,44780.0,10.495713,20.767975,25.488914,32.11071,210.96368,213.6901,216.38445,222.27362,23.039999,9.445499,9.1455,8.8455
310,2025-11-03 22:00:00+00:00,10.1455,72.0,5.3231387,7.495802,0.0,0.0,0.0,0.0,0.0,0.0,3.0,1020.2,1015.5378,100.0,72.0,100.0,14.0,44580.0,10.296251,20.696087,24.72495,33.46451,216.46933,220.06071,222.04915,229.7999,23.039999,9.5455,9.1455,8.945499
311,2025-11-03 23:00:00+00:00,10.2955,73.0,5.6664934,7.586981,3.0,0.0,0.0,0.0,0.0,0.0,3.0,1020.5,1015.839,100.0,75.0,100.0,86.0,42580.0,11.212135,21.892027,25.72174,34.778683,222.39738,224.9999,226.70131,233.84172,24.48,9.6455,9.2455,9.0455
312,2025-11-04 00:00:00+00:00,10.195499,75.0,5.960717,7.580344,0.0,0.0,0.0,0.0,0.0,0.0,3.0,1020.9,1016.2355,99.0,85.0,95.0,28.0,39240.0,11.019764,21.710716,25.72174,33.790176,218.36752,220.29207,223.29869,231.05418,24.48,9.6455,9.2455,9.0455
313,2025-11-04 01:00:00+00:00,10.0955,77.0,6.2452416,7.764642,0.0,0.0,0.0,0.0,0.0,0.0,3.0,1020.7,1016.03455,100.0,53.0,100.0,38.0,34980.0,9.511088,19.376562,24.014996,31.259941,209.4758,215.16652,220.13542,231.54626,23.039999,9.445499,9.1455,9.3455
314,2025-11-04 02:00:00+00:00,9.9955,78.0,6.335449,7.5210924,0.0,0.0,0.0,0.0,0.0,0.0,3.0,1020.5,1015.8338,97.0,91.0,93.0,51.0,31820.0,10.636766,20.774214,24.387178,32.17522,203.9625,207.89719,211.10875,220.46214,23.039999,9.2455,8.8455,8.8455
315,2025-11-04 03:00:00+00:00,9.2455,79.0,5.7909584,6.883892,0.0,0.0,0.0,0.0,0.0,0.0,3.0,1021.0,1016.3191,64.0,47.0,38.0,0.0,28300.0,9.021574,17.974781,22.89611,29.793125,208.61037,212.73521,216.68982,226.46873,23.4,8.5455,8.2455,8.445499
316,2025-11-04 04:00:00+00:00,8.9955,81.0,5.9089518,6.77744,0.0,0.0,0.0,0.0,0.0,0.0,3.0,1021.1,1016.4145,99.0,96.0,96.0,0.0,25200.0,8.217153,16.676977,24.063513,30.58517,208.8107,212.6609,218.92755,227.86247,19.8,8.3455,8.1455,8.6455
317,2025-11-04 05:00:00+00:00,9.0455,82.0,6.135458,6.8772163,0.0,0.0,0.0,0.0,0.0,0.0,3.0,1021.7,1017.01276,99.0,77.0,94.0,70.0,23520.0,8.225035,16.610792,23.688984,30.551254,203.19861,209.8988,216.34755,225.95474,17.64,8.445499,8.2455,8.7455
318,2025-11-04 06:00:00+00:00,9.0455,84.0,6.4852304,6.972275,0.0,0.0,0.0,0.0,0.0,0.0,2.0,1021.6,1016.91315,82.0,42.0,33.0,49.0,21120.0,8.12197,17.447933,24.079666,30.827856,192.80426,201.80147,211.55133,222.63371,18.0,8.5455,8.5455,9.2455
319,2025-11-04 07:00:00+00:00,9.1455,84.0,6.5832086,7.079977,0.0,0.0,0.0,0.0,0.0,0.0,3.0,1021.4,1016.7157,100.0,100.0,100.0,0.0,19000.0,8.225035,16.75064,25.277023,32.839027,203.19861,208.21725,215.7275,224.55591,18.0,8.5455,8.5455,9.1455
320,2025-11-04 08:00:00+00:00,9.695499,83.0,6.947232,7.8188763,0.0,0.0,0.0,0.0,0.0,0.0,3.0,1022.1,1017.42175,100.0,96.0,100.0,48.0,21660.0,7.5170207,15.315873,22.065973,29.784426,196.69933,203.55228,213.6901,224.51036,17.64,8.945499,8.7455,9.2455
321,2025-11-04 09:00:00+00:00,10.6455,80.0,7.3367276,8.737736,0.0,0.0,0.0,0.0,0.0,0.0,3.0,1022.4,1017.73596,100.0,100.0,100.0,100.0,27780.0,8.373386,15.990646,17.974781,26.478971,205.4633,211.18492,212.73521,223.89838,18.359999,9.8455,9.3455,9.3455
322,2025-11-04 10:00:00+00:00,11.3455,78.0,7.6465745,9.6225395,0.0,0.0,0.0,0.0,0.0,0.0,3.0,1022.4,1017.74744,100.0,81.0,100.0,100.0,31320.0,7.628263,14.039999,17.068707,22.545315,199.29015,202.6199,207.64589,218.51695,18.0,10.5455,10.0455,9.945499
323,2025-11-04 11:00:00+00:00,12.3955,75.0,8.087443,10.443691,0.0,0.0,0.0,0.0,0.0,0.0,3.0,1022.4,1017.76434,97.0,44.0,83.0,75.0,36940.0,9.9571085,16.516901,17.873554,24.696104,192.5288,196.4601,198.79999,210.6772,21.599998,11.3455,10.8455,10.5455
324,2025-11-04 12:00:00+00:00,14.695499,68.0,8.850472,13.052767,0.0,0.0,0.0,0.0,0.0,0.0,3.0,1022.2,1017.60236,5.0,0.0,4.0,3.0,49620.0,9.19939,14.57889,15.876775,16.575644,210.57915,212.90524,212.9694,214.3804,22.319998,13.5455,12.945499,12.445499
325,2025-11-04 13:00:00+00:00,15.1455,66.0,8.837362,13.471735,0.0,0.0,0.0,0.0,0.0,0.0,3.0,1021.3,1016.7134,100.0,7.0,0.0,100.0,52660.0,9.387651,14.88242,15.683774,16.179987,212.47118,212.15227,211.86594,212.27562,22.319998,13.945499,13.445499,12.945499
326,2025-11-04 14:00:00+00:00,15.1455,67.0,9.060279,13.601765,0.0,0.0,0.0,0.0,0.0,0.0,2.0,1021.4,1016.8129,55.0,0.0,3.0,52.0,52480.0,8.905908,13.797913,14.587776,15.034041,194.03627,195.12405,195.75124,196.69933,19.8,14.1455,13.6455,13.0455
327,2025-11-04 15:00:00+00:00,14.2955,69.0,8.684167,12.604612,0.0,0.0,0.0,0.0,0.0,0.0,1.0,1022.3,1017.69543,100.0,8.0,0.0,100.0,48340.0,9.227524,16.45007,17.727943,18.35647,200.55612,203.19861,203.9625,205.55992,20.16,13.445499,12.945499,12.445499
328,2025-11-04 16:00:00+00:00,13.3455,75.0,9.005611,12.139641,0.0,0.0,0.0,0.0,0.0,0.0,2.0,1022.5,1017.8792,72.0,12.0,0.0,64.0,40960.0,6.489992,13.910169,17.208603,20.188908,183.17976,190.43742,195.78082,201.99118,20.16,12.8455,12.5455,12.0455
329,2025-11-04 17:00:00+00:00,12.2455,81.0,9.079337,10.892395,0.0,0.0,0.0,0.0,0.0,0.0,2.0,1022.1,1017.46313,57.0,0.0,0.0,57.0,28940.0,7.6367526,17.373497,21.659918,24.675106,171.86998,185.94676,195.42223,203.19861,15.4800005,12.1455,12.2455,12.1455
330,2025-11-04 18:00:00+00:00,11.0955,83.0,8.316868,9.655799,0.0,0.0,0.0,0.0,0.0,0.0,1.0,1022.2,1017.54425,19.0,4.0,0.0,16.0,23780.0,6.849467,17.377226,23.210928,26.674032,176.98727,193.17256,203.78204,211.75943,15.4800005,11.1455,11.8455,12.0455
331,2025-11-04 19:00:00+00:00,10.195499,87.0,8.127672,8.775793,0.0,0.0,0.0,0.0,0.0,0.0,1.0,1022.0,1017.33044,16.0,0.0,0.0,16.0,16900.0,6.379216,16.62249,22.314194,26.242987,163.61038,184.96965,197.8504,206.91647,14.04,10.6455,11.7455,12.1455
332,2025-11-04 20:00:00+00:00,9.6455,88.0,7.754309,8.115347,0.0,0.0,0.0,0.0,0.0,0.0,3.0,1022.4,1017.7194,100.0,0.0,60.0,100.0,15240.0,6.489992,18.0036,24.087738,28.137632,160.55988,181.14574,189.46225,196.34825,13.32,10.5455,11.6455,12.1455
333,2025-11-04 21:00:00+00:00,8.9955,91.0,7.604669,7.31153,0.0,0.0,0.0,0.0,0.0,0.0,2.0,1021.7,1017.0118,36.0,0.0,0.0,36.0,10180.0,7.289444,20.418695,27.36947,32.169178,159.77505,170.8699,178.4926,185.13629,15.119999,9.6455,11.0455,11.6455
334,2025-11-04 22:00:00+00:00,8.695499,90.0,7.146401,6.714796,0.0,0.0,0.0,0.0,0.0,0.0,3.0,1021.9,1017.20605,100.0,0.0,16.0,100.0,11100.0,8.557102,22.668568,32.072342,38.202427,157.75093,169.93938,177.4267,182.70058,18.0,8.8455,10.5455,11.3455
335,2025-11-04 23:00:00+00:00,8.3955,89.0,6.6873045,6.4022846,0.0,0.0,0.0,0.0,0.0,0.0,3.0,1022.1,1017.4,100.0,0.0,70.0,100.0,11140.0,7.8954163,20.192118,28.835976,36.088093,155.77226,168.69011,177.13765,184.00409,17.64,8.3455,9.8455,10.8455
336,2025-11-05 00:00:00+00:00,7.6454997,91.0,6.26949,5.508712,0.0,0.0,0.0,0.0,0.0,0.0,3.0,1022.3,1017.5867,100.0,0.0,78.0,100.0,8500.0,8.217153,20.380579,28.357857,34.2,151.1893,162.52513,171.97285,180.0,16.56,7.5455,9.3455,10.8455
337,2025-11-05 01:00:00+00:00,7.3954997,90.0,5.8623104,4.978201,0.0,0.0,0.0,0.0,0.0,0.0,3.0,1021.7,1016.98535,88.0,0.0,72.0,69.0,9560.0,9.511088,20.326454,29.09103,34.217045,150.5242,157.06787,167.85574,178.1913,20.16,6.8455,8.5455,9.8455
338,2025-11-05 02:00:00+00:00,7.0455,90.0,5.5165796,4.660573,0.0,0.0,0.0,0.0,0.0,0.0,3.0,1021.3,1016.581,100.0,0.0,62.0,100.0,7860.0,8.766573,18.161278,27.381308,33.805515,160.82089,166.2392,177.73955,187.95743,19.8,6.4455,8.1455,9.445499
339,2025-11-05 03:00:00+00:00,6.8954997,91.0,5.5276875,4.4789333,0.0,0.0,0.0,0.0,0.0,0.0,3.0,1020.8,1016.0812,100.0,0.0,100.0,100.0,7400.0,9.0,18.94024,28.460497,35.58359,163.73972,171.25392,182.1747,191.08253,19.08,6.2454996,7.6454997,8.7455
340,2025-11-05 04:00:00+00:00,6.9455,90.0,5.4177985,4.361684,0.0,0.0,0.0,0.0,0.0,0.0,3.0,1020.5,1015.78314,100.0,0.0,5.0,100.0,9080.0,9.983106,20.380579,29.268686,36.17955,154.35904,162.52513,175.06087,185.7105,21.24,6.3455,7.4455,8.7455
341,2025-11-05 05:00:00+00:00,6.8954997,90.0,5.3684072,4.6444073,0.0,0.0,0.0,0.0,0.0,0.0,3.0,1020.7,1015.9816,85.0,0.0,75.0,57.0,9920.0,7.628263,17.227419,25.199999,31.845247,160.70985,169.15974,180.0,190.42065,21.599998,6.4455,7.3455,8.5455
342,2025-11-05 06:00:00+00:00,6.6454997,90.0,5.121452,4.2882023,0.0,0.0,0.0,0.0,0.0,0.0,1.0,1020.8,1016.07666,35.0,0.0,36.0,9.0,9200.0,7.9932976,20.5484,28.664682,36.10963,172.23492,183.01273,191.59215,200.42241,18.0,6.4455,7.3455,8.6455
343,2025-11-05 07:00:00+00:00,6.8954997,88.0,5.045098,4.527958,0.0,0.0,0.0,0.0,0.0,0.0,3.0,1020.5,1015.78253,100.0,0.0,81.0,100.0,12320.0,7.9526596,18.416384,27.416782,35.97299,174.80566,184.48453,193.67133,202.97275,17.64,6.4455,7.3455,9.2455
344,2025-11-05 08:00:00+00:00,7.4954996,84.0,4.9664593,5.0354795,0.0,0.0,0.0,0.0,0.0,0.0,3.0,1020.5,1015.7924,100.0,0.0,63.0,100.0,17540.0,8.473393,16.595179,25.153671,33.497414,167.73524,176.26868,189.05782,200.77234,18.359999,6.7454996,7.5455,9.5455
345,2025-11-05 09:00:00+00:00,9.445499,74.0,5.042549,6.920704,0.0,0.0,0.0,0.0,0.0,0.0,1.0,1019.8,1015.12805,9.0,0.0,6.0,4.0,39760.0,9.028754,16.923828,24.031178,34.268143,175.42616,181.21884,188.61557,199.00607,19.8,8.5455,8.2455,9.6455
346,2025-11-05 10:00:00+00:00,11.445499,65.0,5.095074,8.830071,0.0,0.0,0.0,0.0,0.0,0.0,3.0,1020.6,1015.9573,99.0,0.0,21.0,98.0,54020.0,9.726665,17.015474,19.652176,24.014996,182.12105,186.07236,188.42688,192.99461,22.319998,10.3455,9.8455,9.445499
347,2025-11-05 11:00:00+00:00,13.2955,58.0,5.2034473,10.59812,0.0,0.0,0.0,0.0,0.0,0.0,3.0,1020.1,1015.48944,100.0,0.0,0.0,100.0,64220.0,10.446206,16.954432,18.416384,19.881649,181.97488,183.65215,184.48453,185.19434,23.039999,12.1455,11.6455,11.1455
348,2025-11-05 12:00:00+00:00,14.6455,54.0,5.4351134,12.292263,0.0,0.0,0.0,0.0,0.0,0.0,3.0,1019.5,1014.9135,100.0,0.0,0.0,100.0,68960.0,8.427383,13.441071,14.372974,15.175612,199.9832,200.37651,202.06795,202.30626,23.759998,13.5455,13.0455,12.445499
349,2025-11-05 13:00:00+00:00,15.445499,53.0,5.908128,13.051159,0.0,0.0,0.0,0.0,0.0,0.0,3.0,1019.2,1014.6276,96.0,0.0,0.0,96.0,69760.0,9.422101,15.328561,16.454008,17.227419,186.58185,189.46225,190.08054,190.84026,20.880001,14.3455,13.8455,13.3455
350,2025-11-05 14:00:00+00:00,15.7955,54.0,6.5042057,13.588745,0.0,0.0,0.0,0.0,0.0,0.0,2.0,1019.0,1014.43414,63.0,0.0,0.0,63.0,70160.0,9.0645685,16.75064,18.64369,20.545246,186.84268,188.65247,190.00792,191.113,21.24,14.945499,14.445499,13.945499
351,2025-11-05 15:00:00+00:00,15.5455,54.0,6.2718225,13.552057,0.0,0.0,0.0,0.0,0.0,0.0,1.0,1018.4,1013.83276,31.0,0.0,0.0,31.0,70320.0,7.2359104,16.09969,20.780453,25.729298,185.7105,190.3048,194.03627,197.92801,19.44,15.1455,14.8455,14.445499
352,2025-11-05 16:00:00+00:00,14.195499,61.0,6.78003,12.528772,0.0,0.0,0.0,0.0,0.0,0.0,0.0,1018.3,1013.7119,0.0,0.0,0.0,0.0,64540.0,5.8048253,16.62249,21.605999,25.171696,172.87508,184.96965,190.56096,196.62083,14.759999,14.445499,14.5455,14.445499
353,2025-11-05 17:00:00+00:00,12.7455,67.0,6.7715745,11.006604,0.0,0.0,0.0,0.0,0.0,0.0,1.0,1018.9,1014.286,29.0,0.0,0.0,29.0,56320.0,6.28713,19.08,24.251284,27.684914,166.75948,180.0,185.96439,192.77124,13.32,13.7455,14.2455,14.3455
354,2025-11-05 18:00:00+00:00,11.6455,70.0,6.356659,9.746354,0.0,0.0,0.0,0.0,0.0,0.0,1.0,1019.1,1014.4672,26.0,0.0,0.0,26.0,51460.0,6.725354,20.523155,26.121714,30.124065,164.47583,178.99493,187.12492,194.5345,12.959999,13.0455,13.945499,14.445499
355,2025-11-05 19:00:00+00:00,10.7955,72.0,5.948583,8.892178,0.0,0.0,0.0,0.0,0.0,0.0,1.0,1019.5,1014.8515,42.0,0.0,0.0,42.0,48380.0,6.12,18.59845,23.14103,26.368616,151.92761,165.42575,174.64427,184.6986,13.32,12.2455,13.3455,14.0455
356,2025-11-05 20:00:00+00:00,10.0455,77.0,6.1967516,8.216865,0.0,0.0,0.0,0.0,0.0,0.0,1.0,1019.3,1014.6402,10.0,0.0,0.0,10.0,37460.0,5.991594,19.011953,23.73271,26.282465,147.26479,161.22188,170.39487,179.2152,13.32,11.445499,13.1455,14.0455
357,2025-11-05 21:00:00+00:00,9.0455,84.0,6.4852304,7.093685,0.0,0.0,0.0,0.0,0.0,0.0,2.0,1018.5,1013.8274,26.0,0.0,0.0,26.0,23880.0,7.289445,20.799152,25.671307,26.341572,147.09476,156.54095,165.37909,176.08183,15.119999,10.0455,11.7455,13.7455
358,2025-11-05 22:00:00+00:00,8.3455,80.0,5.0960674,5.9096394,0.0,0.0,0.0,0.0,0.0,0.0,1.0,1018.1,1013.4178,1.0,0.0,0.0,1.0,31840.0,8.4963045,21.2522,27.345785,29.660152,143.61555,153.86906,163.95093,174.4279,17.64,8.6455,10.445499,12.8455
359,2025-11-05 23:00:00+00:00,7.7955,79.0,4.3802853,5.0217457,0.0,0.0,0.0,0.0,0.0,0.0,3.0,1018.0,1013.309,100.0,0.0,0.0,100.0,31080.0,9.793059,21.794127,30.886656,34.94968,143.97253,149.19862,158.81857,168.11136,21.96,7.3455,8.945499,10.945499
360,2025-11-06 00:00:00+00:00,7.2454996,82.0,4.37663,4.7193108,0.0,0.0,0.0,0.0,0.0,0.0,2.0,1018.1,1013.3994,75.0,0.0,0.0,75.0,24400.0,8.0899935,18.86139,27.943514,33.71338,147.72438,156.3706,165.06853,173.25452,21.24,6.8455,8.445499,9.8455
361,2025-11-06 01:00:00+00:00,7.0955,84.0,4.574488,4.78104,0.0,0.0,0.0,0.0,0.0,0.0,3.0,1018.0,1013.29724,100.0,0.0,0.0,100.0,21400.0,6.9153743,18.847641,27.558228,34.17157,141.34016,151.47697,160.1447,168.45334,16.919998,6.9455,8.3455,9.5455
362,2025-11-06 02:00:00+00:00,7.0955,84.0,4.574488,4.78104,0.0,0.0,0.0,0.0,0.0,0.0,3.0,1017.5,1012.79956,100.0,0.0,0.0,100.0,22480.0,6.9153743,18.678415,25.729298,32.19938,141.34016,152.44728,162.07199,169.6952,15.119999,7.1454997,8.3455,9.2455
363,2025-11-06 03:00:00+00:00,6.3954997,86.0,4.223902,4.0150976,0.0,0.0,0.0,0.0,0.0,0.0,3.0,1017.3,1012.5888,100.0,0.0,0.0,100.0,17160.0,6.8777895,18.998316,26.901417,33.449017,137.12111,152.94948,164.47583,171.9572,15.84,6.5455,7.9455,9.0455
364,2025-11-06 04:00:00+00:00,6.2454996,87.0,4.2414227,3.6072469,0.0,0.0,0.0,0.0,0.0,0.0,0.0,1016.4,1011.69037,0.0,0.0,0.0,0.0,16560.0,8.669949,22.392464,30.430117,36.659946,131.63345,143.49847,154.04129,162.27667,18.0,6.5455,8.2455,9.1455
365,2025-11-06 05:00:00+00:00,6.1955,87.0,4.1922235,3.8436575,0.0,0.0,0.0,0.0,0.0,0.0,0.0,1016.3,1011.5902,0.0,0.0,0.0,0.0,16840.0,6.638072,19.201874,28.079998,35.208294,139.39879,149.589,157.3801,163.97406,18.0,6.4455,8.2455,9.3455
366,2025-11-06 06:00:00+00:00,6.0955,86.0,3.9291003,3.5668173,0.0,0.0,0.0,0.0,0.0,0.0,2.0,1016.0,1011.2897,36.0,0.0,0.0,36.0,19440.0,7.491114,21.710716,28.84721,35.230373,125.21768,139.70793,150.87604,158.41597,15.84,6.9455,8.7455,9.7455
367,2025-11-06 07:00:00+00:00,6.4455,82.0,3.5948362,3.4516182,0.0,0.0,0.0,0.0,0.0,0.0,0.0,1015.8,1011.0967,0.0,0.0,0.0,0.0,26660.0,10.233123,28.04305,36.74999,43.801807,129.28938,138.12222,147.39967,154.69865,22.319998,7.1454997,8.945499,9.8455
368,2025-11-06 08:00:00+00:00,7.8455,75.0,3.6883042,4.9881907,0.0,0.0,0.0,0.0,0.0,0.0,0.0,1016.5,1011.8165,0.0,0.0,0.0,0.0,39640.0,9.422101,24.192429,33.989033,41.31696,136.54811,143.47105,151.53494,157.4569,21.599998,7.6454997,8.945499,9.5455
369,2025-11-06 09:00:00+00:00,9.695499,70.0,4.4865074,6.7715015,0.0,0.0,0.0,0.0,0.0,0.0,0.0,1016.0,1011.3497,0.0,0.0,0.0,0.0,46800.0,10.97262,20.87379,31.542658,40.192837,131.00899,135.0001,141.95291,149.30035,24.48,8.945499,8.8455,9.6455
370,2025-11-06 10:00:00+00:00,11.5455,62.0,4.512282,8.546128,0.0,0.0,0.0,0.0,0.0,0.0,0.0,1015.1,1010.4839,0.0,0.0,0.0,0.0,59920.0,11.525623,20.65848,23.686249,26.739542,128.65984,131.4676,133.1524,136.63654,26.28,10.5455,10.0455,9.5455
371,2025-11-06 11:00:00+00:00,13.0455,54.0,3.9471161,9.865517,0.0,0.0,0.0,0.0,0.0,0.0,0.0,1014.5,1009.9107,0.0,0.0,0.0,0.0,69040.0,11.983188,21.175837,22.89611,24.627789,122.73522,125.311295,126.68982,127.875046,27.359999,11.8455,11.3455,10.7455
372,2025-11-06 12:00:00+00:00,14.445499,47.0,3.2670224,11.0708885,0.0,0.0,0.0,0.0,0.0,0.0,1.0,1014.3,1009.73364,14.0,0.0,0.0,14.0,74260.0,12.413477,22.104116,24.079666,25.683926,119.53869,120.32352,121.551346,121.23916,28.8,13.2455,12.7455,12.2455
373,2025-11-06 13:00:00+00:00,15.0455,46.0,3.5104356,11.751137,0.0,0.0,0.0,0.0,0.0,0.0,0.0,1013.7,1009.14594,0.0,0.0,0.0,0.0,74840.0,12.181624,22.26768,24.27265,26.072052,124.159744,124.46088,125.340195,125.44579,29.16,14.0455,13.5455,12.945499
374,2025-11-06 14:00:00+00:00,14.945499,47.0,3.7245126,11.692642,0.0,0.0,0.0,0.0,0.0,0.0,1.0,1013.5,1008.94525,4.0,0.0,0.0,4.0,74400.0,12.181624,22.682856,24.985659,26.712873,124.159744,125.96061,126.20955,127.333275,27.359999,14.0455,13.5455,13.0455
375,2025-11-06 15:00:00+00:00,14.1455,51.0,4.152139,11.2979145,0.0,0.0,0.0,0.0,0.0,0.0,2.0,1012.6,1008.0366,8.0,0.0,0.0,8.0,72460.0,9.983106,19.969458,23.042812,26.486313,115.64096,117.950874,118.96757,121.097244,26.64,13.5455,13.1455,12.6455
376,2025-11-06 16:00:00+00:00,12.6455,59.0,4.83875,9.8151,0.0,0.0,0.0,0.0,0.0,0.0,0.0,1012.5,1007.9134,1.0,0.0,0.0,1.0,65200.0,10.829958,22.226902,28.017622,35.246925,111.44781,114.90474,117.55273,124.17704,23.759998,12.1455,11.8455,11.7455
377,2025-11-06 17:00:00+00:00,11.0455,70.0,5.7812915,8.5887,0.0,0.0,0.0,0.0,0.0,0.0,0.0,1012.7,1008.08655,0.0,0.0,0.0,0.0,49540.0,9.659814,20.188908,28.8,37.16553,116.56499,121.13891,126.86999,135.0001,24.119999,10.6455,10.5455,11.2455
378,2025-11-06 18:00:00+00:00,9.7455,80.0,6.4600105,7.6983223,0.0,0.0,0.0,0.0,0.0,0.0,0.0,1013.5,1008.8617,0.0,0.0,0.0,0.0,30840.0,7.9036193,18.504139,26.220753,33.481937,120.0685,127.09292,134.44382,143.74608,20.519999,9.3455,9.8455,10.945499
379,2025-11-06 19:00:00+00:00,9.0455,81.0,5.9577355,6.86275,0.0,0.0,0.0,0.0,0.0,0.0,0.0,1013.4,1008.7508,0.0,0.0,0.0,0.0,27480.0,8.049845,20.018072,28.04305,34.955242,116.56499,127.694305,138.12222,147.61934,18.72,8.8455,9.945499,11.1455
380,2025-11-06 20:00:00+00:00,8.4955,83.0,5.7731276,6.197631,0.0,0.0,0.0,0.0,0.0,0.0,0.0,1013.6,1008.9406,0.0,0.0,0.0,0.0,23500.0,8.557102,21.868332,30.811037,38.236336,112.24908,122.90524,133.5798,142.26689,18.359999,8.445499,10.1455,11.2455
381,2025-11-06 21:00:00+00:00,7.9455,87.0,5.914107,5.6111975,0.0,0.0,0.0,0.0,0.0,0.0,0.0,1013.2,1008.5336,0.0,0.0,0.0,0.0,16680.0,9.021574,23.4,33.88019,41.33734,118.61037,126.86999,137.15297,146.7251,20.519999,8.0455,9.6455,10.945499
382,2025-11-06 22:00:00+00:00,8.1455,83.0,5.4306583,5.7948484,0.0,0.0,0.0,0.0,0.0,0.0,0.0,1013.3,1008.6364,0.0,0.0,0.0,0.0,24680.0,8.404285,21.889065,31.749468,41.31696,136.73567,143.69542,150.81929,157.4569,19.44,8.1455,8.6455,9.5455
383,2025-11-06 23:00:00+00:00,7.9455,82.0,5.0606523,5.4370613,0.0,0.0,0.0,0.0,0.0,0.0,0.0,1013.1,1008.4341,0.0,0.0,0.0,0.0,28000.0,8.942214,21.9718,32.20944,41.38121,139.89915,145.0079,152.00294,158.56877,20.16,7.7454996,8.1455,9.0455
384,2025-11-07 00:00:00+00:00,7.3455,81.0,4.2989883,4.5552197,0.0,0.0,0.0,0.0,0.0,0.0,0.0,1012.9,1008.225,0.0,0.0,0.0,0.0,28560.0,9.793059,22.782625,34.322937,43.60163,143.97253,148.5705,155.85446,161.71455,22.68,7.1454997,7.7454996,8.6455
385,2025-11-07 01:00:00+00:00,7.0455,83.0,4.3542557,4.307502,0.0,0.0,0.0,0.0,0.0,0.0,0.0,1012.7,1008.02075,0.0,0.0,0.0,0.0,24940.0,9.511088,22.057161,33.96233,44.208233,150.5242,153.85323,158.87521,163.92636,22.68,6.8455,7.1454997,8.1455
386,2025-11-07 02:00:00+00:00,6.7955,85.0,4.449607,4.2193136,0.0,0.0,0.0,0.0,0.0,0.0,0.0,1012.7,1008.0167,0.0,0.0,0.0,0.0,19960.0,8.534353,19.995398,30.513052,40.076588,152.35411,156.66594,160.70985,165.96373,21.24,6.5455,6.6454997,7.4455
387,2025-11-07 03:00:00+00:00,6.5955,83.0,3.9138806,4.020587,0.0,0.0,0.0,0.0,0.0,0.0,0.0,1012.5,1007.8145,0.0,0.0,0.0,0.0,24680.0,7.7879906,20.608229,29.548521,37.930065,146.3099,152.98741,157.80966,163.45694,18.72,6.4455,6.9455,7.4455
388,2025-11-07 04:00:00+00:00,6.3455,84.0,3.8395073,3.536787,0.0,0.0,0.0,0.0,0.0,0.0,0.0,1012.2,1007.5115,0.0,0.0,0.0,0.0,22060.0,9.290511,22.415602,31.910301,38.936623,144.46223,150.14108,156.0375,162.23506,20.519999,6.1454997,6.9455,7.3455
389,2025-11-07 05:00:00+00:00,6.1955,86.0,4.027368,3.4238987,0.0,0.0,0.0,0.0,0.0,0.0,0.0,1012.7,1008.0069,0.0,0.0,0.0,0.0,18000.0,9.290511,22.104116,32.385994,40.186386,144.46223,149.67648,155.71419,161.72726,21.24,5.9455,6.7454996,7.2454996
390,2025-11-07 06:00:00+00:00,5.6454997,88.0,3.8134925,2.961938,0.0,0.0,0.0,0.0,0.0,0.0,1.0,1012.9,1008.19653,53.0,0.0,0.0,53.0,13380.0,8.39657,22.226902,32.33193,38.85666,149.03632,155.09526,161.16147,166.60748,21.24,5.4455,6.5455,7.1454997
391,2025-11-07 07:00:00+00:00,5.5955,89.0,3.9250107,2.9785938,0.0,0.0,0.0,0.0,0.0,0.0,1.0,1012.7,1007.9968,12.0,3.0,0.0,9.0,11380.0,8.0899935,20.291357,29.598919,36.432995,147.72438,154.7989,161.56496,168.0239,19.08,5.2454996,6.1454997,6.8455
392,2025-11-07 08:00:00+00:00,6.2454996,86.0,4.0765014,3.56875,0.0,0.0,0.0,0.0,0.0,0.0,0.0,1013.1,1008.4056,0.0,0.0,0.0,0.0,14080.0,8.707237,18.514643,28.236486,35.728977,150.2552,153.43501,160.64091,167.7843,20.519999,5.5455,5.8455,6.6454997
393,2025-11-07 09:00:00+00:00,7.7955,80.0,4.5601797,5.1585093,0.0,0.0,0.0,0.0,0.0,0.0,0.0,1013.0,1008.33203,0.0,0.0,0.0,0.0,26500.0,9.107359,17.309973,19.483284,30.657122,161.56496,163.0724,163.90912,170.53775,23.039999,6.8455,6.4455,6.5455
394,2025-11-07 10:00:00+00:00,9.3955,74.0,4.9942775,6.8604984,0.0,0.0,0.0,0.0,0.0,0.0,0.0,1013.0,1008.3583,0.0,0.0,0.0,0.0,36980.0,9.028754,15.646544,17.114204,19.255793,156.50142,156.97447,157.75093,159.19313,21.96,8.2455,7.7454996,7.1454997
395,2025-11-07 11:00:00+00:00,10.8955,69.0,5.429889,8.356803,0.0,0.0,0.0,0.0,0.0,0.0,0.0,1012.7,1008.0844,0.0,0.0,0.0,0.0,47140.0,9.693296,16.981165,18.11841,19.130875,158.19853,158.87521,159.04414,160.20103,23.4,9.6455,9.1455,8.5455
396,2025-11-07 12:00:00+00:00,11.7455,64.0,5.1571164,9.133582,0.0,0.0,0.0,0.0,0.0,0.0,1.0,1012.3,1007.6997,48.0,48.0,0.0,0.0,55280.0,9.793058,16.516901,17.654686,18.448023,162.89719,163.5399,163.41258,162.97939,25.199999,10.445499,9.945499,9.3455
397,2025-11-07 13:00:00+00:00,12.445499,62.0,5.3631577,9.877755,0.0,0.0,0.0,0.0,0.0,0.0,1.0,1012.3,1007.71106,25.0,25.0,0.0,0.0,58840.0,9.793058,17.654686,19.483284,20.620806,162.89719,163.41258,163.90912,163.77974,24.84,11.2455,10.7455,10.2455
398,2025-11-07 14:00:00+00:00,12.8955,60.0,5.315486,10.749481,0.0,0.0,0.0,0.0,0.0,0.0,0.0,1011.9,1007.3199,0.0,0.0,0.0,0.0,62980.0,6.830519,12.181625,13.32,14.458382,161.56496,161.0295,161.07526,161.11382,22.68,11.945499,11.445499,10.945499
399,2025-11-07 15:00:00+00:00,12.5455,63.0,5.6885605,10.762795,0.0,0.0,0.0,0.0,0.0,0.0,0.0,1012.2,1007.6131,0.0,0.0,0.0,0.0,60840.0,4.896529,10.483357,12.313893,15.034041,162.89719,164.05453,164.74483,163.30067,15.84,11.945499,11.5455,11.0455
400,2025-11-07 16:00:00+00:00,11.5955,67.0,5.674549,9.882994,0.0,0.0,0.0,0.0,0.0,0.0,0.0,1012.4,1007.7968,0.0,0.0,0.0,0.0,55460.0,4.39436,13.37825,17.654688,21.629978,145.0079,156.19405,159.71736,161.56496,9.72,11.8455,11.6455,11.3455
401,2025-11-07 17:00:00+00:00,10.6455,72.0,5.804255,8.801142,0.0,0.0,0.0,0.0,0.0,0.0,1.0,1012.6,1007.98065,21.0,0.0,0.0,21.0,48020.0,5.495161,17.31746,22.702845,26.405453,148.39255,159.30447,165.30264,168.9965,12.24,11.3455,11.6455,11.445499
402,2025-11-07 18:00:00+00:00,9.3955,77.0,5.5663466,7.71313,0.0,0.0,0.0,0.0,0.0,0.0,0.0,1012.2,1007.56195,0.0,0.0,0.0,0.0,39260.0,4.0249224,15.856356,20.598795,24.387177,153.43501,177.39749,185.01303,188.48886,11.879999,10.7455,10.945499,10.7455
403,2025-11-07 19:00:00+00:00,8.7455,77.0,4.935892,6.7855015,0.0,0.0,0.0,0.0,0.0,0.0,0.0,1013.1,1008.44714,0.0,0.0,0.0,0.0,37260.0,5.00128,15.815435,19.852295,23.051247,149.74365,168.17854,175.84044,181.78987,10.440001,10.1455,10.445499,10.445499
404,2025-11-07 20:00:00+00:00,8.0955,80.0,4.8524857,6.206465,0.0,0.0,0.0,0.0,0.0,0.0,0.0,1013.5,1008.8348,0.0,0.0,0.0,0.0,32180.0,4.39436,15.509274,19.211996,22.782625,145.0079,158.19853,167.00539,174.55975,10.08,9.7455,10.1455,10.2455
405,2025-11-07 21:00:00+00:00,6.5455,94.0,5.648924,4.873955,0.0,0.0,0.0,0.0,0.0,0.0,0.0,1013.7,1009.008,25.0,25.0,0.0,0.0,5880.0,4.072935,14.458382,17.518356,20.163212,135.0001,161.11382,170.53775,178.97699,9.36,9.3455,9.6455,9.6455
406,2025-11-07 22:00:00+00:00,6.1454997,94.0,5.2517896,4.4619303,0.0,0.0,0.0,0.0,0.0,0.0,1.0,1014.1,1009.3994,12.0,12.0,0.0,0.0,6040.0,3.563818,13.1041975,15.893093,18.584509,135.0001,159.07542,166.9081,171.08516,9.0,8.8455,9.2455,9.0455
407,2025-11-07 23:00:00+00:00,5.6955,94.0,4.80501,3.7688627,0.0,0.0,0.0,0.0,0.0,0.0,1.0,1014.0,1009.29236,0.0,0.0,0.0,0.0,5600.0,4.5820518,15.315873,18.25026,20.833395,135.0001,156.44772,165.14134,170.04944,9.72,8.1455,8.5455,8.3455
408,2025-11-08 00:00:00+00:00,5.1955,96.0,4.6096463,3.1823997,0.0,0.0,0.0,0.0,0.0,0.0,0.0,1013.9,1009.1842,14.0,14.0,0.0,0.0,2980.0,4.8965297,17.418196,19.416653,19.493261,143.97253,161.93944,169.31514,175.76369,10.08,7.2454996,7.5455,7.5455
409,2025-11-08 01:00:00+00:00,4.9455,96.0,4.3608246,2.954692,0.0,0.0,0.0,0.0,0.0,0.0,1.0,1013.9,1009.1802,7.0,7.0,0.0,0.0,3460.0,4.39436,14.458382,16.808569,17.673029,145.0079,161.11382,170.13426,176.49654,11.5199995,6.4455,7.3455,7.4455
410,2025-11-08 02:00:00+00:00,4.5955,96.0,4.012472,2.6174407,0.0,0.0,0.0,0.0,0.0,0.0,1.0,1014.1,1009.37317,3.0,3.0,0.0,0.0,3160.0,3.8268526,13.049689,16.071491,17.81909,138.81418,155.55606,164.40714,171.86998,9.72,5.8455,6.9455,7.5455
411,2025-11-08 03:00:00+00:00,3.4455001,100.0,3.4455,1.3491826,0.0,0.0,0.0,0.0,0.0,0.0,45.0,1014.1,1009.3535,100.0,100.0,0.0,0.0,220.0,3.8773184,12.218805,14.982228,16.75064,111.801476,135.0001,144.78232,151.78275,7.92,5.7454996,6.7454996,7.5455
412,2025-11-08 04:00:00+00:00,2.6955001,100.0,2.6955001,0.4117298,0.0,0.0,0.0,0.0,0.0,0.0,2.0,1013.6,1008.8432,89.0,89.0,0.0,0.0,440.0,4.198285,16.870138,21.611996,24.735432,120.96369,140.19447,150.01845,158.66307,9.72,5.4455,6.8455,7.2454996
413,2025-11-08 05:00:00+00:00,3.6455,97.0,3.2135463,1.429678,0.0,0.0,0.0,0.0,0.0,0.0,1.0,1014.3,1009.5561,39.0,39.0,0.0,0.0,2600.0,4.39436,16.981165,22.702845,26.987997,145.0079,158.87521,165.30264,170.78905,9.72,5.2454996,6.2454996,6.7454996
414,2025-11-08 06:00:00+00:00,3.2455,95.0,2.52131,0.8130708,0.0,0.0,0.0,0.0,0.0,0.0,0.0,1014.6,1009.8477,40.0,40.0,0.0,0.0,4160.0,5.00128,18.1041,24.014996,28.410364,149.74365,162.64589,167.00539,171.25392,11.879999,4.6454997,5.8455,6.5455
415,2025-11-08 07:00:00+00:00,3.4955,92.0,2.3180485,1.0918603,0.0,0.0,0.0,0.0,0.0,0.0,0.0,1014.1,1009.3545,0.0,0.0,0.0,0.0,7000.0,4.5536795,17.163355,24.336637,29.784426,161.56496,170.34018,172.34944,172.35968,11.159999,4.7454996,6.2454996,7.0455
416,2025-11-08 08:00:00+00:00,4.1955,89.0,2.5437074,1.7395163,0.0,0.0,0.0,0.0,0.0,0.0,0.0,1014.5,1009.76465,0.0,0.0,0.0,0.0,8500.0,5.1919937,14.707222,21.129883,27.343414,146.3099,158.45895,166.20049,170.9098,12.599999,3.9455001,5.0455,6.0455
417,2025-11-08 09:00:00+00:00,5.3954997,86.0,3.2412043,3.1874075,0.0,0.0,0.0,0.0,0.0,0.0,0.0,1015.4,1010.68085,0.0,0.0,0.0,0.0,13280.0,4.379589,6.162207,11.525623,18.0036,170.53775,173.29025,178.21013,178.85426,12.24,4.3455,4.4455,5.1454997
418,2025-11-08 10:00:00+00:00,6.4954996,81.0,3.4695127,4.238553,0.0,0.0,0.0,0.0,0.0,0.0,2.0,1015.3,1010.5996,50.0,50.0,0.0,0.0,21540.0,5.0142193,6.830519,7.172949,13.556282,201.03758,198.43504,197.52567,190.71307,12.959999,5.2454996,4.7454996,4.7454996
419,2025-11-08 11:00:00+00:00,7.1454997,78.0,3.566849,4.808523,0.0,0.0,0.0,0.0,0.0,0.0,2.0,1015.3,1010.61066,69.0,69.0,0.0,0.0,26700.0,5.692099,7.9932966,8.287822,8.587338,214.69522,215.83774,214.3804,213.02386,15.4800005,5.8455,5.3455,4.8455
420,2025-11-08 12:00:00+00:00,7.2955,80.0,4.072982,5.0662327,0.0,0.0,0.0,0.0,0.0,0.0,2.0,1014.5,1009.8169,78.0,78.0,0.0,0.0,21520.0,5.634891,8.049845,8.373386,8.854829,206.56499,206.56499,205.4633,206.56499,14.759999,5.9455,5.4455,4.9455
421,2025-11-08 13:00:00+00:00,7.8954997,78.0,4.295516,5.8502274,0.0,0.0,0.0,0.0,0.0,0.0,2.0,1014.3,1009.6276,81.0,81.0,0.0,0.0,28520.0,4.68,6.4799995,6.849467,7.208994,180.0,180.0,183.01273,182.86235,15.4800005,6.7454996,6.2454996,5.6454997
422,2025-11-08 14:00:00+00:00,8.1455,78.0,4.538391,5.9905825,0.0,0.0,0.0,0.0,0.0,0.0,3.0,1014.8,1010.1295,88.0,88.0,0.0,0.0,29460.0,5.771239,9.0,9.72,10.446206,176.42374,180.0,180.0,181.97488,15.4800005,7.0455,6.5455,5.9455
423,2025-11-08 15:00:00+00:00,7.8954997,79.0,4.47758,5.6232862,0.0,0.0,0.0,0.0,0.0,0.0,2.0,1015.0,1010.3244,60.0,60.0,0.0,0.0,27380.0,6.489992,10.587918,11.384198,11.384198,213.6901,215.3113,214.69522,214.69522,15.84,6.9455,6.4455,5.8455
424,2025-11-08 16:00:00+00:00,6.9954996,81.0,3.9574478,4.718462,0.0,0.0,0.0,0.0,0.0,0.0,2.0,1014.9,1010.21,58.0,58.0,0.0,0.0,23640.0,5.8048253,10.315115,10.805998,11.4862,240.2552,240.75127,240.01845,237.80429,16.199999,6.2454996,5.7454996,5.1454997
425,2025-11-08 17:00:00+00:00,6.5455,83.0,3.8649487,4.556163,0.0,0.0,0.0,0.0,0.0,0.0,2.0,1015.5,1010.7997,53.0,53.0,0.0,0.0,20420.0,3.7064266,7.729527,9.339208,12.594856,240.94548,242.24155,242.44727,239.03632,13.679999,5.8455,5.3455,4.9455
426,2025-11-08 18:00:00+00:00,5.7955,85.0,3.468262,3.9501076,0.0,0.0,0.0,0.0,0.0,0.0,2.0,1015.7,1010.986,54.0,54.0,0.0,0.0,16140.0,2.1897945,4.6938252,6.489992,9.605998,279.46225,274.39862,266.82022,257.00537,8.28,5.0455,4.6454997,4.2454996
427,2025-11-08 19:00:00+00:00,5.4954996,87.0,3.5034146,3.766162,0.0,0.0,0.0,0.0,0.0,0.0,2.0,1015.8,1011.0805,57.0,57.0,0.0,0.0,15800.0,1.4399999,3.0547013,5.3999996,8.78872,180.0,224.9999,233.13002,235.0079,4.32,5.0455,4.6454997,4.3455
428,2025-11-08 20:00:00+00:00,5.0955,90.0,3.5902581,3.3763866,0.0,0.0,0.0,0.0,0.0,0.0,1.0,1016.5,1011.77057,37.0,37.0,0.0,0.0,11020.0,1.484318,4.6102495,7.127636,10.464797,194.03627,218.65984,224.9999,229.18501,4.32,5.0455,4.8455,4.5455
429,2025-11-08 21:00:00+00:00,4.4455,95.0,3.714246,2.849412,0.0,0.0,0.0,0.0,0.0,0.0,1.0,1016.9,1012.15765,0.0,0.0,0.0,0.0,5320.0,0.8049845,4.2136917,7.42159,11.269782,153.43501,250.0168,247.1663,243.43501,2.52,4.9455,4.8455,4.5455
430,2025-11-08 22:00:00+00:00,3.7455,99.0,3.60269,2.087479,0.0,0.0,0.0,0.0,0.0,0.0,45.0,1016.6,1011.8472,62.0,62.0,0.0,0.0,1200.0,1.08,5.00128,8.049845,12.074766,180.0,239.74365,243.43501,243.43501,4.68,5.0455,5.0455,4.9455
431,2025-11-08 23:00:00+00:00,3.4455001,99.0,3.3030362,1.698142,0.0,0.0,0.0,0.0,0.0,0.0,45.0,1016.3,1011.5433,72.0,67.0,6.0,0.0,1000.0,1.2979984,4.2136917,7.072878,10.390226,146.3099,250.0168,255.2564,255.96373,3.96,4.8455,5.0455,4.9455
432,2025-11-09 00:00:00+00:00,2.8455,100.0,2.8454998,0.8654189,0.0,0.0,0.0,0.0,0.0,0.0,45.0,1017.1,1012.3294,100.0,100.0,52.0,0.0,80.0,2.3051248,2.968636,4.8965297,8.225035,141.34016,194.03627,233.97253,246.80139,5.7599998,4.9455,5.1454997,5.1454997
433,2025-11-09 01:00:00+00:00,2.4955,100.0,2.4955,0.36430836,0.0,0.0,0.0,0.0,0.0,0.0,45.0,1016.7,1011.9252,100.0,100.0,63.0,0.0,100.0,2.9024127,4.3349743,4.6938257,7.5942082,150.2552,175.23645,212.47118,238.57048,7.5599995,4.8455,5.1454997,5.3455
434,2025-11-09 02:00:00+00:00,2.4955,100.0,2.4955,0.47257662,0.0,0.0,0.0,0.0,0.0,0.0,45.0,1016.3,1011.52704,100.0,100.0,78.0,0.0,200.0,2.16,6.130579,6.439876,8.161764,180.0,176.6336,206.56499,228.57643,9.0,4.1454997,5.1454997,5.3455
435,2025-11-09 03:00:00+00:00,2.6455,97.0,2.2170382,0.5515914,0.0,0.0,0.0,0.0,0.0,0.0,45.0,1016.2,1011.43005,99.0,97.0,16.0,0.0,960.0,2.3051248,6.151683,6.87779,6.792466,128.65984,159.44388,186.00891,212.00534,9.72,3.2455,4.9455,5.3455
436,2025-11-09 04:00:00+00:00,2.9455001,95.0,2.2230706,0.6691756,0.0,0.0,0.0,0.0,0.0,0.0,45.0,1016.0,1011.23615,96.0,91.0,43.0,0.0,680.0,3.563818,7.928177,8.089993,7.2,135.0001,140.52757,159.14546,180.0,9.0,2.9455001,4.4455,5.0455
437,2025-11-09 05:00:00+00:00,2.9955,95.0,2.2727776,0.7227502,0.0,0.0,0.0,0.0,0.0,0.0,45.0,1016.0,1011.2371,100.0,100.0,74.0,54.0,160.0,3.6,7.386582,9.885262,8.427383,126.86999,133.02507,146.88864,160.0168,9.36,2.5455,4.4455,4.9455
438,2025-11-09 06:00:00+00:00,2.8955,98.0,2.6105683,0.59628534,0.0,0.0,0.0,0.0,0.0,0.0,45.0,1015.9,1011.1359,97.0,96.0,90.0,0.0,300.0,4.198285,6.6185193,12.144331,13.363711,149.03632,157.61983,168.0239,175.36462,11.879999,2.1455,3.7455,4.1454997
439,2025-11-09 07:00:00+00:00,3.2455,96.0,2.668804,1.0852079,0.0,0.0,0.0,0.0,0.0,0.0,45.0,1016.3,1011.5398,100.0,83.0,98.0,58.0,460.0,3.319036,7.69592,12.324414,13.679999,167.4712,169.21574,173.29025,180.0,11.159999,2.5455,4.0455,4.4455
440,2025-11-09 08:00:00+00:00,3.8955,92.0,2.7142339,1.6622434,0.0,0.0,0.0,0.0,0.0,0.0,45.0,1016.5,1011.75024,100.0,76.0,82.0,98.0,400.0,3.8773184,8.311245,12.7279215,14.404499,158.19853,162.3498,171.86998,181.43207,10.08,2.9455001,4.7454996,4.9455
441,2025-11-09 09:00:00+00:00,4.8455,90.0,3.3432808,2.8258114,0.0,0.0,0.0,0.0,0.0,0.0,3.0,1016.4,1011.66693,84.0,27.0,41.0,60.0,6140.0,3.219938,3.8773184,8.350138,10.495713,153.43501,158.19853,187.43132,202.1664,11.5199995,3.7455,4.9455,5.3455
442,2025-11-09 10:00:00+00:00,5.4954996,88.0,3.6656935,3.6400495,0.0,0.0,0.0,0.0,0.0,0.0,3.0,1017.2,1012.474,100.0,60.0,96.0,100.0,6960.0,2.52,2.8799999,2.8799999,4.5536795,180.0,180.0,180.0,198.43504,9.72,4.2454996,3.7455,4.0455
443,2025-11-09 11:00:00+00:00,6.7955,83.0,4.109605,5.0632,0.0,0.0,0.0,0.0,0.0,0.0,3.0,1017.1,1012.3963,90.0,43.0,40.0,68.0,16080.0,2.2768397,2.6208394,2.6208394,5.8048253,161.56496,164.05453,164.05453,209.7448,7.2,5.5455,5.0455,5.2454996
444,2025-11-09 12:00:00+00:00,7.9455,80.0,4.706333,6.1314545,0.0,0.0,0.0,0.0,0.0,0.0,3.0,1016.3,1011.6194,99.0,94.0,65.0,77.0,23460.0,3.671294,4.379589,4.379589,4.0249224,168.69011,170.53775,170.53775,169.6952,10.08,6.6454997,6.1454997,5.6454997
445,2025-11-09 13:00:00+00:00,8.1455,79.0,4.7208133,6.3422537,0.0,0.0,0.0,0.0,0.0,0.0,3.0,1016.2,1011.5231,100.0,100.0,90.0,0.0,26560.0,3.6179552,4.3349743,4.3349743,4.3349743,174.2895,175.23645,175.23645,175.23645,10.440001,7.0455,6.5455,5.9455
446,2025-11-09 14:00:00+00:00,8.2955,78.0,4.6841125,6.69293,0.0,0.0,0.0,0.0,0.0,0.0,3.0,1015.7,1011.0279,100.0,100.0,84.0,3.0,29360.0,2.1897945,2.6208394,2.6208394,2.6208394,189.46225,195.94547,195.94547,195.94547,9.72,7.2454996,6.7454996,6.2454996
447,2025-11-09 15:00:00+00:00,8.3955,78.0,4.7812586,6.6808395,0.0,0.0,0.0,0.0,0.0,0.0,3.0,1015.6,1010.9299,100.0,100.0,92.0,4.0,30580.0,3.096837,3.8939953,4.198285,4.198285,234.46223,236.3099,239.0363,239.0363,7.92,7.4455,7.0455,6.4455
448,2025-11-09 16:00:00+00:00,8.445499,78.0,4.8298316,6.8605604,3.0,0.0,0.0,0.0,0.0,0.0,3.0,1015.9,1011.2295,100.0,100.0,80.0,0.0,30040.0,2.2768397,2.6208394,2.6208394,2.5455842,161.56496,164.05453,164.05453,171.86998,7.92,7.6454997,7.1454997,6.6454997
449,2025-11-09 17:00:00+00:00,8.445499,79.0,5.012683,6.8597927,5.0,0.0,0.0,0.0,0.0,0.0,3.0,1016.5,1011.8267,100.0,100.0,84.0,94.0,28160.0,2.5455842,3.2599385,3.319036,3.319036,188.13002,186.3401,192.5288,192.5288,6.8399997,7.6454997,7.1454997,6.6454997
450,2025-11-09 18:00:00+00:00,8.2455,81.0,5.177183,6.5706635,10.0,0.0,0.0,0.0,0.0,0.0,3.0,1016.7,1012.02234,100.0,99.0,96.0,13.0,24660.0,3.396233,5.1919937,5.1919937,5.6233797,212.00534,213.6901,213.6901,219.80553,10.440001,7.4455,6.9455,6.4455
451,2025-11-09 19:00:00+00:00,8.0955,83.0,5.381732,6.6771555,0.0,0.0,0.0,0.0,0.0,0.0,3.0,1016.2,1011.52234,100.0,100.0,82.0,20.0,20820.0,1.9386592,2.9024127,3.096837,4.829907,201.80147,209.7448,215.53777,243.43501,8.28,7.3455,6.8455,6.4455
452,2025-11-09 20:00:00+00:00,8.1455,84.0,5.603386,6.5740976,0.0,0.0,0.0,0.0,0.0,0.0,3.0,1016.5,1011.8217,100.0,100.0,96.0,24.0,17940.0,3.319036,5.0911684,5.692099,7.342588,220.60121,224.9999,235.30478,258.6901,8.28,7.3455,6.8455,6.7454996
453,2025-11-09 21:00:00+00:00,8.0455,87.0,6.0124955,6.579319,0.0,0.0,0.0,0.0,0.0,0.0,3.0,1016.2,1011.5214,100.0,100.0,93.0,64.0,13060.0,3.219938,5.3999996,7.2,9.360001,206.56499,216.86998,233.13002,247.3801,8.28,7.2454996,6.9455,6.7454996
454,2025-11-09 22:00:00+00:00,7.9954996,88.0,6.128835,6.646537,0.0,0.0,0.0,0.0,0.0,0.0,3.0,1016.0,1011.3215,100.0,100.0,96.0,23.0,10920.0,2.5959969,3.8939953,5.815978,8.4042845,236.3099,236.3099,248.19853,260.13425,7.92,7.2454996,6.8455,6.5455
455,2025-11-09 23:00:00+00:00,8.0455,88.0,6.1780953,6.561288,0.0,0.0,0.0,0.0,0.0,0.0,3.0,1016.0,1011.3223,99.0,89.0,90.0,12.0,10380.0,3.6,5.0911684,5.692099,7.10031,180.0,188.13002,214.69522,239.53453,8.64,7.2454996,6.9455,6.7454996
456,2025-11-10 00:00:00+00:00,8.1455,90.0,6.603142,6.901819,0.0,0.0,0.0,0.0,0.0,0.0,3.0,1015.9,1011.2245,100.0,100.0,65.0,100.0,8080.0,2.6208394,4.379589,6.849467,10.464798,254.05453,260.53775,266.98727,273.9451,7.5599995,7.3455,7.0455,6.8455
457,2025-11-10 01:00:00+00:00,8.2455,90.0,6.7019176,7.289715,0.0,0.0,0.0,0.0,0.0,0.0,3.0,1015.9,1011.226,100.0,93.0,66.0,100.0,8240.0,0.8049845,1.1384199,3.4152596,7.289444,206.56499,251.56496,288.43503,290.22495,5.3999996,7.4455,7.0455,6.9455
458,2025-11-10 02:00:00+00:00,8.195499,90.0,6.6525297,7.048564,5.0,0.0,0.0,0.0,0.0,0.0,3.0,1015.3,1010.6282,98.0,94.0,67.0,6.0,7460.0,2.0364676,2.4149535,3.2399998,5.815978,224.9999,243.43501,270.0,291.80148,4.68,7.4455,7.0455,6.8455
459,2025-11-10 03:00:00+00:00,7.8455,93.0,6.7836494,6.7201414,8.0,0.0,0.0,0.0,0.0,0.0,3.0,1015.7,1011.0202,100.0,100.0,82.0,100.0,3860.0,2.0991426,2.1897945,1.8,3.6179552,149.03632,170.53775,216.86998,275.7105,5.7599998,7.0455,6.7454996,6.4455
460,2025-11-10 04:00:00+00:00,7.7454996,94.0,6.8402977,6.6202717,10.0,0.0,0.0,0.0,0.0,0.0,45.0,1015.3,1010.6205,100.0,100.0,81.0,0.0,2960.0,2.1897945,2.9024127,2.2768397,2.7416782,170.53775,172.87508,198.43504,246.80138,7.5599995,6.9455,6.7454996,6.5455
461,2025-11-10 05:00:00+00:00,7.7955,95.0,7.044346,6.589574,8.0,0.0,0.0,0.0,0.0,0.0,51.0,1015.2,1010.5219,100.0,100.0,86.0,0.0,1960.0,3.0758414,4.2136917,3.6,3.096837,159.44388,160.0168,180.0,215.53777,7.5599995,6.9455,6.8455,6.6454997
462,2025-11-10 06:00:00+00:00,7.7955,94.0,6.8899374,6.423868,10.0,0.0,0.0,0.0,0.0,0.0,3.0,1015.8,1011.11914,100.0,100.0,100.0,25.0,3080.0,3.96,6.162207,7.9526596,6.849467,180.0,173.29025,174.80566,183.01273,11.159999,6.9455,6.7454996,6.5455
463,2025-11-10 07:00:00+00:00,7.7955,95.0,7.044346,6.439542,10.0,0.0,0.0,0.0,0.0,0.0,61.0,1015.1,1010.42236,100.0,100.0,100.0,26.0,1040.0,4.1046314,6.9899354,9.726665,9.531505,164.74483,168.11136,177.87895,190.88548,10.440001,6.9455,6.8455,6.7454996
464,2025-11-10 08:00:00+00:00,7.9455,94.0,7.038855,6.411684,13.0,0.0,0.0,0.0,0.0,0.0,61.0,1015.6,1010.92255,100.0,100.0,100.0,23.0,980.0,5.315336,8.557102,11.304229,12.287555,151.69934,157.75093,170.83772,185.04236,12.599999,7.0455,6.9455,6.8455
465,2025-11-10 09:00:00+00:00,8.2455,94.0,7.3366914,7.2760134,25.0,0.4,0.4,0.0,0.0,0.0,61.0,1015.5,1010.8279,100.0,100.0,100.0,18.0,840.0,1.9386592,3.0758414,5.8048253,9.422101,201.80147,200.55612,209.7448,226.54811,12.24,7.3455,7.0455,7.0455
466,2025-11-10 10:00:00+00:00,8.7455,94.0,7.833078,7.450225,23.0,0.0,0.0,0.0,0.0,0.0,51.0,1014.4,1009.7412,100.0,100.0,93.0,0.0,1000.0,5.0142193,7.729527,8.587338,11.983188,201.03758,207.75845,213.02386,237.26477,13.679999,7.7454996,7.4455,7.4455
467,2025-11-10 11:00:00+00:00,9.445499,91.0,8.049713,8.206859,10.0,0.0,0.0,0.0,0.0,0.0,3.0,1014.9,1010.25055,100.0,100.0,97.0,5.0,4840.0,5.00128,8.049845,8.699793,12.074766,239.74365,243.43501,245.55606,259.69522,12.599999,8.445499,7.9455,7.6454997
468,2025-11-10 12:00:00+00:00,9.8955,92.0,8.656277,8.85871,8.0,0.0,0.0,0.0,0.0,0.0,3.0,1015.1,1010.4569,100.0,100.0,29.0,2.0,4720.0,4.6938252,7.9932976,9.885262,14.145756,274.39862,277.76508,280.49142,284.74362,13.32,9.0455,8.6455,8.2455
469,2025-11-10 13:00:00+00:00,10.2955,88.0,8.394604,9.242621,0.0,0.0,0.0,0.0,0.0,0.0,3.0,1014.4,1009.76685,100.0,100.0,38.0,0.0,10380.0,4.3349743,6.519877,7.2805495,8.4042845,274.76355,276.3401,278.53067,279.86575,12.959999,9.445499,8.945499,8.445499
470,2025-11-10 14:00:00+00:00,10.5455,86.0,8.301367,9.358221,0.0,0.0,0.0,0.0,0.0,0.0,3.0,1014.2,1009.57184,100.0,100.0,61.0,0.0,14120.0,5.0911684,7.9526596,8.647496,9.007196,261.87,264.80566,267.6141,267.70944,13.32,9.6455,9.2455,8.6455
471,2025-11-10 15:00:00+00:00,10.2455,89.0,8.512161,9.055758,0.0,0.0,0.0,0.0,0.0,0.0,3.0,1014.2,1009.5668,99.0,98.0,72.0,0.0,9400.0,5.4833565,8.427383,8.766573,9.346143,246.80138,250.0168,250.82089,254.3577,10.799999,9.445499,8.945499,8.3455
472,2025-11-10 16:00:00+00:00,9.9955,86.0,7.761048,8.342702,0.0,0.0,0.0,0.0,0.0,0.0,3.0,1014.2,1009.5626,91.0,91.0,0.0,0.0,14600.0,7.342588,12.783802,13.849476,14.561099,258.6901,260.2725,261.02747,261.46933,16.199999,9.2455,8.7455,8.2455
473,2025-11-10 17:00:00+00:00,9.7455,87.0,7.684986,8.022211,3.0,0.0,0.0,0.0,0.0,0.0,3.0,1014.6,1009.95667,100.0,100.0,1.0,24.0,12640.0,7.69592,13.849476,15.273505,16.808569,259.21576,261.02747,261.87,260.13425,16.919998,9.0455,8.5455,8.0455
474,2025-11-10 18:00:00+00:00,8.8955,90.0,7.3439455,7.578372,0.0,0.0,0.0,0.0,0.0,0.0,2.0,1014.8,1010.14185,17.0,17.0,0.0,0.0,9980.0,4.3349743,8.435069,9.793059,10.315115,221.63345,230.19447,233.97253,240.75127,17.64,8.445499,8.1455,7.7454996
475,2025-11-10 19:00:00+00:00,8.0455,94.0,7.138135,6.564494,0.0,0.0,0.0,0.0,0.0,0.0,1.0,1014.1,1009.431,28.0,28.0,0.0,0.0,4860.0,5.1165614,12.496718,13.493999,13.237038,219.28938,221.49637,223.91916,224.9999,10.799999,8.0455,7.9455,7.5455
476,2025-11-10 20:00:00+00:00,7.2955,96.0,6.6997037,5.981077,0.0,0.0,0.0,0.0,0.0,0.0,1.0,1014.4,1009.71735,59.0,59.0,0.0,0.0,3260.0,3.2599385,8.854829,9.693296,10.315115,186.3401,206.56499,211.32863,209.24873,10.08,8.0455,7.9455,7.5455
477,2025-11-10 21:00:00+00:00,6.5955,96.0,6.0030274,4.962227,0.0,0.0,0.0,0.0,0.0,0.0,1.0,1014.9,1010.2034,19.0,19.0,0.0,0.0,3280.0,4.3498964,12.413477,13.392774,14.003028,204.44394,209.53868,216.25392,223.95847,8.64,7.9455,7.9455,7.7454996
478,2025-11-10 22:00:00+00:00,6.1955,94.0,5.301432,4.357808,0.0,0.0,0.0,0.0,0.0,0.0,0.0,1014.6,1009.8981,0.0,0.0,0.0,0.0,5200.0,4.6938252,13.202726,14.345898,15.175612,184.39862,191.0035,197.52567,202.30626,9.72,7.6454997,7.8455,7.6454997
479,2025-11-10 23:00:00+00:00,4.9455,100.0,4.9455004,2.935903,0.0,0.0,0.0,0.0,0.0,0.0,45.0,1013.9,1009.1802,100.0,100.0,0.0,0.0,100.0,5.3517847,13.084402,14.404499,16.039202,160.34608,172.09293,181.43207,189.0394,11.879999,6.9455,7.7454996,7.7454996
480,2025-11-11 00:00:00+00:00,4.4455,100.0,4.4455,2.246811,0.0,0.0,0.0,0.0,0.0,0.0,45.0,1014.4,1009.6693,100.0,100.0,0.0,0.0,80.0,5.937272,10.661107,18.36353,21.316135,165.96373,168.31065,178.87672,184.84392,15.119999,3.9455001,6.7454996,7.1454997
481,2025-11-11 01:00:00+00:00,4.6454997,100.0,4.6454997,2.4146147,0.0,0.0,0.0,0.0,0.0,0.0,45.0,1014.1,1009.37415,100.0,100.0,0.0,4.0,80.0,6.439876,10.703569,19.110542,23.623243,153.43501,160.34608,176.76036,187.88304,15.119999,4.0455,6.2454996,7.3455
482,2025-11-11 02:00:00+00:00,4.8954997,100.0,4.8954997,2.7947922,0.0,0.0,0.0,0.0,0.0,0.0,3.0,1013.7,1008.9801,100.0,91.0,0.0,100.0,340.0,5.904439,13.37825,18.888851,24.216522,142.43134,156.19405,172.33328,185.11722,14.04,4.7454996,6.0455,7.2454996
483,2025-11-11 03:00:00+00:00,4.2454996,100.0,4.2454996,2.0110035,0.0,0.0,0.0,0.0,0.0,0.0,45.0,1013.3,1008.5709,100.0,100.0,1.0,100.0,120.0,5.904439,14.81259,20.345573,24.482647,142.43134,154.05775,166.70142,179.1575,14.04,4.3455,6.0455,7.0455
484,2025-11-11 04:00:00+00:00,3.8455,100.0,3.8455,1.2651463,0.0,0.0,0.0,0.0,0.0,0.0,45.0,1012.4,1007.66846,100.0,100.0,100.0,100.0,80.0,7.729527,14.24163,22.065973,29.301878,152.24155,159.27437,174.3825,185.64046,17.28,3.2455,4.5455,5.9455
485,2025-11-11 05:00:00+00:00,4.4455,99.0,4.301878,1.8355818,0.0,0.0,0.0,0.0,0.0,0.0,3.0,1012.3,1007.5791,100.0,100.0,91.0,78.0,180.0,8.557102,15.745627,24.490587,32.686733,165.37909,169.46088,178.31535,187.59456,19.44,3.8455,3.9455001,4.5455
486,2025-11-11 06:00:00+00:00,4.8455,94.0,3.9610746,2.255618,18.0,0.0,0.0,0.0,0.0,0.0,3.0,1012.6,1007.8846,100.0,87.0,100.0,38.0,2720.0,7.9526596,15.119999,23.441502,29.157776,174.80566,180.0,190.6196,200.22495,19.44,4.0455,3.8455,4.0455
487,2025-11-11 07:00:00+00:00,5.3954997,93.0,4.3542433,2.9109669,75.0,0.2,0.2,0.0,0.0,0.0,61.0,1013.2,1008.491,100.0,89.0,100.0,100.0,3760.0,7.771331,14.799459,19.191748,26.674032,193.39252,198.43504,203.19861,211.75943,16.919998,4.6454997,4.1454997,4.1454997
488,2025-11-11 08:00:00+00:00,5.8954997,92.0,4.6950674,3.578792,83.0,0.2,0.2,0.0,0.0,0.0,61.0,1013.2,1008.4996,100.0,77.0,100.0,100.0,5100.0,7.10031,13.18308,16.135872,24.063513,210.46547,214.9921,218.65984,231.07245,16.56,5.0455,4.6454997,4.9455
489,2025-11-11 09:00:00+00:00,6.2454996,93.0,5.197121,4.3406143,33.0,0.6,0.6,0.0,0.0,0.0,61.0,1013.7,1009.00287,100.0,99.0,100.0,0.0,3820.0,5.00128,7.9036193,12.496718,18.472595,210.25635,210.0685,221.49637,236.92932,15.119999,5.3455,4.9455,5.4455
490,2025-11-11 10:00:00+00:00,6.9455,91.0,5.5771422,5.1459284,45.0,0.1,0.1,0.0,0.0,0.0,80.0,1013.8,1009.11414,100.0,100.0,91.0,0.0,5420.0,4.8433046,7.6367526,12.181624,18.792551,221.98714,224.9999,235.84026,249.82925,16.199999,6.0455,5.8455,6.1454997
491,2025-11-11 11:00:00+00:00,8.5455,88.0,6.670678,6.680456,33.0,0.0,0.0,0.0,0.0,0.0,80.0,1013.9,1009.2403,100.0,100.0,100.0,0.0,10660.0,6.989936,12.287555,13.397612,15.7908325,235.49141,238.17259,239.30035,245.77226,20.519999,7.7454996,7.2454996,6.7454996
492,2025-11-11 12:00:00+00:00,9.195499,88.0,7.3110137,7.395071,13.0,0.0,0.0,0.0,0.0,0.0,3.0,1012.9,1008.2556,100.0,100.0,76.0,0.0,10300.0,7.5942082,13.849477,16.267857,18.919704,238.57048,242.10283,245.13632,248.80588,24.48,8.3455,7.8455,7.3455
493,2025-11-11 13:00:00+00:00,10.0955,83.0,7.3385735,7.2162056,0.0,0.0,0.0,0.0,0.0,0.0,3.0,1013.9,1009.2657,100.0,100.0,47.0,0.0,20900.0,15.03835,28.467329,33.55733,33.50128,258.9591,260.53775,260.73987,261.34753,31.319998,9.3455,8.945499,8.445499
494,2025-11-11 14:00:00+00:00,10.445499,83.0,7.6809864,8.761236,3.0,0.0,0.0,0.0,0.0,0.0,3.0,1014.2,1009.5699,100.0,100.0,76.0,0.0,21680.0,7.42159,13.979871,16.09969,21.434364,255.96373,258.11136,259.69522,262.27826,31.319998,9.6455,9.2455,8.7455
495,2025-11-11 15:00:00+00:00,10.4955,88.0,8.591612,9.10686,0.0,0.0,0.0,0.0,0.0,0.0,3.0,1014.2,1009.57086,99.0,98.0,65.0,0.0,13000.0,6.989936,15.459054,18.86139,22.427162,235.49141,242.24155,246.3706,251.27411,16.56,9.945499,9.5455,9.0455
496,2025-11-11 16:00:00+00:00,10.3955,87.0,8.324419,8.988584,0.0,0.0,0.0,0.0,0.0,0.0,3.0,1015.2,1010.56476,100.0,100.0,100.0,0.0,14600.0,6.638072,14.973576,19.959719,25.223133,257.4712,260.31128,262.7469,267.54602,17.64,9.945499,9.5455,9.3455
497,2025-11-11 17:00:00+00:00,10.195499,88.0,8.296098,8.784121,0.0,0.0,0.0,0.0,0.0,0.0,3.0,1015.6,1010.95966,100.0,87.0,100.0,100.0,13200.0,6.6185193,15.725037,20.898611,25.683926,247.61981,254.05453,259.07724,264.36942,15.4800005,9.7455,9.6455,9.5455
498,2025-11-11 18:00:00+00:00,10.195499,88.0,8.296098,8.810172,0.0,0.0,0.0,0.0,0.0,0.0,3.0,1016.1,1011.45734,100.0,71.0,54.0,100.0,14860.0,6.439876,15.175612,20.380579,24.923338,243.43501,247.69374,252.52513,259.17703,14.04,9.8455,9.8455,9.7455
499,2025-11-11 19:00:00+00:00,9.8955,89.0,8.166933,8.70205,0.0,0.0,0.0,0.0,0.0,0.0,3.0,1016.0,1011.3528,72.0,72.0,0.0,9.0,12380.0,4.8965297,13.049689,17.654686,21.746504,233.97253,245.55606,253.41258,263.34567,12.599999,9.6455,9.8455,9.7455
500,2025-11-11 20:00:00+00:00,9.0955,93.0,8.023064,7.89491,0.0,0.0,0.0,0.0,0.0,0.0,2.0,1016.8,1012.13617,56.0,49.0,9.0,0.0,7040.0,4.6938257,12.538134,15.94601,18.331741,212.47118,230.82635,241.69934,250.49745,11.159999,9.5455,9.945499,9.8455
501,2025-11-11 21:00:00+00:00,8.695499,94.0,7.783439,7.50453,0.0,0.0,0.0,0.0,0.0,0.0,1.0,1016.7,1012.0299,45.0,46.0,0.0,3.0,5200.0,4.2136917,13.276144,17.84816,20.172853,199.9832,220.60121,228.27058,235.17543,10.440001,9.5455,10.1455,10.445499
502,2025-11-11 22:00:00+00:00,8.195499,95.0,7.4419518,6.9939203,0.0,0.0,0.0,0.0,0.0,0.0,2.0,1016.6,1011.9222,85.0,68.0,0.0,61.0,4040.0,3.7064266,12.096214,15.7908325,19.386591,209.0545,233.47105,245.77226,254.93146,8.64,9.2455,10.0455,10.3455
503,2025-11-11 23:00:00+00:00,7.8954997,94.0,6.989217,6.373294,0.0,0.0,0.0,0.0,0.0,0.0,3.0,1016.8,1012.1161,100.0,27.0,0.0,100.0,4680.0,5.1544156,15.0038395,18.899143,19.228851,192.09474,210.25635,220.36446,231.84273,12.959999,8.1455,8.7455,9.0455
504,2025-11-12 00:00:00+00:00,6.5955,97.0,6.153163,4.9300156,0.0,0.0,0.0,0.0,0.0,0.0,0.0,1017.4,1012.69183,45.0,45.0,0.0,0.0,2300.0,4.802999,13.207634,15.990646,16.039202,167.00539,197.44728,211.18492,225.90929,9.72,7.1454997,7.8455,8.945499
505,2025-11-12 01:00:00+00:00,5.9455,98.0,5.653461,4.1319513,0.0,0.0,0.0,0.0,0.0,0.0,2.0,1018.1,1013.3774,61.0,61.0,0.0,0.0,1560.0,5.0528407,15.256526,19.319628,19.67195,184.08554,199.29015,206.56499,214.56259,10.799999,6.6454997,7.3455,8.2455
506,2025-11-12 02:00:00+00:00,5.6454997,97.0,5.20652,3.8732824,0.0,0.0,0.0,0.0,0.0,0.0,45.0,1018.4,1013.671,96.0,52.0,0.0,87.0,2240.0,4.1046314,12.522619,17.10284,19.734436,164.74483,198.43504,210.34317,218.33337,10.440001,6.6454997,7.8455,8.6455
507,2025-11-12 03:00:00+00:00,5.0955,98.0,4.8054504,2.982421,0.0,0.0,0.0,0.0,0.0,0.0,3.0,1017.5,1012.76587,100.0,60.0,0.0,100.0,1700.0,5.8603754,16.93531,21.67487,24.269983,169.3804,182.4366,191.49654,200.85454,13.32,5.9455,7.1454997,7.8455
508,2025-11-12 04:00:00+00:00,5.1454997,97.0,4.7082815,2.7433095,0.0,0.0,0.0,0.0,0.0,0.0,3.0,1016.5,1011.7715,100.0,56.0,0.0,100.0,2200.0,7.7043357,19.319628,24.033876,26.042212,142.59457,153.43501,163.46509,174.44713,16.199999,5.7454996,6.8455,7.6454997
509,2025-11-12 05:00:00+00:00,5.0455,97.0,4.6086335,2.8772087,0.0,0.0,0.0,0.0,0.0,0.0,3.0,1017.2,1012.4663,100.0,58.0,53.0,100.0,1800.0,5.95906,15.484185,21.434364,24.863468,154.98314,162.40749,172.27826,182.4895,16.56,4.9455,6.4455,7.6454997
510,2025-11-12 06:00:00+00:00,4.7955,97.0,4.3595133,2.3290749,0.0,0.0,0.0,0.0,0.0,0.0,3.0,1017.1,1012.3627,100.0,82.0,92.0,100.0,480.0,7.653705,17.727943,23.400002,26.319422,138.81418,150.83249,165.74994,176.86371,16.56,4.2454996,6.0455,7.5455
511,2025-11-12 07:00:00+00:00,4.5455,100.0,4.5455003,2.0336652,0.0,0.0,0.0,0.0,0.0,0.0,45.0,1017.5,1012.7568,100.0,100.0,30.0,69.0,100.0,8.225035,14.799459,21.897945,29.914679,156.80139,161.56496,170.53775,182.75905,20.519999,4.0455,4.1454997,5.9455
512,2025-11-12 08:00:00+00:00,4.8954997,100.0,4.8954997,2.30099,0.0,0.0,0.0,0.0,0.0,0.0,45.0,1017.0,1012.2647,100.0,100.0,61.0,7.0,80.0,9.290511,15.0038395,21.41319,29.519999,144.46223,149.74365,163.39294,180.0,19.8,4.3455,4.1454997,5.7454996
513,2025-11-12 09:00:00+00:00,6.5455,87.0,4.536616,3.9350252,0.0,0.0,0.0,0.0,0.0,0.0,3.0,1017.1,1012.3922,100.0,0.0,77.0,100.0,12660.0,8.891344,16.071491,24.905132,32.561596,158.62932,164.40714,175.85545,185.7105,20.16,5.6454997,6.1454997,7.2454996
514,2025-11-12 10:00:00+00:00,7.9455,82.0,5.0606523,5.2469587,0.0,0.0,0.0,0.0,0.0,0.0,3.0,1016.2,1011.51984,85.0,0.0,0.0,85.0,20600.0,10.24578,18.25026,21.322214,31.682047,161.56496,165.14134,168.31065,180.65105,22.68,6.8455,6.4455,7.1454997
515,2025-11-12 11:00:00+00:00,9.6455,78.0,5.995494,6.9504766,0.0,0.0,0.0,0.0,0.0,0.0,3.0,1015.9,1011.2492,100.0,0.0,33.0,100.0,28520.0,11.620809,19.13426,21.188072,23.893261,163.81073,168.05585,170.21767,173.9459,24.84,8.5455,8.0455,7.5455
516,2025-11-12 12:00:00+00:00,11.3955,74.0,6.924878,9.072884,0.0,0.0,0.0,0.0,0.0,0.0,3.0,1015.6,1010.97906,100.0,0.0,80.0,100.0,39380.0,10.538843,18.416384,20.532627,22.68,172.14677,175.51547,177.9905,180.0,26.28,10.3455,9.945499,9.3455
517,2025-11-12 13:00:00+00:00,12.0455,70.0,6.740206,9.685527,0.0,0.0,0.0,0.0,0.0,0.0,3.0,1014.4,1009.795,93.0,0.0,30.0,85.0,46520.0,10.495713,18.416384,20.570463,22.346113,174.09395,175.51547,175.9859,177.22984,24.48,11.0455,10.6455,10.0455
518,2025-11-12 14:00:00+00:00,12.2455,69.0,6.722253,9.8229885,0.0,0.0,0.0,0.0,0.0,0.0,2.0,1014.2,1009.599,75.0,0.0,0.0,75.0,50020.0,10.8955765,19.917469,22.751316,25.223133,172.40544,173.77426,175.46231,177.54602,26.64,11.445499,11.0455,10.5455
519,2025-11-12 15:00:00+00:00,11.6455,75.0,7.362494,9.3709755,0.0,0.0,0.0,0.0,0.0,0.0,3.0,1014.1,1009.49,100.0,0.0,39.0,100.0,39000.0,10.931203,21.829777,27.047956,32.85678,162.75845,166.65126,170.03625,175.60138,23.759998,11.1455,10.8455,10.5455
520,2025-11-12 16:00:00+00:00,10.8955,80.0,7.5802455,8.946667,0.0,0.0,0.0,0.0,0.0,0.0,3.0,1013.7,1009.07983,100.0,0.0,51.0,100.0,30860.0,9.0645685,20.240196,28.08,34.38895,173.15732,174.89792,180.0,186.00891,23.039999,10.6455,10.8455,10.945499
521,2025-11-12 17:00:00+00:00,10.2955,85.0,7.883736,8.496351,0.0,0.0,0.0,0.0,0.0,0.0,3.0,1013.3,1008.6718,100.0,0.0,72.0,100.0,21520.0,8.557102,21.434364,29.522196,35.589054,165.37909,172.27826,179.30132,187.55624,19.8,10.1455,10.8455,11.3455
522,2025-11-12 18:00:00+00:00,9.8455,85.0,7.442255,7.6585045,0.0,0.0,0.0,0.0,0.0,0.0,3.0,1013.0,1008.3659,100.0,0.0,69.0,100.0,19560.0,10.464798,23.411074,34.162083,42.279697,176.05489,181.76236,187.87384,195.81143,21.96,9.5455,10.445499,11.445499
523,2025-11-12 19:00:00+00:00,9.8955,84.0,7.3180237,7.7333574,0.0,0.0,0.0,0.0,0.0,0.0,3.0,1013.0,1008.3665,100.0,0.0,100.0,100.0,22740.0,10.086427,21.841648,32.587456,41.928795,182.04536,188.53069,196.03241,203.26321,21.96,9.6455,9.945499,10.8455
524,2025-11-12 20:00:00+00:00,9.8455,83.0,7.0939865,7.7504005,0.0,0.0,0.0,0.0,0.0,0.0,3.0,1013.2,1008.565,100.0,0.0,69.0,100.0,24160.0,9.255571,21.407139,28.99062,40.14605,193.49574,199.65392,204.97388,212.54999,20.880001,9.6455,9.445499,10.445499
525,2025-11-12 21:00:00+00:00,9.445499,83.0,6.7026377,7.337552,0.0,0.0,0.0,0.0,0.0,0.0,3.0,1012.5,1007.8615,100.0,0.0,41.0,100.0,24520.0,8.707238,20.380579,29.301876,39.254856,187.12492,197.47487,206.25018,215.29343,20.519999,9.2455,9.3455,10.0455
526,2025-11-12 22:00:00+00:00,9.2455,83.0,6.5069575,6.8583965,0.0,0.0,0.0,0.0,0.0,0.0,3.0,1012.0,1007.36035,100.0,0.0,78.0,100.0,24160.0,10.308831,22.768398,33.326744,42.44032,192.09474,198.43504,206.2882,214.63374,21.599998,9.0455,9.3455,10.1455
527,2025-11-12 23:00:00+00:00,8.945499,84.0,6.3872504,6.7353544,0.0,0.0,0.0,0.0,0.0,0.0,3.0,1012.0,1007.35565,92.0,0.0,68.0,69.0,23880.0,8.905908,21.129885,30.319181,40.321606,194.03627,203.07043,209.91356,217.38153,21.599998,8.8455,8.8455,9.5455
528,2025-11-13 00:00:00+00:00,8.3455,83.0,5.6263556,5.933983,0.0,0.0,0.0,0.0,0.0,0.0,2.0,1011.9,1007.24634,88.0,0.0,0.0,88.0,25420.0,9.114471,21.629978,31.575506,39.91944,189.0902,198.43504,208.61037,219.14398,18.72,8.2455,8.7455,9.6455
529,2025-11-13 01:00:00+00:00,7.9954996,83.0,5.2838817,5.679014,0.0,0.0,0.0,0.0,0.0,0.0,3.0,1011.8,1007.1408,100.0,0.0,0.0,100.0,24400.0,7.9526596,19.829433,28.01531,35.785156,185.19434,195.80258,205.90645,216.40886,19.8,7.9455,8.5455,9.5455
530,2025-11-13 02:00:00+00:00,7.8455,83.0,5.1371036,5.3951817,0.0,0.0,0.0,0.0,0.0,0.0,3.0,1011.9,1007.23773,100.0,0.0,0.0,100.0,25580.0,8.654986,20.65848,30.500309,39.91944,196.9276,202.5431,210.49976,219.14398,19.08,7.6454997,8.1455,9.2455
531,2025-11-13 03:00:00+00:00,7.5955,81.0,4.5429387,5.013299,0.0,0.0,0.0,0.0,0.0,0.0,1.0,1010.9,1006.2383,96.0,0.0,0.0,96.0,30600.0,8.707238,21.629978,31.89202,41.551548,187.12492,198.43504,208.30066,217.96211,18.0,7.6454997,8.2455,9.8455
532,2025-11-13 04:00:00+00:00,7.5455,80.0,4.316584,4.888177,0.0,0.0,0.0,0.0,0.0,0.0,2.0,1010.8,1006.1381,48.0,0.0,0.0,48.0,32280.0,8.905908,21.325253,32.783726,44.203835,194.03627,201.80147,211.0716,220.0445,19.08,7.5455,8.2455,10.0455
533,2025-11-13 05:00:00+00:00,7.5455,80.0,4.316584,4.9171495,0.0,0.0,0.0,0.0,0.0,0.0,3.0,1010.9,1006.2377,89.0,0.0,0.0,89.0,32560.0,8.707238,22.206486,32.28981,42.91405,187.12492,199.90384,210.85413,220.23628,18.359999,7.7454996,8.445499,9.7455
534,2025-11-13 06:00:00+00:00,7.5455,79.0,4.1370435,4.7817802,0.0,0.0,0.0,0.0,0.0,0.0,3.0,1009.6,1004.94366,100.0,0.0,0.0,100.0,34300.0,9.3876505,23.587555,34.77868,44.360413,184.39862,195.94547,205.76927,215.75398,20.16,7.7454996,8.445499,10.1455
535,2025-11-13 07:00:00+00:00,8.195499,76.0,4.2156854,5.4030466,0.0,0.0,0.0,0.0,0.0,0.0,3.0,1010.3,1005.6512,100.0,0.0,0.0,100.0,39760.0,9.693296,23.83624,31.575506,45.504055,201.80147,205.01686,208.61037,216.96065,22.319998,8.1455,8.0455,9.5455
536,2025-11-13 08:00:00+00:00,8.9955,74.0,4.6080923,6.2878923,0.0,0.0,0.0,0.0,0.0,0.0,2.0,1010.8,1006.16174,41.0,0.0,0.0,41.0,43800.0,9.659814,22.288042,26.865265,42.87477,206.56499,211.1224,212.4123,220.91429,21.96,8.6455,8.445499,9.3455
537,2025-11-13 09:00:00+00:00,10.5455,69.0,5.0947833,7.822379,0.0,0.0,0.0,0.0,0.0,0.0,2.0,1010.6,1005.9882,52.0,0.0,0.0,52.0,51160.0,10.464797,22.90743,27.971327,43.189495,206.56499,210.19153,211.84901,219.92781,23.039999,10.0455,9.7455,10.2455
538,2025-11-13 10:00:00+00:00,12.3955,63.0,5.5464993,9.392646,0.0,0.0,0.0,0.0,0.0,0.0,3.0,1009.8,1005.22144,100.0,0.0,0.0,100.0,58900.0,13.049689,26.089447,30.993471,38.546906,204.44394,207.97939,210.73541,214.72906,28.8,11.6455,11.2455,10.945499
539,2025-11-13 11:00:00+00:00,14.0455,59.0,6.154345,11.274313,0.0,0.0,0.0,0.0,0.0,0.0,3.0,1010.0,1005.44684,100.0,0.0,64.0,100.0,64940.0,12.387348,23.688984,27.217524,31.712708,215.53777,216.34755,217.47626,219.47243,29.519999,13.1455,12.7455,12.3455
540,2025-11-13 12:00:00+00:00,15.3455,57.0,6.8717413,13.002708,0.0,0.0,0.0,0.0,0.0,0.0,3.0,1010.0,1005.4672,100.0,0.0,71.0,100.0,66940.0,10.587918,20.240198,23.78453,27.267473,215.3113,218.50067,219.47243,222.32451,27.0,14.5455,14.1455,13.6455
541,2025-11-13 13:00:00+00:00,15.4955,57.0,7.0120606,13.112804,0.0,0.0,0.0,0.0,0.0,0.0,3.0,1009.9,1005.3703,100.0,0.0,0.0,100.0,67000.0,11.090103,20.808498,23.78453,26.518099,215.75398,217.26648,219.47243,221.69804,26.28,14.7455,14.2455,13.7455
542,2025-11-13 14:00:00+00:00,15.445499,59.0,7.4694963,13.382122,0.0,0.0,0.0,0.0,0.0,0.0,3.0,1009.9,1005.3694,100.0,0.0,0.0,100.0,65740.0,9.659814,20.073025,24.482647,32.33794,206.56499,212.54999,216.02747,223.64688,23.759998,14.8455,14.5455,14.3455
543,2025-11-13 15:00:00+00:00,14.8455,62.0,7.631351,12.751522,0.0,0.0,0.0,0.0,0.0,0.0,3.0,1009.7,1005.1607,100.0,0.0,0.0,100.0,62200.0,10.144082,22.288042,28.757215,36.744698,207.47435,211.1224,214.28693,221.0274,22.319998,14.5455,14.3455,14.3455
544,2025-11-13 16:00:00+00:00,13.8955,66.0,7.647557,11.897995,0.0,0.0,0.0,0.0,0.0,0.0,1.0,1010.3,1005.74316,12.0,0.0,8.0,4.0,57240.0,9.511088,22.97522,31.845251,37.614403,209.4758,215.4334,222.70937,230.82635,21.24,13.945499,14.2455,14.445499
545,2025-11-13 17:00:00+00:00,13.2455,69.0,7.6793694,11.264943,0.0,0.0,0.0,0.0,0.0,0.0,3.0,1011.1,1006.5292,100.0,0.0,28.0,100.0,52060.0,9.449572,22.915916,32.138947,38.84331,220.36446,223.72705,228.63304,235.57346,20.880001,13.1455,13.6455,14.2455
546,2025-11-13 18:00:00+00:00,12.9955,69.0,7.4401054,10.959928,0.0,0.0,0.0,0.0,0.0,0.0,3.0,1011.6,1007.0228,100.0,0.0,87.0,100.0,52180.0,9.422101,22.66857,31.542658,39.47708,223.45189,226.93057,231.95291,241.09773,20.880001,13.0455,13.445499,14.8455
547,2025-11-13 19:00:00+00:00,12.695499,71.0,7.5712175,10.564727,0.0,0.0,0.0,0.0,0.0,0.0,3.0,1011.4,1006.81903,89.0,0.0,89.0,20.0,48480.0,10.296251,24.522314,33.90313,40.946735,216.46933,220.23628,228.01286,237.56746,21.96,12.6455,13.5455,14.945499
548,2025-11-13 20:00:00+00:00,12.445499,74.0,7.93823,10.75651,3.0,0.0,0.0,0.0,0.0,0.0,3.0,1011.9,1007.3129,90.0,0.0,79.0,50.0,44760.0,7.8954163,19.64228,28.66694,37.690125,223.1524,228.7154,234.71317,245.14844,22.319998,12.445499,12.945499,14.5455
549,2025-11-13 21:00:00+00:00,12.695499,73.0,7.9791875,10.971072,5.0,0.0,0.0,0.0,0.0,0.0,3.0,1012.5,1007.914,98.0,17.0,94.0,52.0,45480.0,8.209263,21.407139,28.660158,35.16962,217.87505,227.72638,237.30801,247.1094,18.0,12.7455,13.3455,14.1455
550,2025-11-13 22:00:00+00:00,12.0955,76.0,7.9921756,10.216724,10.0,0.0,0.0,0.0,0.0,0.0,3.0,1012.3,1007.70544,100.0,29.0,89.0,100.0,38940.0,9.290511,21.67487,30.145567,34.82895,215.53777,221.63345,229.84407,240.2552,19.8,11.8455,12.7455,13.6455
551,2025-11-13 23:00:00+00:00,11.945499,77.0,8.039193,10.539482,8.0,0.0,0.0,0.0,0.0,0.0,61.0,1012.2,1007.60345,96.0,29.0,90.0,16.0,36200.0,6.1305785,15.575981,22.881958,28.551426,229.76372,236.3099,245.85446,256.13895,19.8,11.6455,12.7455,13.5455
552,2025-11-14 00:00:00+00:00,12.0455,76.0,7.943771,10.635577,10.0,0.4,0.4,0.0,0.0,0.0,61.0,1012.6,1008.0031,99.0,55.0,83.0,83.0,38220.0,5.991594,14.05845,17.87718,21.605999,212.73521,230.19447,244.98314,259.43903,12.24,12.1455,12.7455,13.0455
553,2025-11-14 01:00:00+00:00,11.8455,78.0,8.132127,10.643125,5.0,0.0,0.0,0.0,0.0,0.0,61.0,1012.1,1007.5022,100.0,78.0,99.0,58.0,34780.0,4.8965297,13.830749,16.595179,18.0036,216.02747,231.34016,245.65892,258.4654,13.32,12.3455,13.0455,13.2455
554,2025-11-14 02:00:00+00:00,11.7455,79.0,8.222632,10.566309,8.0,0.0,0.0,0.0,0.0,0.0,80.0,1011.9,1007.3016,97.0,77.0,87.0,55.0,31500.0,4.8965297,14.021525,18.440998,19.164717,216.02747,221.87778,231.34016,241.99092,14.759999,11.8455,12.8455,13.2455
555,2025-11-14 03:00:00+00:00,11.695499,80.0,8.359461,10.536318,60.0,0.0,0.0,0.0,0.0,0.0,61.0,1012.4,1007.79834,100.0,72.0,99.0,75.0,29780.0,5.00128,14.05845,18.075441,18.671474,210.25635,219.80553,225.80684,236.0035,9.36,11.8455,12.445499,13.1455
556,2025-11-14 04:00:00+00:00,11.2955,83.0,8.512517,9.769749,93.0,0.1,0.1,0.0,0.0,0.0,61.0,1010.0,1005.4029,99.0,4.0,99.0,10.0,23240.0,7.7879906,13.896187,13.905509,11.384199,123.6901,143.42688,158.74942,161.56496,14.759999,11.445499,12.2455,12.8455
557,2025-11-14 05:00:00+00:00,11.195499,83.0,8.414692,10.004861,95.0,0.2,0.2,0.0,0.0,0.0,61.0,1010.9,1006.2973,100.0,46.0,100.0,100.0,22860.0,5.315336,12.7279215,17.287498,19.878391,208.30066,208.7397,211.37296,215.41714,11.879999,11.1455,11.5455,11.945499
558,2025-11-14 06:00:00+00:00,10.7955,87.0,8.717903,9.801682,80.0,0.3,0.3,0.0,0.0,0.0,61.0,1011.6,1006.9875,100.0,7.0,100.0,100.0,16140.0,4.510787,9.028754,11.841756,13.70839,151.38963,184.57384,199.53674,209.93143,10.08,10.6455,11.2455,11.7455
559,2025-11-14 07:00:00+00:00,10.5455,88.0,8.640864,9.254439,63.0,0.0,0.0,0.0,0.0,0.0,80.0,1010.9,1006.28687,100.0,0.0,85.0,100.0,13580.0,6.4096174,10.97262,10.630672,10.739833,128.15727,138.99101,151.69934,166.42955,11.5199995,10.5455,10.8455,11.2455
560,2025-11-14 08:00:00+00:00,10.695499,87.0,8.619532,9.487024,55.0,0.0,0.0,0.0,0.0,0.0,3.0,1010.1,1005.4926,100.0,0.0,99.0,100.0,14800.0,5.8048253,14.05845,18.391737,19.171478,150.2552,140.19447,139.76372,145.71307,15.84,10.0455,10.5455,10.6455
561,2025-11-14 09:00:00+00:00,10.945499,82.0,7.991682,9.5815115,20.0,0.0,0.0,0.0,0.0,0.0,61.0,1010.1,1005.4968,100.0,0.0,97.0,100.0,22880.0,5.7599998,7.9932976,9.19939,11.384198,90.0,97.76508,120.57915,145.30478,12.959999,10.0455,10.0455,10.5455
562,2025-11-14 10:00:00+00:00,11.2955,78.0,7.598019,9.570468,8.0,0.0,0.0,0.0,0.0,0.0,3.0,1009.4,1004.80566,100.0,0.0,100.0,100.0,29700.0,7.5599995,11.542478,14.934577,13.779114,90.0,93.57626,105.376305,123.2749,16.919998,10.3455,10.1455,10.8455
563,2025-11-14 11:00:00+00:00,11.6455,74.0,7.166167,9.903571,3.0,0.0,0.0,0.0,0.0,0.0,3.0,1008.4,1003.8159,95.0,0.0,95.0,0.0,38600.0,6.9527545,10.966713,11.298495,13.513193,111.25058,113.19862,112.47948,131.76021,16.919998,10.6455,10.1455,10.7455
564,2025-11-14 12:00:00+00:00,12.0955,72.0,7.199288,10.850481,3.0,0.0,0.0,0.0,0.0,0.0,3.0,1008.0,1003.425,100.0,0.0,100.0,100.0,42360.0,3.6,4.198285,4.510787,3.671294,53.13002,59.03632,61.389645,78.6901,18.72,11.0455,10.6455,10.0455
565,2025-11-14 13:00:00+00:00,12.3955,71.0,7.2831135,10.761018,0.0,0.0,0.0,0.0,0.0,0.0,3.0,1007.7,1003.131,100.0,0.0,100.0,100.0,45940.0,6.4096174,9.220499,9.504272,9.504272,51.842735,51.34017,52.695976,52.695976,14.4,11.445499,10.945499,10.445499
566,2025-11-14 14:00:00+00:00,12.0455,75.0,7.7491417,10.144839,0.0,0.0,0.0,0.0,0.0,0.0,3.0,1007.2,1002.6277,100.0,0.0,100.0,100.0,37120.0,9.021574,14.48972,15.137133,15.617529,61.389645,63.435013,64.65388,64.025665,19.44,11.1455,10.6455,10.0455
567,2025-11-14 15:00:00+00:00,11.2455,81.0,8.10394,9.570243,3.0,0.0,0.0,0.0,0.0,0.0,3.0,1007.3,1002.71423,100.0,70.0,99.0,100.0,24300.0,8.089993,14.458382,15.141414,15.484185,69.14546,71.11382,71.99575,72.40749,20.880001,10.445499,9.945499,9.3455
568,2025-11-14 16:00:00+00:00,10.7455,80.0,7.434135,8.744148,10.0,0.0,0.0,0.0,0.0,0.0,3.0,1008.8,1004.1995,100.0,32.0,100.0,100.0,27700.0,9.178235,16.75064,18.218275,19.201874,25.559923,28.217264,29.604366,30.41101,20.16,9.8455,9.445499,8.8455
569,2025-11-14 17:00:00+00:00,9.2955,88.0,7.4095244,6.881404,60.0,0.1,0.1,0.0,0.0,0.0,61.0,1008.7,1004.0764,100.0,83.0,100.0,100.0,10460.0,11.966954,22.148046,24.184391,25.711662,43.7812,44.34155,45.60303,45.5672,29.88,8.3455,7.8455,7.3455
570,2025-11-14 18:00:00+00:00,9.195499,90.0,7.64026,6.902581,80.0,0.2,0.2,0.0,0.0,0.0,61.0,1007.9,1003.27856,100.0,77.0,100.0,100.0,8160.0,11.525623,20.65848,22.42427,24.195107,38.65983,41.46761,42.397392,43.19129,25.56,8.2455,7.8455,7.2454996
571,2025-11-14 19:00:00+00:00,8.7455,88.0,6.8677073,6.387904,93.0,0.4,0.4,0.0,0.0,0.0,61.0,1009.5,1004.8637,100.0,84.0,96.0,100.0,9760.0,10.685391,19.272614,21.26744,23.269482,32.61924,32.799526,33.959103,34.919483,25.199999,7.8455,7.3455,6.7454996
572,2025-11-14 20:00:00+00:00,8.5455,88.0,6.670678,5.985715,93.0,0.3,0.3,0.0,0.0,0.0,53.0,1009.9,1005.25867,100.0,73.0,94.0,100.0,10540.0,11.753876,21.533897,23.617756,24.912935,49.969803,51.78894,52.431335,52.633263,27.0,7.6454997,7.1454997,6.6454997
573,2025-11-14 21:00:00+00:00,8.2455,87.0,6.209268,5.743081,100.0,0.4,0.4,0.0,0.0,0.0,53.0,1011.5,1006.84625,99.0,83.0,96.0,6.0,11780.0,10.630672,19.386593,21.178896,22.66857,28.30066,31.328646,31.798878,32.680546,25.56,7.3455,6.8455,6.2454996
574,2025-11-14 22:00:00+00:00,7.5955,86.0,5.4030485,4.511326,100.0,0.4,0.4,0.0,0.0,0.0,61.0,1011.5,1006.8355,100.0,86.0,96.0,89.0,14320.0,13.392774,24.627789,27.438046,29.179993,36.253937,37.875042,38.07283,38.990997,30.239998,6.6454997,6.1454997,5.5455
575,2025-11-14 23:00:00+00:00,7.1955,87.0,5.176181,4.1579876,98.0,0.3,0.3,0.0,0.0,0.0,53.0,1012.3,1007.62524,99.0,96.0,92.0,0.0,12760.0,12.738099,23.686249,26.478971,29.01966,42.709366,43.152412,43.89838,44.999897,31.68,6.2454996,5.7454996,5.1454997
576,2025-11-15 00:00:00+00:00,6.7955,86.0,4.6169624,3.4922194,100.0,0.4,0.4,0.0,0.0,0.0,61.0,1013.2,1008.5144,99.0,91.0,95.0,24.0,14380.0,13.755579,25.233404,27.534704,30.10685,47.12111,47.89135,48.179924,48.878624,28.8,5.8455,5.3455,4.8455
577,2025-11-15 01:00:00+00:00,6.5955,86.0,4.420434,3.281672,98.0,0.2,0.2,0.0,0.0,0.0,61.0,1013.6,1008.90936,100.0,94.0,100.0,100.0,14540.0,13.551501,26.14403,29.237675,31.89608,50.389355,51.709793,52.001225,53.259346,30.960001,5.6454997,5.1454997,4.6454997
578,2025-11-15 02:00:00+00:00,6.4455,85.0,4.1061444,3.071032,100.0,0.2,0.2,0.0,0.0,0.0,61.0,1014.1,1009.40454,100.0,87.0,99.0,45.0,16780.0,13.53236,24.48,27.047956,29.301876,61.389645,61.92762,63.093983,63.749832,29.88,5.5455,5.0455,4.5455
579,2025-11-15 03:00:00+00:00,6.0455,84.0,3.5455022,2.276248,93.0,0.3,0.3,0.0,0.0,0.0,61.0,1014.5,1009.796,100.0,95.0,100.0,57.0,18500.0,15.484185,28.660158,31.67386,34.51685,54.46224,57.30802,58.477882,59.95872,32.399998,5.1454997,4.6454997,4.0455
580,2025-11-15 04:00:00+00:00,5.8954997,85.0,3.5663993,2.422598,88.0,1.1,1.1,0.0,0.0,0.0,61.0,1015.8,1011.08746,100.0,100.0,100.0,100.0,16720.0,13.479583,25.460936,28.660158,31.67386,55.885483,56.5346,57.30802,58.477882,32.039997,4.9455,4.5455,3.9455001
581,2025-11-15 05:00:00+00:00,5.8954997,83.0,3.228818,2.281724,93.0,0.70000005,0.70000005,0.0,0.0,0.0,61.0,1016.1,1011.38605,100.0,100.0,100.0,100.0,21980.0,14.003029,26.415268,30.068083,33.033802,72.03077,72.55273,73.300674,73.53991,33.12,5.0455,4.5455,4.0455
582,2025-11-15 06:00:00+00:00,6.0955,83.0,3.4245546,2.3183165,100.0,0.3,0.3,0.0,0.0,0.0,61.0,1017.5,1012.7827,100.0,99.0,100.0,100.0,21120.0,15.379206,28.802248,32.10667,35.309372,69.44387,71.79142,72.37762,73.41259,32.760002,5.2454996,4.7454996,4.2454996
583,2025-11-15 07:00:00+00:00,5.9954996,81.0,2.9815536,1.7289124,100.0,0.90000004,0.90000004,0.0,0.0,0.0,61.0,1016.9,1012.18396,100.0,77.0,100.0,100.0,24220.0,18.161278,34.597477,39.254856,43.85651,76.2392,77.98855,78.89621,80.07382,39.6,5.2454996,4.7454996,4.2454996
584,2025-11-15 08:00:00+00:00,5.8954997,80.0,2.708695,1.5973043,100.0,0.8,0.8,0.0,0.0,0.0,61.0,1017.2,1012.481,100.0,64.0,100.0,100.0,16720.0,18.03237,34.606842,39.28126,42.864193,86.56644,87.01861,87.37365,88.07486,41.399998,5.0455,4.5455,4.0455
585,2025-11-15 09:00:00+00:00,5.8455,80.0,2.6599672,2.2142916,100.0,1.1,1.1,0.0,0.0,0.0,61.0,1019.0,1014.27167,100.0,100.0,100.0,100.0,29200.0,13.397612,25.764534,29.427662,33.092598,96.17008,97.22423,97.73351,98.13002,39.239998,4.9455,4.5455,4.0455
586,2025-11-15 10:00:00+00:00,6.0955,79.0,2.7261093,1.7506857,98.0,1.1,1.1,0.0,0.0,0.0,61.0,1018.2,1013.4795,100.0,100.0,100.0,39.0,31100.0,18.374111,34.921856,39.6,43.213493,87.75431,89.40936,90.0,91.43207,40.32,5.2454996,4.7454996,4.1454997
587,2025-11-15 11:00:00+00:00,5.6955,79.0,2.336847,1.4375124,95.0,0.5,0.5,0.0,0.0,0.0,61.0,1017.8,1013.0747,100.0,68.0,100.0,2.0,21840.0,17.294992,32.407997,36.361782,39.601635,87.614105,88.727,89.43275,90.52084,42.12,4.6454997,4.1454997,3.6455
588,2025-11-15 12:00:00+00:00,5.6454997,79.0,2.288188,1.2229862,90.0,0.5,0.5,0.0,0.0,0.0,61.0,1016.9,1012.178,100.0,72.0,100.0,100.0,13560.0,18.36353,34.2303,37.50225,40.78182,91.12328,92.41098,93.301796,94.04951,39.6,4.6454997,4.1454997,3.6455
589,2025-11-15 13:00:00+00:00,5.3954997,78.0,1.866385,1.0037036,88.0,0.70000005,0.70000005,0.0,0.0,0.0,61.0,1015.1,1010.3822,100.0,59.0,100.0,100.0,25120.0,17.643673,33.847656,38.175278,41.798775,91.16911,91.21885,91.62112,92.46806,41.760002,4.4455,3.9455001,3.4455001
590,2025-11-15 14:00:00+00:00,5.6955,79.0,2.336847,1.8794794,95.0,0.4,0.4,0.0,0.0,0.0,61.0,1014.8,1010.0886,100.0,52.0,100.0,100.0,29100.0,14.264361,27.534704,31.63087,35.455887,100.17545,101.3099,101.821465,102.90741,39.6,4.7454996,4.3455,3.7455
591,2025-11-15 15:00:00+00:00,6.1454997,83.0,3.4734876,2.6603518,95.0,0.2,0.2,0.0,0.0,0.0,61.0,1015.4,1010.6934,100.0,98.0,100.0,100.0,20800.0,13.441071,25.922499,28.948118,31.912327,97.69597,99.59306,100.750916,101.05637,29.88,5.2454996,4.8455,4.2454996
592,2025-11-15 16:00:00+00:00,5.9954996,84.0,3.4965007,2.4033217,100.0,0.7,0.7,0.0,0.0,0.0,61.0,1014.7,1009.99414,100.0,83.0,100.0,100.0,18640.0,14.205182,27.047956,30.36403,33.326748,98.74608,99.96374,100.244026,100.58158,32.039997,5.1454997,4.6454997,4.1454997
593,2025-11-15 17:00:00+00:00,5.6454997,86.0,3.4868853,1.9393606,100.0,1.5,1.5,0.0,0.0,0.0,61.0,1014.8,1010.08765,100.0,85.0,100.0,90.0,16100.0,14.973576,28.241076,31.63087,35.105072,99.68872,101.023415,101.821465,103.038666,32.760002,4.8455,4.3455,3.8455
594,2025-11-15 18:00:00+00:00,5.6454997,87.0,3.6510198,2.0904636,100.0,1.0,1.0,0.0,0.0,0.0,61.0,1015.0,1010.28674,100.0,92.0,94.0,100.0,13320.0,14.154915,27.343414,31.072817,34.17157,97.30567,99.0902,100.00792,101.54666,34.56,4.8455,4.3455,3.8455
595,2025-11-15 19:00:00+00:00,5.4954996,88.0,3.6656935,1.7011318,98.0,0.9,0.9,0.0,0.0,0.0,61.0,1013.7,1008.9903,100.0,91.0,100.0,100.0,12120.0,15.815435,30.652895,34.488674,38.332817,101.821465,102.893745,103.89122,104.688835,38.519997,4.6454997,4.2454996,3.6455
596,2025-11-15 20:00:00+00:00,5.3455,89.0,3.6783571,1.3503981,100.0,0.8,0.8,0.0,0.0,0.0,61.0,1012.9,1008.1915,100.0,100.0,100.0,96.0,9060.0,17.208603,33.3792,37.24043,40.310356,105.78082,106.284996,106.85848,107.140434,38.519997,4.5455,4.0455,3.5455
597,2025-11-15 21:00:00+00:00,5.3954997,89.0,3.727688,2.1547937,100.0,0.8000001,0.8000001,0.0,0.0,0.0,61.0,1013.1,1008.3915,100.0,100.0,100.0,100.0,8780.0,12.10157,23.584808,26.865265,29.957968,120.37905,121.26367,122.412285,122.73522,32.760002,4.5455,4.0455,3.4455001
598,2025-11-15 22:00:00+00:00,5.2454996,89.0,3.5796945,2.0139108,100.0,0.2,0.2,0.0,0.0,0.0,61.0,1012.3,1007.5926,100.0,94.0,100.0,100.0,8840.0,11.841756,22.79684,25.671307,28.079998,109.53674,111.297424,112.24908,112.61991,32.399998,4.3455,3.8455,3.3455
599,2025-11-15 23:00:00+00:00,5.2454996,91.0,3.8956387,2.2513313,100.0,1.3000001,1.3000001,0.0,0.0,0.0,61.0,1011.5,1006.7963,100.0,92.0,100.0,90.0,6160.0,10.636766,19.64228,22.38378,27.598173,113.962494,116.09537,117.80137,120.579155,26.64,4.4455,3.9455001,3.4455001
600,2025-11-16 00:00:00+00:00,5.3455,92.0,4.150354,2.3222876,90.0,0.1,0.1,0.0,0.0,0.0,61.0,1010.3,1005.6036,99.0,89.0,93.0,46.0,5380.0,11.183201,20.674156,23.688984,29.363731,123.17853,125.07384,126.34755,130.52502,27.359999,4.4455,4.0455,3.5455
601,2025-11-16 01:00:00+00:00,5.4954996,92.0,4.2989125,2.38476,53.0,0.0,0.0,0.0,0.0,0.0,3.0,1009.6,1004.9093,100.0,87.0,98.0,10.0,5080.0,11.988594,22.159746,24.946726,29.836594,131.34769,133.02507,135.0001,138.42397,28.08,4.6454997,4.1454997,3.8455
602,2025-11-16 02:00:00+00:00,5.6955,93.0,4.6517334,3.1529322,23.0,0.0,0.0,0.0,0.0,0.0,61.0,1009.0,1004.31555,100.0,95.0,100.0,100.0,4040.0,8.587338,16.676977,19.386593,21.924562,146.97614,147.3391,148.67137,150.4886,25.919998,4.8455,4.4455,4.1454997
603,2025-11-16 03:00:00+00:00,5.8954997,94.0,5.003579,3.5977507,5.0,0.0,0.0,0.0,0.0,0.0,51.0,1008.2,1003.52277,100.0,100.0,88.0,100.0,2940.0,7.4128532,14.33234,16.1198,17.782688,150.9455,154.72232,156.29735,158.62932,18.72,5.0455,4.6454997,4.3455
604,2025-11-16 04:00:00+00:00,6.0955,96.0,5.505396,4.282093,8.0,0.0,0.0,0.0,0.0,0.0,45.0,1007.1,1002.4309,100.0,100.0,79.0,14.0,1220.0,4.829907,9.227524,11.177405,15.188415,153.43501,159.44388,165.06853,174.55975,16.199999,5.2454996,5.0455,4.7454996
605,2025-11-16 05:00:00+00:00,6.4455,96.0,5.853739,4.6615105,5.0,0.0,0.0,0.0,0.0,0.0,45.0,1006.8,1002.13837,100.0,100.0,100.0,100.0,1160.0,5.154415,9.227524,11.792404,15.517629,155.22488,159.44388,167.66092,183.99083,12.599999,5.6454997,5.3455,5.2454996
606,2025-11-16 06:00:00+00:00,6.4954996,97.0,6.0535164,4.793848,3.0,0.0,0.0,0.0,0.0,0.0,45.0,1006.4,1001.74084,98.0,96.0,80.0,29.0,760.0,4.896529,8.759178,12.24,18.0,162.89719,170.53775,180.0,196.26028,11.5199995,5.7454996,5.5455,5.8455
607,2025-11-16 07:00:00+00:00,6.7955,96.0,6.202079,5.1570673,0.0,0.0,0.0,0.0,0.0,0.0,3.0,1006.3,1001.6463,100.0,100.0,71.0,24.0,820.0,4.6938252,9.9571085,14.578888,19.161337,184.39862,192.5288,200.22495,205.60214,11.879999,6.0455,5.8455,5.6454997
608,2025-11-16 08:00:00+00:00,7.2454996,95.0,6.4976306,5.424691,0.0,0.0,0.0,0.0,0.0,0.0,3.0,1006.0,1001.3553,99.0,98.0,64.0,55.0,800.0,6.4096174,10.97262,11.480557,11.720751,218.15727,221.00899,221.18582,222.5104,14.04,6.3455,6.0455,5.6454997
609,2025-11-16 09:00:00+00:00,7.3954997,92.0,6.1805925,5.754284,0.0,0.0,0.0,0.0,0.0,0.0,3.0,1006.1,1001.4573,98.0,97.0,14.0,0.0,3640.0,4.6800003,6.489992,7.5170207,8.557102,247.3801,250.55988,253.30067,255.37909,14.759999,6.4455,5.9455,5.6454997
610,2025-11-16 10:00:00+00:00,7.9954996,89.0,6.292716,6.5426645,0.0,0.0,0.0,0.0,0.0,0.0,3.0,1005.7,1001.0689,90.0,90.0,0.0,0.0,7180.0,3.563818,4.8433046,5.1165614,6.792466,224.9999,228.01286,230.71062,237.99466,10.440001,6.9455,6.4455,5.9455
611,2025-11-16 11:00:00+00:00,8.695499,87.0,6.6519985,7.057966,0.0,0.0,0.0,0.0,0.0,0.0,3.0,1004.9,1000.2841,96.0,85.0,77.0,0.0,10920.0,5.3999996,7.7043357,8.209263,8.435069,216.86998,217.40543,217.87505,219.80553,13.679999,7.5455,7.0455,6.5455
612,2025-11-16 12:00:00+00:00,9.8955,85.0,7.49131,8.300203,10.0,0.0,0.0,0.0,0.0,0.0,3.0,1004.2,999.60675,98.0,96.0,49.0,0.0,14120.0,6.489992,9.726665,10.086427,10.08,273.17978,272.12103,272.04535,270.0,18.0,8.7455,8.3455,7.7454996
613,2025-11-16 13:00:00+00:00,9.5955,87.0,7.53742,7.9027615,45.0,0.0,0.0,0.0,0.0,0.0,3.0,1004.0,999.4031,100.0,100.0,87.0,0.0,11360.0,7.2359104,11.252519,11.609651,12.015589,264.2895,262.6477,262.8751,261.38443,16.919998,8.6455,8.1455,7.5455
614,2025-11-16 14:00:00+00:00,9.0455,90.0,7.4921036,7.2228813,75.0,0.0,0.0,0.0,0.0,0.0,61.0,1003.5,998.89624,100.0,100.0,100.0,0.0,6260.0,8.049845,13.138765,13.849476,14.154915,280.30478,279.46225,278.97253,277.30566,18.359999,8.0455,7.5455,7.0455
615,2025-11-16 15:00:00+00:00,7.5955,92.0,6.3786554,4.9914083,75.0,0.4,0.4,0.0,0.0,0.0,61.0,1004.5,999.8678,100.0,100.0,100.0,0.0,4280.0,11.592894,19.008545,20.018072,20.018072,306.15826,307.30402,307.6943,307.6943,26.28,6.5455,6.0455,5.5455
616,2025-11-16 16:00:00+00:00,6.8455,85.0,4.4986725,4.064292,88.0,0.4,0.4,0.0,0.0,0.0,61.0,1003.8,999.1588,100.0,100.0,76.0,0.0,15740.0,10.009036,17.49615,18.79255,19.878391,322.3057,323.36578,323.56903,324.58286,25.919998,5.8455,5.3455,4.7454996
617,2025-11-16 17:00:00+00:00,6.3954997,85.0,4.057078,3.7967653,78.0,0.0,0.0,0.0,0.0,0.0,51.0,1004.4,999.7486,100.0,100.0,88.0,71.0,15560.0,8.14587,14.021525,15.072783,15.856354,315.0001,318.12222,319.84406,320.52756,24.48,5.4455,4.9455,4.3455
618,2025-11-16 18:00:00+00:00,5.9455,85.0,3.6154685,2.9172473,78.0,0.4,0.4,0.0,0.0,0.0,61.0,1005.1,1000.4377,100.0,100.0,96.0,5.0,16960.0,10.495713,18.25026,19.386593,20.730501,337.8336,337.98865,338.19852,339.6768,25.56,5.0455,4.5455,3.9455001
619,2025-11-16 19:00:00+00:00,5.5955,88.0,3.7642267,2.8269396,93.0,0.2,0.2,0.0,0.0,0.0,61.0,1005.4,1000.7308,100.0,100.0,100.0,100.0,11200.0,8.913181,15.124284,16.489416,17.673029,316.63654,321.7661,323.88055,326.6336,23.4,4.6454997,4.1454997,3.6455
620,2025-11-16 20:00:00+00:00,5.4954996,85.0,3.173843,2.7619734,98.0,1.1,1.1,0.0,0.0,0.0,61.0,1005.4,1000.7289,100.0,94.0,100.0,41.0,16640.0,7.8954163,13.570615,14.372974,15.175612,335.77228,338.19852,337.93204,337.69376,19.44,4.5455,4.0455,3.5455
621,2025-11-16 21:00:00+00:00,5.8954997,88.0,4.059821,3.276536,93.0,0.1,0.1,0.0,0.0,0.0,61.0,1005.7,1001.03436,100.0,89.0,97.0,10.0,11360.0,8.287822,13.608762,14.84318,15.815435,304.3804,307.47626,309.09384,311.30853,19.44,5.0455,4.5455,3.9455001
622,2025-11-16 22:00:00+00:00,5.6454997,87.0,3.6510198,2.8162298,33.0,0.0,0.0,0.0,0.0,0.0,3.0,1005.4,1000.7314,100.0,79.0,99.0,0.0,12500.0,9.178235,16.548256,17.81909,19.107151,311.82007,314.11868,315.0001,317.29062,22.68,4.7454996,4.2454996,3.7455
623,2025-11-16 23:00:00+00:00,5.2454996,86.0,3.0937934,2.4271746,0.0,0.0,0.0,0.0,0.0,0.0,3.0,1005.5,1000.8242,100.0,62.0,100.0,0.0,15340.0,8.373386,14.654254,15.94601,16.610792,295.46332,297.824,298.30066,299.8988,21.24,4.3455,3.8455,3.3455
624,2025-11-17 00:00:00+00:00,4.7955,91.0,3.4505146,1.771698,0.0,0.0,0.0,0.0,0.0,0.0,3.0,1006.0,1001.3144,100.0,86.0,100.0,100.0,5700.0,10.24578,17.533146,18.792551,19.592731,288.43503,289.1791,290.17075,290.43292,21.24,3.8455,3.3455,2.8455
625,2025-11-17 01:00:00+00:00,4.3954997,87.0,2.42094,1.426651,0.0,0.0,0.0,0.0,0.0,0.0,3.0,1004.8,1000.1131,100.0,73.0,100.0,100.0,11540.0,8.557102,14.182355,15.315873,16.1198,292.24908,293.9625,293.55228,293.70264,22.319998,3.4455001,2.9455001,2.4455001
626,2025-11-17 02:00:00+00:00,4.2454996,86.0,2.1110168,1.2082548,0.0,0.0,0.0,0.0,0.0,0.0,3.0,1004.3,999.6129,100.0,98.0,100.0,98.0,15700.0,8.647496,14.799459,15.546833,16.299694,272.3859,274.18484,275.31445,276.3401,19.08,3.3455,2.8455,2.3455
627,2025-11-17 03:00:00+00:00,3.7955,88.0,1.9905498,0.798615,0.0,0.0,0.0,0.0,0.0,0.0,3.0,1005.0,1000.30206,100.0,58.0,100.0,100.0,11700.0,8.225035,14.24163,15.256526,17.555305,246.80139,249.27435,250.70985,254.53873,19.8,2.8455,2.4455001,1.8455
628,2025-11-17 04:00:00+00:00,3.6455,87.0,1.6828446,0.40870714,0.0,0.0,0.0,0.0,0.0,0.0,3.0,1003.8,999.1052,100.0,62.0,100.0,100.0,12940.0,9.504273,17.58481,20.056877,22.768398,245.37645,247.1094,248.96242,251.56496,20.880001,2.8455,2.3455,1.8455
629,2025-11-17 05:00:00+00:00,3.6955001,86.0,1.5704602,0.5130396,5.0,0.0,0.0,0.0,0.0,0.0,3.0,1003.9,999.2057,100.0,100.0,100.0,100.0,14940.0,9.0,16.375053,18.278645,19.826164,233.13002,236.65927,237.87503,240.64233,21.599998,2.8455,2.4455001,1.8455
630,2025-11-17 06:00:00+00:00,3.7955,87.0,1.8304667,0.5752697,28.0,0.0,0.0,0.0,0.0,0.0,61.0,1004.5,999.80444,100.0,94.0,98.0,0.0,13000.0,9.565437,17.533146,20.037485,22.79684,250.20103,250.82089,252.21602,254.4274,21.96,2.9455001,2.4455001,1.9455
631,2025-11-17 07:00:00+00:00,3.7955,86.0,1.6687453,0.39739418,78.0,0.0,0.0,0.0,0.0,0.0,61.0,1003.7,999.0082,95.0,82.0,87.0,0.0,14260.0,10.594036,19.296133,21.485697,23.266697,279.78235,278.58353,278.6731,278.00464,23.4,2.8455,2.4455001,1.8455
632,2025-11-17 08:00:00+00:00,3.8455,88.0,2.039821,0.43603277,75.0,0.4,0.4,0.0,0.0,0.0,61.0,1003.4,998.7106,98.0,96.0,72.0,0.0,10860.0,11.113451,18.204042,18.532133,18.86139,294.90472,294.53772,294.0755,293.6294,24.48,2.8455,2.4455001,1.8455
633,2025-11-17 09:00:00+00:00,3.9955,90.0,2.5035343,0.74530125,50.0,0.0,0.0,0.0,0.0,0.0,3.0,1004.2,999.5093,100.0,100.0,100.0,0.0,6260.0,10.587918,17.57744,18.374111,18.875126,305.31128,304.9921,304.62424,304.90256,24.119999,2.9455001,2.4455001,1.9455
634,2025-11-17 10:00:00+00:00,4.4954996,88.0,2.6803348,1.2248788,20.0,0.0,0.0,0.0,0.0,0.0,3.0,1004.7,1000.0155,100.0,100.0,75.0,0.0,9500.0,10.948973,17.581125,18.59845,19.107151,316.33215,317.4896,317.35333,317.29062,24.84,3.3455,2.8455,2.3455
635,2025-11-17 11:00:00+00:00,5.2454996,80.0,2.0752091,2.0771751,3.0,0.0,0.0,0.0,0.0,0.0,3.0,1004.9,1000.22705,94.0,77.0,65.0,0.0,24360.0,9.504272,15.408671,16.199999,16.992609,322.69595,322.59457,323.13,323.61554,24.119999,4.0455,3.5455,3.0455
636,2025-11-17 12:00:00+00:00,5.2955,76.0,1.4063215,1.9497175,0.0,0.0,0.0,0.0,0.0,0.0,3.0,1006.5,1001.8205,90.0,66.0,70.0,0.0,32720.0,9.931042,16.08761,16.870138,17.654688,316.46872,319.53784,320.1945,320.79282,28.44,4.0455,3.5455,3.0455
637,2025-11-17 13:00:00+00:00,6.0955,68.0,0.6298983,2.3952723,0.0,0.0,0.0,0.0,0.0,0.0,3.0,1006.1,1001.43555,93.0,74.0,70.0,0.0,50360.0,11.4862,20.3774,22.17144,22.9724,327.8043,327.99466,327.6002,327.8043,25.56,5.0455,4.5455,3.9455001
638,2025-11-17 14:00:00+00:00,6.0455,71.0,1.1817168,2.5961552,18.0,0.0,0.0,0.0,0.0,0.0,2.0,1006.8,1002.1317,70.0,70.0,0.0,0.0,44940.0,10.383987,18.581022,20.08916,21.385939,303.6901,305.53775,306.25394,306.09836,26.64,5.0455,4.5455,4.0455
639,2025-11-17 15:00:00+00:00,5.3954997,82.0,2.5686445,2.0579085,43.0,0.0,0.0,0.0,0.0,0.0,80.0,1007.4,1002.718,100.0,100.0,100.0,0.0,11740.0,11.269782,21.120682,23.090569,25.071098,296.56497,299.62366,300.96368,302.09256,30.960001,4.4455,3.9455001,3.4455001
640,2025-11-17 16:00:00+00:00,4.4455,80.0,1.2954772,0.90851927,5.0,0.8,0.8,0.0,0.0,0.0,61.0,1009.0,1004.2945,100.0,35.0,100.0,0.0,27940.0,11.113451,20.456745,22.90743,27.459293,294.90472,298.36896,300.19153,304.31516,32.760002,3.6455,3.1455,2.7455
641,2025-11-17 17:00:00+00:00,4.3455,83.0,1.711747,0.8715,0.0,0.0,0.0,0.0,0.0,0.0,2.0,1010.1,1005.38776,43.0,43.0,0.0,0.0,21760.0,11.165805,21.794127,24.967499,32.97097,290.77234,292.3287,294.7174,301.60745,24.48,3.7455,3.3455,3.0455
642,2025-11-17 18:00:00+00:00,3.5955,86.0,1.4721752,0.061127663,0.0,0.0,0.0,0.0,0.0,0.0,1.0,1011.6,1006.86774,36.0,20.0,19.0,0.0,16820.0,11.298495,22.66857,26.161375,36.204617,300.65057,302.68054,304.34616,311.7754,26.28,3.0455,2.5455,2.4455001
643,2025-11-17 19:00:00+00:00,2.9955,88.0,1.2021881,-0.53938174,0.0,0.0,0.0,0.0,0.0,0.0,0.0,1012.0,1007.25586,0.0,0.0,0.0,0.0,13840.0,10.990322,22.26768,26.496098,35.63818,301.60745,304.46088,306.7143,315.0001,25.199999,2.4455001,2.0455,2.2455
644,2025-11-17 20:00:00+00:00,2.4955,87.0,0.55102885,-0.9758644,0.0,0.0,0.0,0.0,0.0,0.0,0.0,1013.3,1008.54114,0.0,0.0,0.0,0.0,14440.0,9.826088,20.00512,27.579382,34.114628,298.4428,300.25635,305.97247,314.145,24.48,1.9455,1.8455,2.4455001
645,2025-11-17 21:00:00+00:00,1.8955001,88.0,0.11812987,-1.639349,0.0,0.0,0.0,0.0,0.0,0.0,1.0,1014.4,1009.6256,54.0,54.0,0.0,0.0,13480.0,9.793058,20.730501,29.795301,38.278683,287.1028,290.3232,295.01685,301.1485,22.319998,1.4455,1.3455,2.2455
646,2025-11-17 22:00:00+00:00,1.7955,89.0,0.17551585,-1.7955446,0.0,0.0,0.0,0.0,0.0,0.0,1.0,1014.0,1009.2259,41.0,41.0,0.0,0.0,10560.0,10.239453,21.749481,30.173496,39.001472,280.1246,282.42593,287.3541,293.9625,22.68,1.2455001,1.1455001,1.9455
647,2025-11-17 23:00:00+00:00,1.5955,89.0,-0.021847505,-2.1738958,0.0,0.0,0.0,0.0,0.0,0.0,1.0,1014.3,1009.521,9.0,9.0,0.0,0.0,10640.0,11.252519,23.023119,27.887802,39.067875,277.3523,279.9041,281.16483,286.59818,24.84,1.0455,0.74549997,1.1455001
648,2025-11-18 00:00:00+00:00,1.2955,88.0,-0.4732045,-2.432056,0.0,0.0,0.0,0.0,0.0,0.0,0.0,1015.0,1010.21234,0.0,0.0,0.0,0.0,12300.0,10.495713,21.986542,29.519999,40.121838,264.09396,267.1845,270.0,275.1478,24.48,0.8455,0.5455,1.1455001
649,2025-11-18 01:00:00+00:00,1.1955,86.0,-0.8868761,-2.75554,0.0,0.0,0.0,0.0,0.0,0.0,1.0,1014.9,1010.11127,32.0,32.0,0.0,0.0,16420.0,11.609651,23.828083,28.496904,42.864193,262.8751,265.66776,266.37857,271.92514,25.56,0.6455,0.34550002,0.5455
650,2025-11-18 02:00:00+00:00,1.2955,84.0,-1.1105183,-2.8913035,0.0,0.0,0.0,0.0,0.0,0.0,2.0,1015.2,1010.4114,74.0,20.0,61.0,0.0,21300.0,13.004921,27.038372,32.402,39.98594,265.23645,266.94717,269.3634,272.06378,28.8,0.8455,0.44550002,0.2455
651,2025-11-18 03:00:00+00:00,1.4955001,86.0,-0.591973,-2.5573177,0.0,0.0,0.0,0.0,0.0,0.0,3.0,1015.4,1010.61395,97.0,72.0,86.0,16.0,15960.0,12.605142,25.56,30.248568,34.589985,268.36346,270.0,271.3639,272.3859,29.519999,0.94549996,0.5455,0.1455
652,2025-11-18 04:00:00+00:00,1.8955001,88.0,0.11812987,-1.8395412,0.0,0.0,0.0,0.0,0.0,0.0,3.0,1014.5,1009.7251,84.0,48.0,32.0,53.0,12040.0,11.165805,23.241617,28.467329,36.258274,249.22766,253.81071,256.84244,263.15732,27.359999,1.3455,1.0455,0.8455
653,2025-11-18 05:00:00+00:00,2.0455,90.0,0.5769248,-1.7653463,5.0,0.0,0.0,0.0,0.0,0.0,3.0,1014.9,1010.12573,97.0,82.0,90.0,15.0,9680.0,12.181625,24.379204,29.337238,34.17157,251.0295,253.70587,255.7932,258.45334,26.28,1.4455,1.0455,0.6455
654,2025-11-18 06:00:00+00:00,2.2955,89.0,0.66891426,-1.6856084,0.0,0.0,0.0,0.0,0.0,0.0,3.0,1014.9,1010.1302,95.0,73.0,76.0,21.0,11740.0,13.450708,26.459389,30.385365,34.674183,254.47583,255.01831,256.29303,257.40668,29.16,1.7455001,1.3455,0.8455
655,2025-11-18 07:00:00+00:00,2.4955,89.0,0.86627007,-1.4842868,10.0,0.0,0.0,0.0,0.0,0.0,3.0,1014.8,1010.0341,96.0,72.0,82.0,0.0,10860.0,13.661038,26.758923,30.758411,34.925564,251.56496,252.78384,253.68607,255.67725,29.88,1.8455,1.3455,0.94549996
656,2025-11-18 08:00:00+00:00,2.9455001,87.0,0.99392337,-1.5168929,13.0,0.0,0.0,0.0,0.0,0.0,51.0,1015.5,1010.7385,89.0,84.0,62.0,0.0,12400.0,17.114204,32.058193,35.65454,39.122574,255.37909,257.68057,258.34973,259.931,39.6,2.1455,1.7455001,1.1455001
657,2025-11-18 09:00:00+00:00,3.6955001,82.0,0.90698224,-0.59157753,3.0,0.0,0.0,0.0,0.0,0.0,3.0,1015.8,1011.05005,93.0,75.0,75.0,0.0,21220.0,15.815435,29.301876,32.55363,34.38895,258.17853,259.3804,259.80856,259.74887,42.48,2.8455,2.3455,1.7455001
658,2025-11-18 10:00:00+00:00,4.3455,79.0,1.0229622,0.1289177,3.0,0.0,0.0,0.0,0.0,0.0,3.0,1014.9,1010.1654,93.0,87.0,77.0,6.0,27940.0,15.463244,28.174456,30.718357,32.846916,257.90524,259.69522,259.8754,260.53775,35.64,3.3455,2.8455,2.2455
659,2025-11-18 11:00:00+00:00,5.2955,73.0,0.8458078,0.40572548,5.0,0.0,0.0,0.0,0.0,0.0,3.0,1014.6,1009.8828,100.0,100.0,96.0,67.0,39680.0,19.881649,36.504074,40.121838,42.63227,264.80566,264.908,264.8522,265.1561,43.199997,4.2454996,3.7455,3.1455
660,2025-11-18 12:00:00+00:00,5.8954997,72.0,1.2321857,1.6110435,23.0,0.0,0.0,0.0,0.0,0.0,3.0,1014.6,1009.893,100.0,88.0,69.0,100.0,42160.0,16.167967,30.009838,33.26252,35.39186,258.4399,259.63373,260.028,260.63358,43.92,4.8455,4.3455,3.7455
661,2025-11-18 13:00:00+00:00,5.9954996,73.0,1.5209126,1.5428457,53.0,0.0,0.0,0.0,0.0,0.0,61.0,1014.1,1009.3969,100.0,100.0,97.0,18.0,40720.0,17.654688,33.033802,36.44722,39.061245,249.71735,249.59003,249.77505,250.06192,42.12,5.0455,4.5455,4.0455
662,2025-11-18 14:00:00+00:00,6.1454997,73.0,1.6655694,1.7760253,20.0,0.0,0.0,0.0,0.0,0.0,61.0,1014.0,1009.2999,99.0,96.0,89.0,0.0,41380.0,17.25373,31.624725,35.16962,37.77256,246.64441,247.22958,247.1094,247.59012,39.6,5.2454996,4.8455,4.2454996
663,2025-11-18 15:00:00+00:00,5.9455,75.0,1.8505185,1.8935862,10.0,0.0,0.0,0.0,0.0,0.0,3.0,1013.4,1008.6992,100.0,85.0,100.0,100.0,39000.0,15.2947035,29.144442,32.688713,35.42846,243.43501,244.38455,244.56383,244.73694,34.56,5.2454996,4.7454996,4.2454996
664,2025-11-18 16:00:00+00:00,5.4954996,76.0,1.6001031,1.7941561,15.0,0.0,0.0,0.0,0.0,0.0,3.0,1013.0,1008.2935,100.0,44.0,100.0,100.0,36980.0,12.594856,24.514387,27.86921,30.918108,239.03632,240.04648,241.4487,242.24155,31.68,4.8455,4.3455,3.8455
665,2025-11-18 17:00:00+00:00,5.0455,80.0,1.8802823,1.558146,20.0,0.0,0.0,0.0,0.0,0.0,3.0,1013.1,1008.3854,100.0,25.0,100.0,0.0,28900.0,11.457958,22.691423,26.31942,30.027107,226.27295,228.21558,229.9938,232.3057,28.08,4.3455,3.9455001,3.4455001
666,2025-11-18 18:00:00+00:00,4.2454996,84.0,1.7813251,0.3948326,28.0,0.0,0.0,0.0,0.0,0.0,3.0,1012.5,1007.77466,100.0,55.0,97.0,99.0,20160.0,13.830749,26.826641,30.886656,34.145008,218.65984,220.10085,220.74608,222.43619,30.239998,3.5455,3.0455,2.5455
667,2025-11-18 19:00:00+00:00,3.9455001,86.0,1.8161708,0.21542835,55.0,0.4,0.2,0.2,0.0,0.0,61.0,1012.2,1007.47095,100.0,82.0,97.0,0.0,16520.0,13.044722,24.72495,28.775238,32.58348,219.40063,222.04915,223.47928,224.9999,32.039997,3.2455,2.7455,2.2455
668,2025-11-18 20:00:00+00:00,3.9455001,84.0,1.4872713,0.011260986,45.0,0.1,0.1,0.0,0.0,0.0,61.0,1012.0,1007.27185,100.0,65.0,100.0,0.0,20460.0,14.05845,26.787966,30.827856,34.37387,219.80553,221.18584,222.63371,223.72705,30.239998,3.2455,2.7455,2.2455
669,2025-11-18 21:00:00+00:00,4.0455,83.0,1.4180973,-0.097326756,23.0,0.0,0.0,0.0,0.0,0.0,61.0,1011.9,1007.17426,100.0,64.0,100.0,0.0,21500.0,15.408671,29.131096,33.425762,36.95396,217.40543,219.98683,221.06972,222.23608,32.760002,3.3455,2.8455,2.3455
670,2025-11-18 22:00:00+00:00,3.7455,83.0,1.1244403,-0.45749164,58.0,0.0,0.0,0.0,0.0,0.0,3.0,1011.5,1006.7711,100.0,84.0,100.0,0.0,21600.0,15.484185,29.30409,33.342297,37.84283,215.53777,217.01076,217.98355,219.59618,33.12,3.0455,2.5455,2.0455
671,2025-11-18 23:00:00+00:00,3.3455,84.0,0.8991407,-1.0537906,95.0,0.1,0.1,0.0,0.0,0.0,61.0,1011.0,1006.26654,100.0,95.0,100.0,0.0,20000.0,16.575644,30.888754,34.921856,38.627514,214.3804,216.46933,217.46063,219.32695,35.28,2.5455,2.0455,1.5455
672,2025-11-19 00:00:00+00:00,3.0955,84.0,0.6540781,-1.4604363,90.0,0.4,0.4,0.0,0.0,0.0,61.0,1011.0,1006.2621,100.0,89.0,100.0,0.0,18860.0,17.377226,31.667723,34.71341,36.509396,219.95749,220.38927,220.79456,220.60121,36.0,2.2455,1.7455001,1.1455001
673,2025-11-19 01:00:00+00:00,2.8955,85.0,0.62194276,-1.567482,90.0,0.4,0.4,0.0,0.0,0.0,61.0,1010.0,1005.26355,100.0,93.0,100.0,0.0,17680.0,16.704155,29.59235,31.39233,32.90408,217.11694,216.59119,216.60716,216.99536,38.519997,2.0455,1.5455,1.0455
674,2025-11-19 02:00:00+00:00,2.5455,86.0,0.4401388,-2.2586377,98.0,0.8,0.8,0.0,0.0,0.0,61.0,1009.9,1005.15784,100.0,93.0,100.0,0.0,14580.0,18.844202,33.864883,36.150883,37.169018,223.45189,223.7079,224.19316,224.21526,39.96,1.6455001,1.1455001,0.74549997
675,2025-11-19 03:00:00+00:00,2.5455,87.0,0.6002398,-1.6755908,78.0,0.1,0.1,0.0,0.0,0.0,53.0,1009.5,1004.7597,98.0,85.0,84.0,0.0,12820.0,15.021105,27.511158,30.58517,31.869658,225.97093,227.12111,227.86247,228.2053,37.44,1.7455001,1.2455001,0.74549997
676,2025-11-19 04:00:00+00:00,2.5955,88.0,0.80799294,-1.3319073,38.0,0.0,0.0,0.0,0.0,0.0,3.0,1008.9,1004.1635,100.0,100.0,67.0,0.0,11300.0,13.237038,24.184391,26.983196,29.533169,224.9999,224.39697,224.9999,225.98767,33.48,1.7455001,1.2455001,0.74549997
677,2025-11-19 05:00:00+00:00,2.6955001,87.0,0.74787253,-0.87744856,3.0,0.0,0.0,0.0,0.0,0.0,3.0,1009.0,1004.26483,100.0,100.0,71.0,0.0,13280.0,10.739832,20.65848,23.933908,27.238943,219.55963,221.4676,223.7812,225.53539,32.039997,1.9455,1.5455,0.94549996
678,2025-11-19 06:00:00+00:00,2.6955001,86.0,0.58757746,-0.82933784,5.0,0.0,0.0,0.0,0.0,0.0,3.0,1008.8,1004.06573,97.0,93.0,43.0,0.0,15320.0,10.233123,19.373219,22.159746,25.460934,219.28938,221.98714,223.02507,226.14568,24.119999,1.9455,1.4455,0.94549996
679,2025-11-19 07:00:00+00:00,2.5955,86.0,0.489285,-0.79120255,3.0,0.0,0.0,0.0,0.0,0.0,3.0,1009.0,1004.263,97.0,94.0,39.0,0.0,15040.0,9.178235,16.75064,18.892282,22.682856,205.55992,208.21725,210.96368,215.9606,21.24,1.8455,1.3455,0.8455
680,2025-11-19 08:00:00+00:00,2.4955,85.0,0.22929814,-1.2144465,0.0,0.0,0.0,0.0,0.0,0.0,2.0,1009.3,1004.55994,59.0,57.0,0.0,5.0,15560.0,11.113451,19.969458,22.415602,24.881702,204.90474,207.95087,209.85892,211.39021,24.119999,1.5455,1.1455001,0.5455
681,2025-11-19 09:00:00+00:00,2.5955,82.0,-0.16834885,-1.1994672,0.0,0.0,0.0,0.0,0.0,0.0,3.0,1008.6,1003.86487,100.0,98.0,0.0,100.0,22140.0,11.27553,19.694992,21.288757,22.545315,196.69933,198.10385,198.74144,199.59238,24.84,1.5455,1.0455,0.5455
682,2025-11-19 10:00:00+00:00,3.2455,79.0,-0.047752503,-0.45275736,0.0,0.0,0.0,0.0,0.0,0.0,2.0,1008.1,1003.3782,51.0,51.0,0.0,0.0,26900.0,10.739833,17.555305,18.899143,20.150354,193.57045,195.46127,197.74477,198.75874,24.84,2.0455,1.5455,0.94549996
683,2025-11-19 11:00:00+00:00,4.0955,76.0,0.24352588,0.32880116,0.0,0.0,0.0,0.0,0.0,0.0,2.0,1007.2,1002.49695,74.0,48.0,50.0,0.0,31620.0,11.5199995,18.733839,19.829433,20.929596,180.0,182.20255,183.12207,183.94511,25.56,2.7455,2.2455,1.6455001
684,2025-11-19 12:00:00+00:00,5.2454996,67.0,-0.38709047,1.3289156,0.0,0.0,0.0,0.0,0.0,0.0,2.0,1007.2,1002.5163,27.0,15.0,13.0,0.0,49740.0,11.885453,19.45333,20.532627,21.2522,178.26433,177.87895,177.9905,178.05856,28.8,3.9455001,3.4455001,2.8455
685,2025-11-19 13:00:00+00:00,5.6955,66.0,-0.1645537,1.7017326,18.0,0.0,0.0,0.0,0.0,0.0,3.0,1005.6,1000.93134,98.0,76.0,91.0,0.0,53460.0,12.6462,20.907913,22.7057,23.770906,175.101,177.03912,177.27374,178.26433,27.359999,4.5455,4.0455,3.4455001
686,2025-11-19 14:00:00+00:00,5.5455,68.0,0.10373996,1.1791191,73.0,0.1,0.1,0.0,0.0,0.0,61.0,1005.3,1000.63025,97.0,87.0,92.0,9.0,26720.0,15.484185,27.729347,30.259275,31.698402,181.33218,181.48784,182.04536,181.95247,32.760002,4.5455,4.0455,3.4455001
687,2025-11-19 15:00:00+00:00,4.4954996,80.0,1.3442118,0.4119854,100.0,0.7,0.7,0.0,0.0,0.0,61.0,1005.1,1000.4136,97.0,97.0,88.0,49.0,23780.0,14.917212,26.576681,29.122198,30.244286,188.32556,188.56906,188.53069,188.90164,36.36,3.5455,3.0455,2.4455001
688,2025-11-19 16:00:00+00:00,3.9955,82.0,1.2002361,0.14718056,63.0,0.2,0.2,0.0,0.0,0.0,61.0,1004.8,1000.10645,100.0,100.0,100.0,45.0,23440.0,13.138765,24.149532,26.758923,29.09103,189.46225,190.3048,190.85637,192.14426,33.48,3.1455,2.6455,2.0455
689,2025-11-19 17:00:00+00:00,3.9955,84.0,1.536281,0.43241405,15.0,0.0,0.0,0.0,0.0,0.0,80.0,1004.3,999.60876,100.0,100.0,0.0,0.0,19380.0,11.570515,21.626984,24.482647,27.74103,174.64427,177.13765,179.1575,182.23112,28.44,3.1455,2.7455,2.2455
690,2025-11-19 18:00:00+00:00,4.0955,85.0,1.7998054,0.5719075,3.0,0.0,0.0,0.0,0.0,0.0,3.0,1004.1,999.4114,97.0,94.0,52.0,0.0,17460.0,11.609651,21.316135,24.162945,28.442278,172.87508,175.15608,176.58348,180.7252,27.0,3.2455,2.8455,2.3455
691,2025-11-19 19:00:00+00:00,4.0955,86.0,1.9635949,0.87497425,0.0,0.0,0.0,0.0,0.0,0.0,3.0,1004.0,999.3119,100.0,100.0,76.0,34.0,15320.0,9.726665,18.03237,20.598795,26.983194,182.12105,183.43356,185.01303,193.1092,24.119999,3.3455,2.8455,2.5455
692,2025-11-19 20:00:00+00:00,4.0955,87.0,2.1257064,1.0597253,5.0,0.0,0.0,0.0,0.0,0.0,3.0,1003.8,999.1128,100.0,100.0,93.0,100.0,13540.0,8.654986,15.192682,16.87398,21.26744,163.0724,166.29301,168.92984,177.08922,20.16,3.2455,2.7455,2.3455
693,2025-11-19 21:00:00+00:00,3.9955,78.0,0.5057691,0.44681787,33.0,0.0,0.0,0.0,0.0,0.0,3.0,1003.9,999.2107,100.0,100.0,95.0,0.0,30940.0,10.308831,18.64369,21.077686,23.857979,167.90526,169.99208,172.14677,174.80566,21.24,3.2455,2.7455,2.2455
694,2025-11-19 22:00:00+00:00,3.8955,79.0,0.58495843,-0.086063385,68.0,0.1,0.1,0.0,0.0,0.0,61.0,1002.8,998.11426,95.0,78.0,87.0,0.0,30220.0,13.363711,25.099514,28.112288,30.85307,184.63538,188.24623,189.58287,191.44101,29.16,3.1455,2.6455,2.0455
695,2025-11-19 23:00:00+00:00,3.7455,79.0,0.43895242,0.05864525,85.0,0.0,0.0,0.0,0.0,0.0,61.0,1002.5,997.8132,100.0,99.0,83.0,100.0,30120.0,11.183201,20.883104,24.122683,30.855171,176.30869,179.01227,180.85507,187.37367,29.519999,2.9455001,2.5455,2.2455
696,2025-11-20 00:00:00+00:00,3.9955,72.0,-0.59755653,0.1838727,85.0,0.0,0.0,0.0,0.0,0.0,3.0,1002.5,997.8172,100.0,82.0,100.0,60.0,44640.0,10.948973,20.674158,24.216522,28.449112,170.53775,172.99883,174.88278,178.54982,24.119999,3.2455,2.8455,2.3455
697,2025-11-20 01:00:00+00:00,2.6455,87.0,0.6986618,-1.1024733,95.0,0.70000005,0.70000005,0.0,0.0,0.0,61.0,1002.0,997.2967,99.0,94.0,98.0,0.0,12840.0,11.885453,20.883104,22.319998,24.122683,178.26433,179.01227,180.0,180.85507,31.68,1.6455001,1.1455001,0.6455
698,2025-11-20 02:00:00+00:00,2.4955,88.0,0.709443,-1.3557224,100.0,0.70000005,0.70000005,0.0,0.0,0.0,61.0,1001.8,997.09515,100.0,94.0,100.0,0.0,10440.0,12.605142,22.682856,25.210283,27.757376,178.36346,180.90936,181.63654,182.97366,27.72,1.5455,1.0455,0.5455
699,2025-11-20 03:00:00+00:00,1.9955001,91.0,0.6806532,-1.8604779,93.0,0.8,0.8,0.0,0.0,0.0,61.0,1001.7,996.9869,100.0,92.0,100.0,0.0,6780.0,12.605142,23.084955,26.400545,31.616526,181.63654,183.57626,185.47728,187.85323,28.08,1.0455,0.6455,0.1455
700,2025-11-20 04:00:00+00:00,1.8955001,91.0,0.5817234,-1.9300623,93.0,0.4,0.4,0.0,0.0,0.0,61.0,1000.9,996.18915,100.0,92.0,100.0,0.0,6000.0,12.287555,22.505037,25.86494,30.500309,185.04236,187.35228,188.80672,191.57516,27.72,0.94549996,0.5455,0.045500003
701,2025-11-20 05:00:00+00:00,1.8955001,91.0,0.5817234,-1.8474035,73.0,0.2,0.2,0.0,0.0,0.0,80.0,1001.2,996.48773,97.0,94.0,33.0,0.0,5720.0,11.720751,21.829777,24.975283,28.802248,190.6196,193.34874,195.03787,198.20857,26.28,1.0455,0.5455,0.045500003
702,2025-11-20 06:00:00+00:00,1.9455,88.0,0.16740665,-2.0029802,33.0,0.2,0.0,0.0,0.0,0.0,85.0,1000.3,995.59283,98.0,95.0,39.0,0.0,9980.0,12.682018,22.91026,25.86494,28.664682,186.5197,188.13002,188.80672,191.59215,31.319998,1.0455,0.6455,0.2455
703,2025-11-20 07:00:00+00:00,2.3955,86.0,0.292699,-1.2072263,15.0,0.0,0.0,0.0,0.0,0.0,80.0,1000.7,995.9985,100.0,100.0,84.0,0.0,15980.0,10.446206,20.240196,23.177402,27.698952,181.97488,185.10208,186.24182,188.97255,27.359999,1.6455001,1.1455001,0.74549997
704,2025-11-20 08:00:00+00:00,2.8455,84.0,0.4090105,-1.3601935,38.0,0.0,0.0,0.0,0.0,0.0,61.0,1001.0,996.30493,99.0,96.0,94.0,0.0,18960.0,14.707222,26.00486,27.943512,29.07989,201.54105,201.94876,201.93854,201.80147,31.68,1.9455,1.4455,0.94549996
705,2025-11-20 09:00:00+00:00,3.1955001,84.0,0.7521041,-0.5923414,75.0,0.4,0.4,0.0,0.0,0.0,80.0,1001.6,996.908,100.0,87.0,100.0,0.0,18920.0,12.218805,22.401142,24.184391,25.711662,224.9999,224.9999,225.60301,225.56718,34.2,2.2455,1.7455001,1.1455001
706,2025-11-20 10:00:00+00:00,3.4955,83.0,0.87971944,-0.1671853,80.0,0.0,0.0,0.0,0.0,0.0,61.0,1001.8,997.11206,100.0,100.0,100.0,0.0,19160.0,11.503113,20.60823,22.768398,24.248613,249.86362,250.61539,251.56496,251.83395,25.919998,2.4455001,1.9455,1.3455
707,2025-11-20 11:00:00+00:00,3.3455,83.0,0.73288435,-0.5564232,75.0,0.0,0.0,0.0,0.0,0.0,80.0,1002.3,997.60724,100.0,100.0,100.0,0.0,18540.0,12.979984,21.9718,23.411074,24.490587,266.82022,268.12216,268.23764,268.31534,29.16,2.2455,1.7455001,1.1455001
708,2025-11-20 12:00:00+00:00,3.0455,85.0,0.7691812,-0.79594994,60.0,0.0,0.0,0.0,0.0,0.0,3.0,1003.2,998.4981,100.0,100.0,100.0,0.0,14360.0,12.605142,21.96,23.762726,25.20257,268.36346,270.0,270.86804,270.81842,29.519999,1.9455,1.4455,0.8455
709,2025-11-20 13:00:00+00:00,2.8455,83.0,0.24342129,-0.98109555,88.0,0.1,0.1,0.0,0.0,0.0,80.0,1003.8,999.0918,97.0,96.0,86.0,0.0,20000.0,11.928989,20.275383,21.791153,23.266697,275.19434,276.11542,277.59454,278.00464,31.319998,1.7455001,1.2455001,0.74549997
710,2025-11-20 14:00:00+00:00,3.3955,79.0,0.09826165,-1.0735428,28.0,0.0,0.0,0.0,0.0,0.0,80.0,1005.4,1000.6937,100.0,100.0,89.0,0.0,28600.0,16.179985,29.882166,33.425762,36.16701,290.85452,291.92963,292.14523,292.22507,34.2,2.4455001,1.9455,1.4455
711,2025-11-20 15:00:00+00:00,3.6955001,78.0,0.21417956,-0.76999784,15.0,0.0,0.0,0.0,0.0,0.0,80.0,1006.6,1001.89307,74.0,72.0,3.0,0.0,33380.0,16.279802,30.853073,34.387066,37.123665,288.03436,289.06927,289.5732,289.8408,33.839996,2.9455001,2.4455001,1.9455
712,2025-11-20 16:00:00+00:00,3.1955001,79.0,-0.09642434,-1.4031157,3.0,0.0,0.0,0.0,0.0,0.0,80.0,1007.8,1003.079,71.0,71.0,0.0,0.0,30140.0,16.862455,31.534437,35.52527,38.84832,286.1135,288.64188,289.53674,290.61826,37.8,2.4455001,1.9455,1.4455
713,2025-11-20 17:00:00+00:00,2.7455,82.0,-0.021706162,-1.5757184,3.0,0.0,0.0,0.0,0.0,0.0,2.0,1009.0,1004.2655,80.0,80.0,0.0,0.0,24200.0,15.03835,28.387545,32.219494,35.457714,281.0409,282.44998,283.57043,285.30618,34.92,1.9455,1.5455,0.94549996
714,2025-11-20 18:00:00+00:00,1.9455,85.0,-0.31060722,-2.3799882,0.0,0.0,0.0,0.0,0.0,0.0,2.0,1010.7,1005.944,80.0,80.0,0.0,0.0,15780.0,14.764389,27.0024,30.259275,32.85678,268.60284,270.7639,272.04535,274.39862,31.68,1.1455001,0.6455,0.1455
715,2025-11-20 19:00:00+00:00,1.4955001,84.0,-0.9144393,-2.764165,0.0,0.0,0.0,0.0,0.0,0.0,2.0,1011.2,1006.4337,56.0,56.0,0.0,0.0,19160.0,13.698934,25.651104,28.623962,31.616526,273.01273,274.83032,276.49924,277.8532,34.56,0.74549997,0.2455,-0.2545
716,2025-11-20 20:00:00+00:00,0.94549996,85.0,-1.2923106,-3.1626887,0.0,0.0,0.0,0.0,0.0,0.0,1.0,1012.2,1007.41956,29.0,29.0,0.0,0.0,18700.0,12.287555,23.42491,27.0024,30.96837,264.95764,267.3575,269.2361,271.33218,28.44,0.2455,-0.15450001,-0.6545
717,2025-11-20 21:00:00+00:00,0.34550002,86.0,-1.7224685,-3.822954,0.0,0.0,0.0,0.0,0.0,0.0,1.0,1013.6,1008.80237,19.0,19.0,0.0,0.0,16420.0,12.287555,24.162945,28.460497,34.567497,264.95764,266.58347,267.8253,271.19345,26.64,-0.2545,-0.6545,-1.0545
718,2025-11-20 22:00:00+00:00,0.09550001,87.0,-1.8112919,-4.079058,0.0,0.0,0.0,0.0,0.0,0.0,1.0,1013.6,1008.798,39.0,39.0,0.0,0.0,13400.0,12.245294,23.803596,27.834309,34.62369,271.68463,273.46817,275.19434,278.97253,26.28,-0.55450004,-0.8545,-1.2544999
719,2025-11-20 23:00:00+00:00,0.1455,84.0,-2.2380338,-3.9694085,0.0,0.0,0.0,0.0,0.0,0.0,0.0,1014.2,1009.3961,0.0,0.0,0.0,0.0,20740.0,11.440978,22.61419,28.038431,39.279613,282.72437,283.81503,285.6423,289.26535,25.919998,-0.3545,-0.75450003,-0.55450004
720,2025-11-21 00:00:00+00:00,-0.40449998,86.0,-2.4597967,-4.1403995,0.0,0.0,0.0,0.0,0.0,0.0,0.0,1014.9,1010.08295,0.0,0.0,0.0,0.0,16900.0,8.64,16.981165,20.316889,27.504095,270.0,274.8644,277.1249,284.40005,23.4,-0.9545,-1.3544999,-1.3544999
721,2025-11-21 01:00:00+00:00,-0.9545,89.0,-2.538415,-4.7008367,0.0,0.0,0.0,0.0,0.0,0.0,1.0,1015.7,1010.8697,0.0,0.0,0.0,0.0,9140.0,8.64,16.575644,22.81957,27.959742,270.0,272.4895,276.3401,281.88864,18.0,-1.6545,-1.8544999,-1.7544999
722,2025-11-21 02:00:00+00:00,-1.2045,91.0,-2.4853187,-4.703322,0.0,0.0,0.0,0.0,0.0,0.0,1.0,1016.2,1011.36285,27.0,27.0,0.0,0.0,6920.0,6.9899354,13.397612,19.110542,24.288662,258.11136,263.82993,273.23962,281.9761,18.0,-1.8544999,-2.0544999,-1.9545
723,2025-11-21 03:00:00+00:00,-1.7544999,91.0,-3.0295146,-5.354167,0.0,0.0,0.0,0.0,0.0,0.0,1.0,1016.2,1011.353,51.0,51.0,0.0,0.0,5540.0,7.2,13.339445,18.175545,23.000591,270.0,273.094,277.9695,287.3006,16.56,-2.5544999,-2.8545,-2.9545
724,2025-11-21 04:00:00+00:00,-1.9545,91.0,-3.2274075,-5.599874,0.0,0.0,0.0,0.0,0.0,0.0,2.0,1016.7,1011.84717,49.0,49.0,0.0,0.0,6620.0,7.342588,12.979984,16.595179,21.862406,258.6901,266.82022,273.73132,287.24155,16.199999,-2.7545,-3.1545,-2.9545
725,2025-11-21 05:00:00+00:00,-2.2045,91.0,-3.4747763,-5.8237104,0.0,0.0,0.0,0.0,0.0,0.0,1.0,1017.6,1012.73816,15.0,15.0,0.0,0.0,5880.0,6.9527545,12.413476,16.700275,20.240196,248.74942,253.14151,262.5687,275.10208,15.84,-2.9545,-3.0544999,-2.9545
726,2025-11-21 06:00:00+00:00,-2.7045,91.0,-3.969521,-6.525844,0.0,0.0,0.0,0.0,0.0,0.0,1.0,1018.5,1013.625,31.0,31.0,0.0,0.0,5460.0,7.928178,14.830076,21.542923,26.758923,272.6025,275.5721,279.61966,289.6539,16.919998,-3.4545,-3.4545,-2.9545
727,2025-11-21 07:00:00+00:00,-2.7545,89.0,-4.3150244,-6.470093,0.0,0.0,0.0,0.0,0.0,0.0,1.0,1019.0,1014.12164,0.0,0.0,0.0,0.0,9100.0,6.924738,13.698934,19.201874,23.795427,261.02747,266.98727,276.4587,287.61267,16.919998,-3.4545,-3.2545,-2.6545
728,2025-11-21 08:00:00+00:00,-2.5045,86.0,-4.524522,-6.237327,0.0,0.0,0.0,0.0,0.0,0.0,1.0,1020.3,1015.4201,23.0,23.0,0.0,0.0,13780.0,6.87779,12.605142,18.089775,23.491207,263.9911,268.36346,275.7105,285.10114,15.84,-3.3545,-3.4545,-3.1545
729,2025-11-21 09:00:00+00:00,-1.6044999,82.0,-4.2751555,-5.3605385,0.0,0.0,0.0,0.0,0.0,0.0,1.0,1021.2,1016.3317,3.0,3.0,0.0,0.0,21340.0,7.2359104,12.964998,16.215992,22.881956,264.2895,268.4089,272.54474,282.72437,15.84,-2.4545,-2.9545,-2.7545
730,2025-11-21 10:00:00+00:00,-0.75450003,78.0,-4.1122327,-4.543517,0.0,0.0,0.0,0.0,0.0,0.0,0.0,1021.6,1016.7451,0.0,0.0,0.0,0.0,27720.0,7.5942073,11.212135,11.928989,18.161278,275.44025,275.52744,275.19434,283.7608,17.28,-1.8544999,-2.3545,-2.6545
731,2025-11-21 11:00:00+00:00,0.09550001,76.0,-3.6337326,-3.8453054,0.0,0.0,0.0,0.0,0.0,0.0,0.0,1021.5,1016.6605,0.0,0.0,0.0,0.0,32360.0,9.028754,14.33234,15.137133,16.09969,293.49857,295.27768,295.34613,296.56497,20.880001,-1.0545,-1.5545,-2.1545
732,2025-11-21 12:00:00+00:00,1.5455,73.0,-2.7719893,-2.2872348,0.0,0.0,0.0,0.0,0.0,0.0,0.0,1021.8,1016.9847,0.0,0.0,0.0,0.0,38720.0,9.028754,13.202726,14.007655,14.48972,293.49857,295.8663,295.90643,296.56497,20.519999,0.2455,-0.2545,-0.8545
733,2025-11-21 13:00:00+00:00,1.9955001,72.0,-2.5241675,-1.8573389,0.0,0.0,0.0,0.0,0.0,0.0,1.0,1021.7,1016.89276,4.0,4.0,0.0,0.0,39640.0,9.387651,14.982228,15.696165,16.199999,302.47116,305.21768,306.60718,306.86996,21.599998,0.74549997,0.2455,-0.3545
734,2025-11-21 14:00:00+00:00,1.9955001,73.0,-2.3377504,-1.9970999,0.0,0.0,0.0,0.0,0.0,0.0,0.0,1022.3,1017.4899,0.0,0.0,0.0,0.0,40340.0,10.514218,17.148247,18.161278,18.899143,308.0471,309.0355,309.3693,310.36444,23.4,0.94549996,0.44550002,-0.0545
735,2025-11-21 15:00:00+00:00,1.5955,75.0,-2.358782,-2.0405731,0.0,0.0,0.0,0.0,0.0,0.0,0.0,1023.1,1018.27954,0.0,0.0,0.0,0.0,37180.0,8.049845,14.336861,15.315873,16.299694,296.56497,298.49554,299.57773,300.52963,22.319998,0.74549997,0.34550002,-0.2545
736,2025-11-21 16:00:00+00:00,0.99549997,80.0,-2.067855,-2.3265889,0.0,0.0,0.0,0.0,0.0,0.0,2.0,1023.5,1018.6672,54.0,54.0,0.0,0.0,30060.0,6.162207,12.074766,13.797913,16.311613,276.70975,280.30478,285.12405,292.0363,16.919998,0.34550002,-0.0545,-0.55450004
737,2025-11-21 17:00:00+00:00,0.5455,82.0,-2.1726642,-2.9060528,0.0,0.0,0.0,0.0,0.0,0.0,2.0,1023.7,1018.8582,42.0,42.0,0.0,0.0,24360.0,6.9527545,15.315873,19.803272,22.065973,291.25058,293.55228,297.0308,303.6901,14.759999,0.045500003,-0.0545,-0.2545
738,2025-11-21 18:00:00+00:00,0.045500003,85.0,-2.1759067,-3.2913177,0.0,0.0,0.0,0.0,0.0,0.0,0.0,1024.7,1019.8445,30.0,30.0,0.0,0.0,17600.0,6.162207,13.797913,19.191748,22.104116,276.70975,285.12405,293.1986,300.32352,15.4800005,-0.55450004,-0.4545,-0.6545
739,2025-11-21 19:00:00+00:00,-0.20449999,84.0,-2.5812113,-3.7670224,0.0,0.0,0.0,0.0,0.0,0.0,2.0,1025.3,1020.43726,85.0,85.0,0.0,0.0,19120.0,7.342588,14.494192,19.809813,23.667091,281.3099,284.38144,289.0936,296.17523,15.84,-0.8545,-0.8545,-0.8545
740,2025-11-21 20:00:00+00:00,-0.4545,84.0,-2.826344,-3.9768445,0.0,0.0,0.0,0.0,0.0,0.0,2.0,1026.0,1021.1294,60.0,60.0,0.0,0.0,19080.0,6.849467,13.493999,19.137648,23.540806,273.01273,279.21094,286.38962,293.4287,15.4800005,-1.1545,-1.0545,-0.9545
741,2025-11-21 21:00:00+00:00,-1.0044999,87.0,-2.8941445,-4.48323,0.0,0.0,0.0,0.0,0.0,0.0,2.0,1026.9,1022.01544,60.0,60.0,0.0,0.0,12240.0,6.489992,13.084402,18.947083,22.59699,273.17978,277.90707,284.30032,292.47946,15.4800005,-1.7544999,-1.3544999,-1.2544999
742,2025-11-21 22:00:00+00:00,-1.2045,87.0,-3.0910351,-4.601783,0.0,0.0,0.0,0.0,0.0,0.0,2.0,1026.5,1021.61383,70.0,70.0,0.0,0.0,12940.0,5.7599998,10.853866,16.167967,20.268991,270.0,275.7105,281.5601,289.72235,14.4,-1.9545,-1.7544999,-1.6545
743,2025-11-21 23:00:00+00:00,-1.4045,89.0,-2.9825509,-4.9061594,0.0,0.0,0.0,0.0,0.0,0.0,1.0,1026.6,1021.7095,29.0,29.0,0.0,0.0,9940.0,6.5693827,13.556282,18.345877,20.799152,279.46225,280.71307,285.94547,293.45905,14.04,-2.0544999,-1.7544999,-1.4545
744,2025-11-22 00:00:00+00:00,-2.1045,93.0,-3.08396,-5.4642315,0.0,0.0,0.0,0.0,0.0,0.0,1.0,1026.7,1021.79645,38.0,38.0,0.0,0.0,4020.0,5.506941,10.739833,16.394829,20.12461,281.3099,283.57043,289.23077,296.56497,14.04,-2.8545,-2.4545,-1.9545
745,2025-11-22 01:00:00+00:00,-2.2045,93.0,-3.183149,-5.6201563,0.0,0.0,0.0,0.0,0.0,0.0,1.0,1027.1,1022.19275,20.0,20.0,0.0,0.0,4580.0,5.8048253,12.371645,17.377226,19.255793,277.1249,278.36578,283.17255,290.80685,12.24,-2.7545,-2.2545,-1.6545
746,2025-11-22 02:00:00+00:00,-2.3545,92.0,-3.476863,-5.702527,0.0,0.0,0.0,0.0,0.0,0.0,0.0,1027.2,1022.2896,0.0,0.0,0.0,0.0,5240.0,5.0911684,12.605142,17.313717,18.998314,261.87,268.36346,273.57626,279.81924,12.24,-2.7545,-2.0544999,-1.5545
747,2025-11-22 03:00:00+00:00,-2.8044999,95.0,-3.4935975,-5.8818207,0.0,0.0,0.0,0.0,0.0,0.0,0.0,1027.4,1022.4807,38.0,38.0,0.0,0.0,2540.0,3.219938,9.114471,13.684735,17.373497,243.43501,260.9098,268.49258,275.94678,10.799999,-2.9545,-2.4545,-1.8544999
748,2025-11-22 04:00:00+00:00,-2.9545,96.0,-3.5025585,-6.0614476,0.0,0.0,0.0,0.0,0.0,0.0,2.0,1026.8,1021.8808,66.0,66.0,0.0,0.0,2320.0,3.4152596,7.653705,10.636766,14.618837,198.43504,228.81418,246.0375,260.07382,7.2,-3.1545,-3.1545,-2.4545
749,2025-11-22 05:00:00+00:00,-2.9545,95.0,-3.6427383,-6.179076,0.0,0.0,0.0,0.0,0.0,0.0,3.0,1027.1,1022.1793,87.0,87.0,0.0,0.0,2300.0,4.1046314,8.78872,11.808878,15.175612,195.25517,214.9921,232.43134,247.69374,9.36,-3.5544999,-3.4545,-2.7545
750,2025-11-22 06:00:00+00:00,-3.1045,92.0,-4.219895,-6.481756,0.0,0.0,0.0,0.0,0.0,0.0,1.0,1027.3,1022.37573,52.0,52.0,0.0,0.0,4720.0,4.6800003,9.585739,14.05845,17.873556,202.6199,214.28693,230.19447,242.40279,10.440001,-3.8545,-3.2545,-2.7545
751,2025-11-22 07:00:00+00:00,-3.1545,91.0,-4.4148,-6.4200044,0.0,0.0,0.0,0.0,0.0,0.0,3.0,1027.4,1022.47424,96.0,96.0,0.0,0.0,5700.0,3.7585104,9.0,13.324863,16.42247,196.69933,216.86998,231.58191,243.9967,9.72,-3.6545,-2.9545,-2.5544999
752,2025-11-22 08:00:00+00:00,-2.6545,87.0,-4.5185676,-6.0477524,0.0,0.0,0.0,0.0,0.0,0.0,3.0,1028.3,1023.37897,84.0,84.0,0.0,4.0,11520.0,4.5536795,9.387651,14.113652,17.25373,198.43504,212.47118,232.25313,246.64441,10.799999,-3.4545,-2.5544999,-1.9545
753,2025-11-22 09:00:00+00:00,-2.1045,84.0,-4.444344,-5.755312,0.0,0.0,0.0,0.0,0.0,0.0,2.0,1027.6,1022.6922,59.0,59.0,0.0,0.0,15900.0,6.379216,9.565437,15.124284,18.218275,196.38962,199.79897,218.23386,232.22426,13.32,-3.0544999,-2.4545,-1.8544999
754,2025-11-22 10:00:00+00:00,-1.3045,81.0,-4.1453466,-4.805071,0.0,0.0,0.0,0.0,0.0,0.0,1.0,1027.2,1022.30853,6.0,6.0,0.0,0.0,21840.0,5.5887027,8.311245,13.089354,17.31746,194.93147,197.6502,211.50421,226.68465,13.679999,-2.3545,-2.3545,-1.6545
755,2025-11-22 11:00:00+00:00,-0.20449999,79.0,-3.406734,-3.6746616,0.0,0.0,0.0,0.0,0.0,0.0,1.0,1026.6,1021.731,34.0,3.0,0.0,32.0,26780.0,5.991594,8.78872,9.504272,15.9134655,212.73521,214.9921,217.30403,232.35231,14.04,-1.2544999,-1.7544999,-1.7544999
756,2025-11-22 12:00:00+00:00,1.1455001,75.0,-2.794365,-2.3598843,0.0,0.0,0.0,0.0,0.0,0.0,1.0,1026.3,1021.45654,25.0,25.0,0.0,0.0,34260.0,6.763786,9.983106,10.464797,11.119281,205.2011,205.64096,206.56499,209.0545,15.4800005,0.045500003,-0.4545,-0.9545
757,2025-11-22 13:00:00+00:00,1.6455001,75.0,-2.3103852,-1.906451,0.0,0.0,0.0,0.0,0.0,0.0,0.0,1025.8,1020.96747,0.0,0.0,0.0,0.0,36780.0,7.5170207,12.0694,12.522619,13.32,196.69933,197.35411,198.43504,198.92474,16.919998,0.6455,0.1455,-0.3545
758,2025-11-22 14:00:00+00:00,1.6955,77.0,-1.9052827,-1.6522176,0.0,0.0,0.0,0.0,0.0,0.0,0.0,1025.8,1020.96844,0.0,0.0,0.0,0.0,34920.0,6.489992,12.245293,13.527572,14.973577,199.44012,204.30453,205.2011,207.18103,16.919998,0.94549996,0.44550002,-0.0545
759,2025-11-22 15:00:00+00:00,1.2455001,78.0,-2.167505,-2.1942744,0.0,0.0,0.0,0.0,0.0,0.0,1.0,1025.2,1020.36316,6.0,6.0,0.0,0.0,33980.0,6.87779,14.934577,18.455048,21.261345,186.00891,195.37631,200.55612,208.30066,14.04,0.74549997,0.34550002,0.045500003
760,2025-11-22 16:00:00+00:00,0.69549996,80.0,-2.360375,-2.7768977,0.0,0.0,0.0,0.0,0.0,0.0,1.0,1024.8,1019.9556,22.0,22.0,0.0,0.0,29860.0,6.924738,15.827721,20.945072,23.966375,188.97255,197.19862,204.36244,212.73521,14.759999,0.34550002,0.2455,0.1455
761,2025-11-22 17:00:00+00:00,0.34550002,81.0,-2.5340297,-3.1207232,0.0,0.0,0.0,0.0,0.0,0.0,1.0,1024.8,1019.94946,19.0,19.0,0.0,0.0,27860.0,6.725354,15.646544,21.30093,24.627789,195.52417,203.02553,210.46547,217.87505,14.759999,-0.0545,0.1455,0.045500003
762,2025-11-22 18:00:00+00:00,-0.30449998,83.0,-2.84068,-3.9434571,0.0,0.0,0.0,0.0,0.0,0.0,0.0,1025.1,1020.23645,48.0,48.0,0.0,0.0,20800.0,7.6367526,16.418526,22.73707,26.980793,188.13002,195.25517,203.31773,211.35703,14.4,-0.8545,-0.4545,-0.3545
763,2025-11-22 19:00:00+00:00,-0.75450003,83.0,-3.2813342,-4.4429746,0.0,0.0,0.0,0.0,0.0,0.0,0.0,1024.9,1020.0295,3.0,3.0,0.0,0.0,20520.0,7.5942073,15.192682,22.26477,27.288855,185.44025,193.70699,202.8337,210.96368,16.199999,-1.4545,-0.9545,-0.75450003
764,2025-11-22 20:00:00+00:00,-1.1044999,83.0,-3.6240766,-4.945446,0.0,0.0,0.0,0.0,0.0,0.0,1.0,1024.7,1019.8239,15.0,15.0,0.0,0.0,20400.0,8.350138,15.893093,23.73271,29.204409,187.43132,193.0919,202.28563,210.35803,18.0,-1.7544999,-1.2544999,-0.75450003
765,2025-11-22 21:00:00+00:00,-1.4545,85.0,-3.6487,-4.9870872,0.0,0.0,0.0,0.0,0.0,0.0,1.0,1024.5,1019.6189,0.0,0.0,0.0,0.0,17960.0,6.2145634,12.522619,19.694992,24.248611,190.00792,198.43504,210.78407,220.78572,16.919998,-2.1545,-1.4545,-0.8545
766,2025-11-22 22:00:00+00:00,-1.7045,85.0,-3.8941813,-5.124823,0.0,0.0,0.0,0.0,0.0,0.0,0.0,1023.3,1018.4201,0.0,0.0,0.0,0.0,17860.0,5.2416787,12.24,18.440998,22.932877,195.94547,208.07239,218.65984,227.54485,13.32,-2.2545,-1.2544999,-0.55450004
767,2025-11-22 23:00:00+00:00,-2.1545,86.0,-4.1803803,-5.750665,0.0,0.0,0.0,0.0,0.0,0.0,0.0,1022.9,1018.01373,0.0,0.0,0.0,0.0,15300.0,6.2145634,13.397612,18.25026,20.969807,169.99208,186.17007,202.01134,214.50858,13.32,-2.7545,-1.9545,-1.4545
768,2025-11-23 00:00:00+00:00,-2.6045,89.0,-4.166967,-6.199214,0.0,0.0,0.0,0.0,0.0,0.0,0.0,1022.9,1018.00574,0.0,0.0,0.0,0.0,9980.0,6.2145634,14.05845,19.137648,21.897945,169.99208,182.93561,196.38962,207.40749,14.04,-3.1545,-2.1545,-1.5545
769,2025-11-23 01:00:00+00:00,-2.8044999,89.0,-4.3643765,-6.466783,0.0,0.0,0.0,0.0,0.0,0.0,0.0,1022.7,1017.80316,0.0,0.0,1.0,0.0,9960.0,6.519877,14.113653,20.275385,22.539564,173.6599,185.85593,196.50444,206.56499,14.04,-3.4545,-2.5544999,-1.8544999
770,2025-11-23 02:00:00+00:00,-2.9545,88.0,-4.6624246,-6.697648,0.0,0.0,0.0,0.0,0.0,0.0,1.0,1022.6,1017.70087,23.0,0.0,5.0,20.0,10740.0,6.8399997,13.397612,20.037485,23.675304,180.0,186.17007,197.78398,208.12364,14.759999,-3.6545,-2.8545,-2.1545
771,2025-11-23 03:00:00+00:00,-3.3044999,90.0,-4.7098436,-7.1264067,0.0,0.0,0.0,0.0,0.0,0.0,3.0,1021.9,1016.99786,89.0,0.0,46.0,79.0,7320.0,7.342588,14.440443,20.833395,23.263912,168.69011,175.71092,189.95056,201.80147,15.4800005,-4.0545,-3.0544999,-2.4545
772,2025-11-23 04:00:00+00:00,-3.4045,90.0,-4.808675,-7.3512297,0.0,0.0,0.0,0.0,0.0,0.0,3.0,1020.9,1016.001,100.0,54.0,87.0,100.0,6580.0,8.12197,15.5843,23.0653,27.466372,167.19574,173.36758,182.68372,190.57347,17.64,-4.1545,-3.7545,-3.1545
773,2025-11-23 05:00:00+00:00,-3.3545,90.0,-4.759259,-7.285139,0.0,0.0,0.0,0.0,0.0,0.0,3.0,1020.4,1015.5041,100.0,0.0,52.0,100.0,7400.0,8.049845,15.158522,23.535301,29.601109,169.6952,175.91446,186.14653,193.36023,17.64,-4.1545,-3.4545,-2.7545
774,2025-11-23 06:00:00+00:00,-3.7045,86.0,-5.7045,-7.6607065,0.0,0.0,0.0,0.0,0.0,0.0,3.0,1019.5,1014.602,100.0,0.0,100.0,100.0,13300.0,7.5170207,13.556282,21.602999,27.466372,163.30067,169.28693,180.95482,190.57347,18.359999,-4.5545,-3.6545,-2.6545
775,2025-11-23 07:00:00+00:00,-3.7545,85.0,-5.9073057,-7.739528,0.0,0.0,0.0,0.0,0.0,0.0,3.0,1019.2,1014.30286,100.0,0.0,100.0,87.0,15020.0,7.5685663,13.570615,20.617662,25.922499,154.65387,158.19853,167.90526,179.2043,18.0,-4.5545,-4.2545004,-3.5544999
776,2025-11-23 08:00:00+00:00,-3.6045,82.0,-6.2313333,-7.615389,0.0,0.0,0.0,0.0,0.0,0.0,3.0,1019.0,1014.1063,100.0,0.0,100.0,53.0,19700.0,7.5170207,12.661564,19.852295,26.009842,163.30067,165.17348,175.84044,184.76355,16.919998,-4.5545,-4.0545,-3.3545
777,2025-11-23 09:00:00+00:00,-3.1545,79.0,-6.279905,-7.137035,0.0,0.0,0.0,0.0,0.0,0.0,2.0,1018.3,1013.41785,94.0,0.0,56.0,84.0,27060.0,7.289444,11.726277,18.129137,24.522316,159.77505,162.12122,173.15732,183.3664,17.28,-4.1545,-4.0545,-3.1545
778,2025-11-23 10:00:00+00:00,-2.4545,75.0,-6.2799616,-6.66516,0.0,0.0,0.0,0.0,0.0,0.0,3.0,1017.4,1012.5347,100.0,0.0,58.0,100.0,34960.0,8.854829,14.33234,15.978484,24.031178,153.43501,154.72232,157.47939,171.38443,20.16,-3.5544999,-4.0545,-3.6545
779,2025-11-23 11:00:00+00:00,-1.5545,73.0,-5.7641807,-5.878955,0.0,0.0,0.0,0.0,0.0,0.0,3.0,1016.4,1011.55554,100.0,0.0,86.0,100.0,39420.0,10.00256,15.94601,17.388409,25.96496,149.74365,151.69934,152.90453,163.0724,21.96,-2.6545,-3.1545,-3.1545
780,2025-11-23 12:00:00+00:00,-0.004499998,69.0,-5.0155964,-4.3762493,0.0,0.0,0.0,0.0,0.0,0.0,1.0,1015.5,1010.6872,26.0,0.0,2.0,24.0,45300.0,10.883676,18.278645,19.576189,20.991426,145.78424,147.87503,147.77127,149.03632,24.48,-1.1545,-1.6545,-2.2545
781,2025-11-23 13:00:00+00:00,0.4955,69.0,-4.536023,-3.6936524,0.0,0.0,0.0,0.0,0.0,0.0,0.0,1014.3,1009.5017,0.0,0.0,0.0,0.0,48060.0,10.00256,16.75064,17.873556,18.514643,149.74365,151.78275,152.4028,153.43501,24.48,-0.55450004,-1.0545,-1.6545
782,2025-11-23 14:00:00+00:00,0.34550002,70.0,-4.488892,-3.866353,0.0,0.0,0.0,0.0,0.0,0.0,0.0,1013.2,1008.4043,0.0,0.0,0.0,0.0,47220.0,10.195057,17.884428,19.174856,20.240198,137.86247,139.89915,140.3322,141.49933,22.68,-0.55450004,-1.0545,-1.5545
783,2025-11-23 15:00:00+00:00,-0.15450001,67.0,-5.5474067,-4.5578947,0.0,0.0,0.0,0.0,0.0,0.0,0.0,1012.9,1008.09686,0.0,0.0,0.0,0.0,53040.0,10.703569,19.681828,21.758419,23.617756,137.72638,140.19447,141.04408,142.43134,23.039999,-0.9545,-1.3544999,-1.9545
784,2025-11-23 16:00:00+00:00,-0.75450003,70.0,-5.5457225,-5.453053,0.0,0.0,0.0,0.0,0.0,0.0,2.0,1011.3,1006.4941,79.0,0.0,0.0,79.0,48240.0,12.7279215,23.708124,26.826641,30.532158,135.0001,138.07755,139.89915,142.1842,27.359999,-1.4545,-1.9545,-2.4545
785,2025-11-23 17:00:00+00:00,-1.2045,75.0,-5.0694966,-5.7435975,0.0,0.0,0.0,0.0,0.0,0.0,3.0,1010.5,1005.69,100.0,0.0,100.0,100.0,38680.0,11.988594,22.322903,26.072052,36.086296,138.65233,142.206,144.5542,151.38963,28.08,-1.9545,-2.3545,-2.3545
786,2025-11-23 18:00:00+00:00,-1.6545,73.0,-5.860725,-6.2112255,0.0,0.0,0.0,0.0,0.0,0.0,0.0,1009.7,1004.88556,0.0,0.0,0.0,0.0,41380.0,11.525623,22.180206,27.666182,37.690125,141.34016,144.24602,147.75757,155.14844,25.919998,-2.3545,-2.7545,-2.2545
787,2025-11-23 19:00:00+00:00,-2.1045,73.0,-6.295193,-6.8087554,0.0,0.0,0.0,0.0,0.0,0.0,1.0,1007.7,1002.88727,12.0,0.0,0.0,12.0,41220.0,12.229406,22.915916,27.609911,37.868507,132.61403,136.27295,140.29013,150.9984,26.28,-2.8545,-3.1545,-2.5544999
788,2025-11-23 20:00:00+00:00,-2.6545,72.0,-7.0057797,-7.4652963,0.0,0.0,0.0,0.0,0.0,0.0,2.0,1007.1,1002.28033,99.0,0.0,5.0,98.0,43000.0,12.475961,23.441502,27.333935,38.535137,136.16905,137.4896,139.80803,150.32161,27.72,-3.3545,-3.7545,-3.2545
789,2025-11-23 21:00:00+00:00,-3.2545,72.0,-7.5842814,-8.123342,0.0,0.0,0.0,0.0,0.0,0.0,2.0,1005.8,1000.976,70.0,0.0,70.0,0.0,44180.0,12.496718,23.277834,26.712873,36.719997,138.50363,140.64827,142.66673,151.92761,28.44,-4.0545,-4.4545,-4.6545
790,2025-11-23 22:00:00+00:00,-3.6545,73.0,-7.79191,-8.557664,0.0,0.0,0.0,0.0,0.0,0.0,3.0,1005.3,1000.4712,100.0,0.0,100.0,0.0,39900.0,12.599998,23.269482,26.562046,38.526726,143.13002,145.08052,147.17146,156.3093,28.08,-4.4545,-4.8545003,-4.8545003
791,2025-11-23 23:00:00+00:00,-3.6545,73.0,-7.79191,-8.602125,0.0,0.0,0.0,0.0,0.0,0.0,3.0,1003.7,998.8789,96.0,0.0,96.0,0.0,40780.0,12.904882,23.358423,26.886963,39.04797,149.8587,151.46011,153.77809,161.732,28.08,-4.5545,-4.9545,-4.9545
792,2025-11-24 00:00:00+00:00,-3.2045,71.0,-7.717021,-8.027992,15.0,0.0,0.0,0.0,0.0,0.0,3.0,1001.8,996.99615,100.0,88.0,97.0,100.0,44300.0,12.10157,21.897945,25.44566,36.44722,149.62096,152.59251,154.8852,163.35487,28.8,-4.0545,-4.4545,-4.4545
793,2025-11-24 01:00:00+00:00,-3.1045,79.0,-6.2311997,-7.8109536,50.0,0.1,0.0,0.0,0.07,0.0,71.0,1001.7,996.89844,100.0,95.0,100.0,75.0,2900.0,12.287555,21.749483,24.795612,34.32105,148.17259,151.31395,154.17906,164.79753,26.64,-4.0545,-4.4545,-4.7545004
794,2025-11-24 02:00:00+00:00,-2.9545,88.0,-4.6624246,-7.343658,90.0,0.8,0.0,0.0,0.56,0.01,71.0,1001.2,996.40344,100.0,100.0,94.0,0.0,1540.0,11.269782,20.61766,23.871555,28.802248,153.43501,155.22488,156.91484,161.79143,27.0,-3.9545,-4.3545003,-4.7545004
795,2025-11-24 03:00:00+00:00,-2.7045,88.0,-4.415971,-7.065409,65.0,0.4,0.0,0.0,0.28,0.01,71.0,1000.5,995.7111,100.0,100.0,0.0,0.0,9000.0,11.269782,20.799152,23.598541,28.483257,153.43501,156.54095,158.52315,163.85559,25.919998,-3.5544999,-4.0545,-4.4545
796,2025-11-24 04:00:00+00:00,-2.2545,89.0,-3.8215048,-6.380272,23.0,0.0,0.0,0.0,0.0,0.01,3.0,1000.0,995.22156,100.0,100.0,32.0,0.0,8400.0,10.137692,18.079027,20.833395,28.44,163.49556,167.34744,170.04944,180.0,25.56,-3.1545,-3.6545,-3.8545
797,2025-11-24 05:00:00+00:00,-1.8544999,88.0,-3.5780544,-5.8672667,13.0,0.0,0.0,0.0,0.0,0.01,3.0,999.5,994.7308,100.0,100.0,16.0,58.0,9940.0,9.565437,17.462782,20.833395,28.496904,160.20103,165.67725,170.04944,183.62141,22.68,-2.6545,-3.1545,-3.1545
798,2025-11-24 06:00:00+00:00,-1.5545,88.0,-3.2823296,-5.4142723,10.0,0.0,0.0,0.0,0.0,0.01,3.0,999.3,994.53705,100.0,100.0,0.0,27.0,9420.0,8.766573,16.595179,21.647945,28.054604,160.82089,167.4712,176.186,188.85788,20.16,-2.3545,-2.6545,-2.4545
799,2025-11-24 07:00:00+00:00,-1.0545,88.0,-2.7894661,-4.706703,8.0,0.0,0.0,0.0,0.0,0.01,3.0,999.3,994.5458,100.0,84.0,69.0,100.0,11480.0,7.771331,14.917212,21.626984,27.416782,166.60748,171.67444,182.86235,193.67133,19.08,-1.7544999,-1.8544999,-1.8544999
800,2025-11-24 08:00:00+00:00,-0.50450003,87.0,-2.4019296,-4.0765615,5.0,0.0,0.0,0.0,0.0,0.01,3.0,999.2,994.45593,100.0,100.0,100.0,100.0,13480.0,7.5685663,15.496736,21.96,29.035288,177.27374,182.66295,190.38881,199.55835,17.64,-1.1545,-1.4545,-1.3544999
801,2025-11-24 09:00:00+00:00,0.045500003,86.0,-2.017395,-3.5788467,3.0,0.0,0.0,0.0,0.0,0.01,3.0,998.6,993.86816,100.0,81.0,12.0,100.0,15060.0,8.28,16.981165,22.380884,29.07989,180.0,184.86443,191.12915,201.80147,18.72,-0.6545,-1.0545,-0.8545
802,2025-11-24 10:00:00+00:00,0.8455,83.0,-1.7146413,-2.790914,5.0,0.0,0.0,0.0,0.0,0.01,3.0,998.9,994.1805,98.0,97.0,89.0,0.0,20620.0,8.647496,15.876775,18.888851,26.183659,177.6141,183.90042,187.66672,198.43504,19.08,-0.0545,-0.4545,-0.55450004
803,2025-11-24 11:00:00+00:00,1.6455001,79.0,-1.6053846,-1.9756169,0.0,0.0,0.0,0.0,0.0,0.01,3.0,998.7,993.9951,100.0,71.0,0.0,98.0,27380.0,8.647496,16.65754,19.70815,22.963936,182.3859,186.20335,189.46225,193.60056,20.880001,0.8455,0.34550002,-0.15450001
804,2025-11-24 12:00:00+00:00,2.5455,77.0,-1.080153,-1.0012197,0.0,0.0,0.0,0.0,0.0,0.0,2.0,997.8,993.1146,54.0,54.0,0.0,0.0,32160.0,8.647496,15.119999,16.575644,17.673029,177.6141,180.0,182.4895,183.50346,19.44,1.6455001,1.2455001,0.6455
805,2025-11-24 13:00:00+00:00,3.0955,77.0,-0.5462903,-0.5294442,0.0,0.0,0.0,0.0,0.0,0.0,1.0,997.6,992.92487,18.0,18.0,0.0,0.0,33980.0,9.72,18.0036,20.523155,22.33161,180.0,181.14574,181.00507,181.84756,21.599998,2.3455,1.8455,1.2455001
806,2025-11-24 14:00:00+00:00,3.1455,79.0,-0.14509659,-0.21010208,0.0,0.0,0.0,0.0,0.0,0.0,2.0,998.4,993.7221,63.0,63.0,0.0,0.0,32080.0,8.287822,17.373497,20.721119,24.087738,182.4895,185.94676,187.98924,189.46225,20.880001,2.6455,2.2455,1.7455001
807,2025-11-24 15:00:00+00:00,2.3455,83.0,-0.24606273,-0.7094898,0.0,0.0,0.0,0.0,0.0,0.0,2.0,998.9,994.20636,70.0,70.0,0.0,0.0,24540.0,6.12,15.273505,19.211996,22.450264,180.0,188.13002,192.99461,195.81926,16.919998,2.1455,1.8455,1.4455
808,2025-11-24 16:00:00+00:00,1.5955,88.0,-0.17753488,-1.5908716,0.0,0.0,0.0,0.0,0.0,0.0,2.0,998.4,993.6959,72.0,59.0,24.0,0.0,14660.0,7.0911775,18.161278,21.077686,23.042812,156.0375,166.2392,172.14677,179.10484,14.04,2.1455,2.0455,1.6455001
809,2025-11-24 17:00:00+00:00,1.2955,91.0,-0.011865252,-1.7705884,0.0,0.0,0.0,0.0,0.0,0.0,3.0,999.0,994.2878,100.0,92.0,100.0,0.0,9920.0,6.439876,17.782688,22.702845,24.609364,153.43501,158.62932,165.30264,174.1227,14.759999,1.4455,1.7455001,1.6455001
810,2025-11-24 18:00:00+00:00,1.8955001,88.0,0.11812987,-1.4014518,3.0,0.0,0.0,0.0,0.0,0.0,3.0,999.5,994.7957,100.0,91.0,100.0,0.0,12440.0,8.161764,18.171976,23.023117,26.415268,138.57643,146.3099,153.03436,162.55272,14.759999,1.4455,1.4455,1.4455
811,2025-11-24 19:00:00+00:00,1.8455,86.0,-0.24792758,-1.5076408,0.0,0.0,0.0,0.0,0.0,0.0,3.0,999.0,994.2971,100.0,72.0,100.0,0.0,16540.0,8.161764,16.489416,22.238562,26.980793,138.57643,143.88057,150.9455,161.3232,19.08,1.2455001,1.0455,1.2455001
812,2025-11-24 20:00:00+00:00,1.6455001,86.0,-0.4445239,-1.7442417,0.0,0.0,0.0,0.0,0.0,0.0,3.0,999.6,994.8908,96.0,71.0,79.0,0.0,16360.0,8.209263,16.485485,21.749481,25.849905,142.12495,148.39255,155.55606,167.125,17.64,1.0455,0.94549996,1.4455
813,2025-11-24 21:00:00+00:00,1.4955001,86.0,-0.591973,-1.801383,3.0,0.0,0.0,0.0,0.0,0.0,3.0,1000.0,995.2865,84.0,84.0,0.0,0.0,15180.0,7.42159,15.683774,21.868332,25.264202,140.90616,148.13406,159.77505,175.91446,17.28,0.94549996,1.3455,1.9455
814,2025-11-24 22:00:00+00:00,1.3955001,87.0,-0.5316561,-1.9840631,0.0,0.0,0.0,0.0,0.0,0.0,3.0,999.9,995.1855,95.0,95.0,0.0,0.0,13340.0,8.049845,16.746773,22.66857,27.047956,153.43501,154.5367,159.55037,170.03625,18.0,0.8455,0.8455,1.4455
815,2025-11-24 23:00:00+00:00,1.2955,88.0,-0.4732045,-1.951431,3.0,0.0,0.0,0.0,0.0,0.0,2.0,1000.0,995.2831,71.0,71.0,0.0,0.0,11660.0,7.2,15.0038395,20.49156,24.863468,143.13002,149.74365,161.56496,177.5105,17.64,0.74549997,0.94549996,1.7455001
816,2025-11-25 00:00:00+00:00,1.2455001,88.0,-0.5224833,-1.494194,3.0,0.0,0.0,0.0,0.0,0.0,2.0,1000.3,995.5807,83.0,80.0,0.0,26.0,12180.0,3.671294,6.3690495,8.350138,12.979984,101.3099,132.70937,172.56868,199.44012,14.759999,0.94549996,1.5455,2.2455
817,2025-11-25 01:00:00+00:00,1.2955,89.0,-0.31789613,-1.732739,0.0,0.0,0.0,0.0,0.0,0.0,3.0,1000.8,996.0793,100.0,100.0,90.0,73.0,9240.0,5.8603754,13.104198,15.042659,16.575644,137.4896,142.81522,158.96242,177.5105,12.599999,0.8455,1.2455001,1.7455001
818,2025-11-25 02:00:00+00:00,1.5455,89.0,-0.07118851,-1.5556967,0.0,0.0,0.0,0.0,0.0,0.0,3.0,1001.2,996.4818,100.0,100.0,100.0,100.0,9720.0,6.618519,13.551501,17.551615,19.652176,135.0001,140.38934,154.48618,171.57312,16.919998,0.8455,1.3455,1.9455
819,2025-11-25 03:00:00+00:00,1.5955,88.0,-0.17753488,-1.3029065,0.0,0.0,0.0,0.0,0.0,0.0,3.0,1001.1,996.3832,100.0,96.0,100.0,37.0,9760.0,5.1165614,9.931042,13.281023,14.332341,129.28938,133.53127,147.17146,168.40785,14.4,0.8455,1.0455,1.7455001
820,2025-11-25 04:00:00+00:00,1.6455001,89.0,0.027493613,-1.4217436,0.0,0.0,0.0,0.0,0.0,0.0,3.0,1001.0,996.28424,93.0,87.0,19.0,0.0,10060.0,6.489992,12.245293,14.77755,13.513193,109.440125,114.30454,124.07724,138.23979,13.32,0.94549996,1.0455,1.7455001
821,2025-11-25 05:00:00+00:00,1.4455,90.0,-0.015914895,-1.6850374,3.0,0.0,0.0,0.0,0.0,0.0,3.0,1001.7,996.97754,100.0,92.0,100.0,83.0,8360.0,6.8777895,12.475961,16.870138,20.00512,132.87889,136.16905,140.19447,149.74365,16.199999,0.74549997,0.44550002,0.94549996
822,2025-11-25 06:00:00+00:00,1.5455,89.0,-0.07118851,-1.7419109,0.0,0.0,0.0,0.0,0.0,0.0,3.0,1002.7,997.97473,100.0,83.0,10.0,100.0,9000.0,7.8954163,14.336861,17.935081,16.78156,114.22774,118.495544,128.48022,144.60512,17.64,0.74549997,0.94549996,2.5455
823,2025-11-25 07:00:00+00:00,1.4955001,88.0,-0.27609065,-1.8700671,10.0,0.0,0.0,0.0,0.0,0.0,3.0,1003.2,998.47144,100.0,100.0,83.0,100.0,10100.0,8.217153,15.496736,21.175837,21.892027,118.8107,120.73541,125.311295,135.0001,18.0,0.74549997,0.94549996,2.1455
824,2025-11-25 08:00:00+00:00,1.5455,87.0,-0.38401273,-1.8177924,20.0,0.0,0.0,0.0,0.0,0.0,3.0,1003.7,998.97003,100.0,86.0,67.0,100.0,10880.0,8.0899935,14.081477,19.008545,23.166216,122.27562,122.471176,127.30403,135.62952,20.519999,0.6455,0.34550002,0.74549997
825,2025-11-25 09:00:00+00:00,1.8455,85.0,-0.40877444,-1.3322206,30.0,0.0,0.0,0.0,0.0,0.0,3.0,1004.0,999.27356,88.0,69.0,65.0,0.0,13280.0,6.792466,10.383987,11.592894,16.299694,122.00535,123.690094,126.15828,136.78989,18.359999,0.8455,0.34550002,0.5455
826,2025-11-25 10:00:00+00:00,2.3955,82.0,-0.36387497,-0.25728273,23.0,0.0,0.0,0.0,0.0,0.0,3.0,1004.2,999.482,100.0,55.0,100.0,100.0,20120.0,3.2399998,3.96,4.3349743,8.714677,90.0,90.0,94.76356,128.2902,15.4800005,1.3455,0.8455,0.8455
827,2025-11-25 11:00:00+00:00,3.3455,77.0,-0.30363715,0.46817684,20.0,0.0,0.0,0.0,0.0,0.0,3.0,1004.9,1000.1951,100.0,84.0,92.0,100.0,30460.0,4.8433046,6.3690495,6.618519,6.696387,48.01287,47.290634,44.999897,53.74608,11.879999,2.2455,1.8455,1.3455
828,2025-11-25 12:00:00+00:00,4.1955,73.0,-0.21520983,1.0728421,15.0,0.0,0.0,0.0,0.0,0.0,3.0,1004.4,999.7118,96.0,69.0,32.0,74.0,38960.0,6.6185193,9.227524,9.693296,10.028439,67.61982,69.44388,68.19853,68.96242,16.919998,3.0455,2.5455,2.0455
829,2025-11-25 13:00:00+00:00,4.6454997,73.0,0.21886298,1.6860023,20.0,0.0,0.0,0.0,0.0,0.0,3.0,1005.4,1000.7147,100.0,100.0,100.0,100.0,39580.0,5.95906,8.699793,9.178235,9.504273,64.98315,65.55606,64.440094,65.37646,15.119999,3.5455,3.0455,2.5455
830,2025-11-25 14:00:00+00:00,4.8954997,72.0,0.2692284,1.8223882,10.0,0.0,0.0,0.0,0.0,0.0,3.0,1006.1,1001.41547,100.0,100.0,100.0,100.0,41700.0,6.792466,10.990322,11.4862,12.10157,57.99466,58.392544,57.804302,59.620956,15.4800005,3.9455001,3.4455001,2.9455001
831,2025-11-25 15:00:00+00:00,4.4455,76.0,0.58269256,1.4219761,10.0,0.0,0.0,0.0,0.0,0.0,3.0,1006.5,1001.80615,100.0,85.0,100.0,74.0,34280.0,6.792466,11.183201,11.885453,12.181624,57.99466,56.82148,54.865723,55.840256,16.199999,3.5455,3.0455,2.5455
832,2025-11-25 16:00:00+00:00,3.8955,76.0,0.04970952,0.5988188,10.0,0.0,0.0,0.0,0.0,0.0,3.0,1007.3,1002.59326,98.0,40.0,75.0,84.0,34960.0,8.0899935,14.386494,15.0038395,15.807239,57.724377,58.29862,59.743652,59.93151,17.64,3.1455,2.6455,2.1455
833,2025-11-25 17:00:00+00:00,2.8955,80.0,-0.21543713,-0.28159165,8.0,0.0,0.0,0.0,0.0,0.0,3.0,1007.9,1003.17346,100.0,52.0,100.0,100.0,26540.0,6.989936,13.044722,16.29174,19.406637,34.50859,39.400646,44.999897,49.51408,17.64,2.2455,1.8455,1.6455001
834,2025-11-25 18:00:00+00:00,2.8455,83.0,0.24342129,-0.25130892,5.0,0.0,0.0,0.0,0.0,0.0,3.0,1008.9,1004.1679,100.0,81.0,100.0,100.0,21720.0,6.9247384,12.7279215,15.459054,17.709658,62.10283,61.26031,62.24156,63.435013,15.4800005,2.1455,1.7455001,1.1455001
835,2025-11-25 19:00:00+00:00,2.5455,84.0,0.11492298,-0.49036717,0.0,0.0,0.0,0.0,0.0,0.0,3.0,1009.4,1004.6602,89.0,71.0,29.0,32.0,19580.0,6.3690495,12.313894,13.684735,15.990646,47.290634,52.124958,54.63746,58.81509,15.119999,1.8455,1.3455,0.8455
836,2025-11-25 20:00:00+00:00,1.8455,84.0,-0.57130915,-1.4583752,0.0,0.0,0.0,0.0,0.0,0.0,3.0,1010.1,1005.34485,100.0,65.0,100.0,100.0,19800.0,7.491114,13.551501,15.546833,20.188908,35.217674,39.61066,42.184383,50.063675,16.199999,1.0455,0.6455,0.34550002
837,2025-11-25 21:00:00+00:00,1.4955001,85.0,-0.7523645,-1.9225264,0.0,0.0,0.0,0.0,0.0,0.0,3.0,1010.0,1005.2394,100.0,53.0,100.0,100.0,16860.0,8.089993,14.707222,15.978484,21.09305,20.854538,21.54104,22.520613,27.439646,18.359999,0.74549997,0.2455,-0.2545
838,2025-11-25 22:00:00+00:00,0.8955,88.0,-0.86743915,-2.6120276,0.0,0.0,0.0,0.0,0.0,0.0,3.0,1011.1,1006.3238,100.0,72.0,100.0,79.0,9840.0,8.587338,15.778516,17.786331,18.79255,33.023872,34.777905,35.942207,36.43096,19.44,0.045500003,-0.4545,-0.9545
839,2025-11-25 23:00:00+00:00,0.34550002,90.0,-1.1028329,-3.4306598,0.0,0.0,0.0,0.0,0.0,0.0,3.0,1011.5,1006.71234,100.0,100.0,100.0,100.0,6440.0,10.195057,17.31746,18.335276,18.584509,42.13753,43.315353,43.408916,44.215275,22.319998,-0.6545,-1.1545,-1.6545
840,2025-11-26 00:00:00+00:00,0.2955,90.0,-1.1522397,-3.3176644,0.0,0.0,0.0,0.0,0.0,0.0,3.0,1011.7,1006.9106,100.0,100.0,100.0,0.0,5920.0,9.028754,15.2947035,16.58346,17.555307,23.498587,26.564985,27.121223,28.141502,22.319998,-0.6545,-1.1545,-1.6545
841,2025-11-26 01:00:00+00:00,0.44550002,88.0,-1.3109641,-3.1508975,0.0,0.0,0.0,0.0,0.0,0.0,3.0,1012.3,1007.5102,100.0,100.0,100.0,0.0,8900.0,8.759178,15.192682,16.862455,20.326454,9.462248,13.706991,16.113499,22.93213,20.16,-0.4545,-0.9545,-1.5545
842,2025-11-26 02:00:00+00:00,0.2955,86.0,-1.7716225,-3.5014,0.0,0.0,0.0,0.0,0.0,0.0,3.0,1012.6,1007.8063,100.0,100.0,100.0,0.0,11780.0,9.6932955,16.516901,17.654686,18.899143,15.068549,16.46009,16.58742,17.744766,21.96,-0.6545,-1.1545,-1.7544999
843,2025-11-26 03:00:00+00:00,0.4955,86.0,-1.5750073,-3.2103338,0.0,0.0,0.0,0.0,0.0,0.0,3.0,1012.1,1007.31213,99.0,94.0,85.0,0.0,12820.0,9.255571,15.725037,17.309973,18.671474,13.495748,15.945477,16.927603,19.133741,21.24,-0.4545,-0.9545,-1.4545
844,2025-11-26 04:00:00+00:00,0.1455,85.0,-2.0777264,-3.7315397,0.0,0.0,0.0,0.0,0.0,0.0,3.0,1012.6,1007.80365,97.0,97.0,0.0,0.0,14060.0,9.9571085,17.462782,18.692286,20.150354,12.528798,14.322761,15.642312,18.758749,23.039999,-0.8545,-1.3544999,-1.8544999
845,2025-11-26 05:00:00+00:00,-0.20449999,87.0,-2.106608,-4.184628,0.0,0.0,0.0,0.0,0.0,0.0,3.0,1013.7,1008.8923,97.0,94.0,49.0,0.0,10920.0,10.636766,18.35647,19.966211,20.929594,23.962492,25.559923,25.640957,26.564985,23.4,-1.1545,-1.6545,-2.2545
846,2025-11-26 06:00:00+00:00,-0.30449998,87.0,-2.2050476,-4.1116443,0.0,0.0,0.0,0.0,0.0,0.0,3.0,1015.1,1010.2839,99.0,77.0,93.0,0.0,10860.0,9.360001,16.45007,18.204042,21.09305,22.61991,23.198618,24.537718,27.439646,24.119999,-1.2544999,-1.7544999,-2.2545
847,2025-11-26 07:00:00+00:00,-0.4545,89.0,-2.0449429,-4.2412033,0.0,0.0,0.0,0.0,0.0,0.0,3.0,1015.1,1010.2811,97.0,79.0,85.0,0.0,7960.0,9.3669195,16.65754,18.584509,27.009598,2.2025495,6.20336,8.914849,21.09242,21.599998,-1.3544999,-1.8544999,-2.2545
848,2025-11-26 08:00:00+00:00,0.045500003,90.0,-1.3992754,-3.5339947,0.0,0.0,0.0,0.0,0.0,0.0,3.0,1015.7,1010.8872,100.0,90.0,97.0,0.0,5720.0,8.557102,15.034041,20.674158,28.551426,337.75092,343.3007,352.9988,5.063538,20.16,-0.8545,-1.2544999,-0.75450003
849,2025-11-26 09:00:00+00:00,0.5955,90.0,-0.85580105,-3.0129523,0.0,0.0,0.0,0.0,0.0,0.0,3.0,1016.6,1011.7926,100.0,97.0,100.0,0.0,4940.0,9.290511,15.683774,17.906157,28.277763,324.46225,328.13406,329.82657,338.33395,23.759998,-0.3545,-0.8545,-0.9545
850,2025-11-26 10:00:00+00:00,1.6955,87.0,-0.23637074,-1.8020966,0.0,0.0,0.0,0.0,0.0,0.0,3.0,1016.4,1011.6127,95.0,89.0,11.0,11.0,9920.0,9.1641035,15.856354,18.289274,28.357857,315.0001,320.52756,323.8067,339.95465,20.880001,0.74549997,0.2455,0.44550002
851,2025-11-26 11:00:00+00:00,3.1955001,82.0,0.41820922,-0.26178336,0.0,0.0,0.0,0.0,0.0,0.0,3.0,1016.2,1011.4397,100.0,100.0,100.0,0.0,21400.0,9.585739,18.089775,21.261345,23.83624,325.71307,328.84076,331.69934,334.98312,23.759998,2.2455,1.7455001,1.2455001
852,2025-11-26 12:00:00+00:00,4.1454997,84.0,1.6833076,1.0164652,0.0,0.0,0.0,0.0,0.0,0.0,3.0,1016.3,1011.55536,98.0,78.0,87.0,18.0,17920.0,8.766573,15.978486,18.079027,20.478907,340.8209,345.65063,347.34744,349.8754,22.68,3.2455,2.7455,2.2455
853,2025-11-26 13:00:00+00:00,4.8455,83.0,2.2011473,1.4570484,0.0,0.0,0.0,0.0,0.0,0.0,3.0,1016.4,1011.66693,97.0,94.0,68.0,0.0,19620.0,11.165805,20.150354,22.206486,24.280659,339.22766,341.24124,343.03375,344.5213,24.119999,3.8455,3.4455001,2.8455
854,2025-11-26 14:00:00+00:00,5.0455,81.0,2.0543666,1.7552309,0.0,0.0,0.0,0.0,0.0,0.0,3.0,1016.8,1012.0682,100.0,88.0,95.0,1.0,25360.0,10.315115,19.161337,21.603,23.598541,330.75128,334.39786,336.42526,338.52313,27.72,4.2454996,3.7455,3.1455
855,2025-11-26 15:00:00+00:00,4.6454997,81.0,1.6639465,1.0695653,0.0,0.0,0.0,0.0,0.0,0.0,3.0,1016.2,1011.4644,92.0,86.0,49.0,0.0,25260.0,11.808878,22.26768,25.460936,28.277763,322.43134,325.53912,326.5346,328.5359,23.759998,3.8455,3.4455001,2.8455
856,2025-11-26 16:00:00+00:00,4.1454997,82.0,1.346859,0.5569749,0.0,0.0,0.0,0.0,0.0,0.0,2.0,1017.1,1012.3516,80.0,80.0,0.0,0.0,24340.0,11.525623,22.682856,26.562046,31.259941,321.34018,324.0394,327.17145,331.07367,26.64,3.5455,3.1455,2.6455
857,2025-11-26 17:00:00+00:00,3.3955,86.0,1.2756029,-0.009218216,0.0,0.0,0.0,0.0,0.0,0.0,3.0,1018.0,1013.23474,88.0,68.0,0.0,57.0,15440.0,10.182337,20.421871,24.122686,33.672993,315.0001,319.28925,322.27493,331.24298,24.84,2.7455,2.3455,2.3455
858,2025-11-26 18:00:00+00:00,3.0955,89.0,1.4583242,-0.27854872,0.0,0.0,0.0,0.0,0.0,0.0,2.0,1018.3,1013.5279,69.0,47.0,0.0,39.0,10840.0,10.182337,20.65848,27.504093,36.43655,315.0001,318.53238,322.98004,330.39563,22.319998,2.5455,2.3455,2.5455
859,2025-11-26 19:00:00+00:00,3.0455,90.0,1.5649524,-0.27381277,0.0,0.0,0.0,0.0,0.0,0.0,2.0,1019.3,1014.5226,56.0,56.0,0.0,0.0,8980.0,9.931042,20.746122,27.257967,36.233246,316.46872,321.34018,326.3099,334.708,23.4,2.5455,2.3455,2.6455
860,2025-11-26 20:00:00+00:00,2.8955,91.0,1.5710028,-0.23672438,0.0,0.0,0.0,0.0,0.0,0.0,3.0,1019.9,1015.1172,100.0,100.0,0.0,0.0,7820.0,8.654987,17.654688,24.66197,31.557035,315.0001,320.79282,326.3099,332.8504,20.880001,2.3455,2.1455,2.4455001
861,2025-11-26 21:00:00+00:00,3.4455001,88.0,1.6456461,0.2436738,0.0,0.0,0.0,0.0,0.0,0.0,3.0,1019.2,1014.4297,85.0,85.0,0.0,0.0,10960.0,9.220499,18.335276,20.364674,27.579382,308.65982,313.4089,315.0001,324.0275,18.72,2.8455,2.3455,2.0455
862,2025-11-26 22:00:00+00:00,3.4955,90.0,2.0095491,0.4927225,0.0,0.0,0.0,0.0,0.0,0.0,3.0,1020.0,1015.2269,100.0,100.0,0.0,0.0,7500.0,8.287822,15.580141,18.59845,24.627789,304.3804,310.31403,312.64667,322.12497,20.519999,2.8455,2.3455,2.0455
863,2025-11-26 23:00:00+00:00,3.5455,91.0,2.2140114,0.58794117,3.0,0.0,0.0,0.0,0.0,0.0,3.0,1020.2,1015.42694,94.0,92.0,2.0,0.0,6920.0,8.225035,15.2947035,17.727943,21.986542,293.1986,296.56497,299.1675,309.6854,17.64,2.8455,2.3455,2.0455
864,2025-11-27 00:00:00+00:00,3.2455,90.0,1.762552,-0.1978159,3.0,0.0,0.0,0.0,0.0,0.0,3.0,1020.6,1015.81964,100.0,100.0,0.0,0.0,7000.0,11.013882,19.386591,20.966715,21.862406,281.3099,285.06854,285.94547,287.24155,20.16,2.4455001,1.9455,1.4455
865,2025-11-27 01:00:00+00:00,3.1455,91.0,1.818316,-0.056068897,0.0,0.0,0.0,0.0,0.0,0.0,3.0,1020.7,1015.9176,100.0,100.0,0.0,0.0,6260.0,9.422101,16.75064,18.64369,22.768398,276.58185,278.65247,280.0079,288.43503,23.039999,2.3455,1.8455,1.5455
866,2025-11-27 02:00:00+00:00,3.0955,92.0,1.9218566,0.024862766,0.0,0.0,0.0,0.0,0.0,0.0,3.0,1020.8,1016.0162,95.0,95.0,0.0,0.0,4820.0,8.647496,15.484185,17.643673,21.03152,267.6141,268.66782,271.1691,276.88162,21.599998,2.3455,1.8455,1.4455
867,2025-11-27 03:00:00+00:00,3.1455,91.0,1.818316,-0.06307173,0.0,0.0,0.0,0.0,0.0,0.0,51.0,1020.4,1015.619,100.0,100.0,0.0,0.0,6140.0,9.47012,17.698677,20.188908,21.2522,261.2539,265.33322,266.93356,268.05856,19.44,2.2455,1.7455001,1.3455
868,2025-11-27 04:00:00+00:00,3.0955,90.0,1.6143523,-0.07959747,0.0,0.0,0.0,0.0,0.0,0.0,51.0,1021.1,1016.31476,100.0,100.0,0.0,0.0,6560.0,9.0,15.905319,17.771753,20.478907,270.0,275.19434,276.98096,280.1246,23.039999,2.2455,1.8455,1.2455001
869,2025-11-27 05:00:00+00:00,2.9455001,89.0,1.3103127,-0.12477207,0.0,0.1,0.1,0.0,0.0,0.0,61.0,1020.6,1015.8146,100.0,100.0,0.0,0.0,9280.0,7.928178,13.684735,15.4800005,17.673029,267.3975,268.49258,270.0,273.50345,20.16,2.0455,1.6455001,1.0455
870,2025-11-27 06:00:00+00:00,2.6955001,85.0,0.42562205,-0.73684835,0.0,0.0,0.0,0.0,0.0,0.0,3.0,1021.9,1017.1043,100.0,80.0,0.0,100.0,15460.0,9.422101,16.263872,18.03237,18.751125,263.41815,264.92047,266.56644,266.6982,21.599998,1.8455,1.3455,0.8455
871,2025-11-27 07:00:00+00:00,2.1455,83.0,-0.44186202,-0.9930041,0.0,0.0,0.0,0.0,0.0,0.0,2.0,1021.6,1016.79614,69.0,69.0,0.0,0.0,22780.0,6.489992,12.979984,17.283749,22.7057,266.82022,266.82022,268.80655,272.72626,21.599998,1.5455,1.1455001,1.0455
872,2025-11-27 08:00:00+00:00,2.0955,82.0,-0.6571715,-0.975122,0.0,0.0,0.0,0.0,0.0,0.0,2.0,1022.1,1017.2928,78.0,78.0,0.0,0.0,22700.0,5.8048253,10.948973,14.182355,18.556595,240.2552,242.5925,246.0375,251.91646,13.679999,1.3455,0.94549996,0.74549997
873,2025-11-27 09:00:00+00:00,2.6455,75.0,-1.3425221,-1.0221543,0.0,0.0,0.0,0.0,0.0,0.0,0.0,1022.0,1017.2028,33.0,33.0,0.0,0.0,36460.0,9.220499,15.580141,17.339897,24.216522,218.65984,220.31403,221.63345,228.01286,18.359999,1.6455001,1.2455001,0.94549996
874,2025-11-27 10:00:00+00:00,3.2455,76.0,-0.58022785,-0.39511538,0.0,0.0,0.0,0.0,0.0,0.0,1.0,1021.8,1017.01404,42.0,0.0,0.0,42.0,33020.0,9.793058,15.256526,16.179985,16.516901,197.10281,199.29015,200.85454,200.40997,21.24,2.1455,1.6455001,1.0455
875,2025-11-27 11:00:00+00:00,3.6955001,73.0,-0.6975463,-0.013579369,0.0,0.0,0.0,0.0,0.0,0.0,2.0,1021.4,1016.6239,46.0,0.0,0.0,46.0,38600.0,10.144082,15.629971,16.434305,17.414474,207.47435,208.92633,208.8107,209.7448,22.319998,2.4455001,1.9455,1.4455
876,2025-11-27 12:00:00+00:00,4.4455,65.0,-1.5644995,0.44395924,0.0,0.0,0.0,0.0,0.0,0.0,2.0,1019.8,1015.0441,100.0,0.0,78.0,100.0,53900.0,11.298495,17.287498,18.089775,18.58451,210.65059,211.37296,211.15924,211.53474,24.84,3.2455,2.7455,2.1455
877,2025-11-27 13:00:00+00:00,4.7955,64.0,-1.442753,0.6025748,0.0,0.0,0.0,0.0,0.0,0.0,3.0,1020.0,1015.2492,99.0,0.0,85.0,97.0,56620.0,12.7279215,21.485697,23.277834,24.26998,208.7397,211.29298,211.72356,212.27562,27.0,3.6455,3.1455,2.6455
878,2025-11-27 14:00:00+00:00,4.7454996,66.0,-1.0704002,0.61815214,0.0,0.0,0.0,0.0,0.0,0.0,3.0,1020.1,1015.3477,89.0,0.0,89.0,0.0,53880.0,12.641076,22.127556,24.20314,25.952478,199.9832,201.97456,202.751,203.7204,28.44,3.8455,3.3455,2.7455
879,2025-11-27 15:00:00+00:00,3.9955,68.0,-1.3793429,-0.2628646,0.0,0.0,0.0,0.0,0.0,0.0,3.0,1020.0,1015.2355,94.0,33.0,74.0,58.0,51560.0,13.237039,24.490585,27.381308,30.10685,202.38017,204.30453,204.88034,206.25859,27.72,3.2455,2.7455,2.2455
880,2025-11-27 16:00:00+00:00,3.3455,73.0,-1.0352024,-0.9532232,0.0,0.0,0.0,0.0,0.0,0.0,3.0,1019.5,1014.72675,97.0,0.0,95.0,75.0,43140.0,13.849476,25.772078,29.601109,35.52162,188.97255,192.09474,193.36023,197.70052,28.8,2.6455,2.1455,1.7455001
881,2025-11-27 17:00:00+00:00,2.9955,74.0,-1.1872318,-1.3175745,0.0,0.0,0.0,0.0,0.0,0.0,3.0,1019.7,1014.9198,99.0,55.0,97.0,92.0,40500.0,13.797912,25.922499,30.222849,37.690125,187.49576,189.59306,192.38075,197.22353,29.16,2.2455,1.8455,1.5455
882,2025-11-27 18:00:00+00:00,2.7955,73.0,-1.5658395,-1.6822903,0.0,0.0,0.0,0.0,0.0,0.0,3.0,1019.6,1014.8167,100.0,69.0,100.0,50.0,41280.0,14.561099,26.903828,31.259941,35.97479,188.53069,192.36249,194.67644,198.07242,29.16,2.0455,1.6455001,1.2455001
883,2025-11-27 19:00:00+00:00,2.9955,73.0,-1.3728756,-1.1722159,0.0,0.0,0.0,0.0,0.0,0.0,3.0,1019.6,1014.8202,100.0,85.0,100.0,87.0,40980.0,12.620554,23.219301,26.27753,29.951483,183.27042,187.12492,189.46225,193.2011,30.239998,2.2455,1.7455001,1.3455
884,2025-11-27 20:00:00+00:00,3.1955001,72.0,-1.3681313,-1.143209,0.0,0.0,0.0,0.0,0.0,0.0,3.0,1020.0,1015.22186,100.0,100.0,100.0,100.0,42340.0,13.797913,25.277023,28.576382,32.489872,195.12405,197.40279,199.11981,201.4478,28.8,2.4455001,1.9455,1.5455
885,2025-11-27 21:00:00+00:00,3.3455,73.0,-1.0352024,-0.7941127,5.0,0.0,0.0,0.0,0.0,0.0,3.0,1019.5,1014.72675,100.0,100.0,91.0,86.0,40820.0,12.758432,23.683512,27.009598,29.68636,196.38962,199.53674,201.0924,202.8337,28.8,2.5455,2.0455,1.6455001
886,2025-11-27 22:00:00+00:00,3.5955,73.0,-0.7940176,-0.4587202,8.0,0.0,0.0,0.0,0.0,0.0,3.0,1019.0,1014.23315,100.0,100.0,93.0,100.0,41000.0,12.413476,23.006226,26.00486,29.795301,196.85847,200.13638,201.94876,205.01686,26.64,2.7455,2.3455,1.8455
887,2025-11-27 23:00:00+00:00,3.8455,73.0,-0.5528417,-0.15702629,8.0,0.0,0.0,0.0,0.0,0.0,3.0,1019.0,1014.2376,100.0,100.0,84.0,100.0,41340.0,12.303366,22.881958,26.081993,30.141266,200.55612,204.14554,206.21132,209.32037,26.28,3.0455,2.6455,2.1455
888,2025-11-28 00:00:00+00:00,3.8955,74.0,-0.31762654,-0.009229183,5.0,0.0,0.0,0.0,0.0,0.0,3.0,1019.1,1014.3381,100.0,100.0,93.0,70.0,38720.0,11.874544,22.314194,25.282152,29.024128,194.03627,197.8504,199.9832,203.38524,25.919998,3.0455,2.6455,2.1455
889,2025-11-28 01:00:00+00:00,4.0955,74.0,-0.124395706,0.20669127,13.0,0.0,0.0,0.0,0.0,0.0,3.0,1018.8,1014.0427,100.0,100.0,90.0,24.0,38700.0,11.966954,22.086521,25.071098,28.512817,195.7087,199.0257,201.03758,204.62355,25.919998,3.3455,2.8455,2.3455
890,2025-11-28 02:00:00+00:00,4.2955,75.0,0.25417176,0.43401527,5.0,0.0,0.0,0.0,0.0,0.0,3.0,1018.6,1013.84717,100.0,100.0,67.0,69.0,38040.0,12.181625,22.79684,26.141552,29.62518,198.9705,201.29742,202.6806,205.94225,26.28,3.5455,3.0455,2.5455
891,2025-11-28 03:00:00+00:00,4.5455,76.0,0.6795947,0.8505759,0.0,0.0,0.0,0.0,0.0,0.0,3.0,1018.7,1013.9512,100.0,100.0,100.0,21.0,34740.0,11.503113,21.749481,25.277025,30.500309,200.13638,204.44394,206.20006,210.49976,25.919998,3.7455,3.3455,2.8455
892,2025-11-28 04:00:00+00:00,4.6454997,78.0,1.1375103,1.0729065,3.0,0.0,0.0,0.0,0.0,0.0,3.0,1017.4,1012.6588,100.0,100.0,93.0,48.0,31480.0,11.177405,20.730501,23.73271,30.945345,194.93147,200.32323,202.28563,209.24873,24.84,3.8455,3.4455001,3.0455
893,2025-11-28 05:00:00+00:00,4.8455,79.0,1.509609,1.4347754,10.0,0.0,0.0,0.0,0.0,0.0,3.0,1017.5,1012.7618,100.0,100.0,99.0,49.0,29600.0,10.495713,20.447239,23.675304,28.772987,202.1664,206.11385,208.12364,211.70139,23.4,4.1454997,3.6455,3.2455
894,2025-11-28 06:00:00+00:00,4.8455,79.0,1.509609,1.4365773,23.0,0.0,0.0,0.0,0.0,0.0,3.0,1017.8,1013.0604,100.0,100.0,63.0,23.0,28780.0,10.483357,19.469975,22.461807,24.675106,195.94547,199.44012,201.63095,203.19861,22.68,4.0455,3.6455,3.0455
895,2025-11-28 07:00:00+00:00,4.9455,79.0,1.6069351,1.4757972,35.0,0.0,0.0,0.0,0.0,0.0,3.0,1017.5,1012.76337,97.0,93.0,67.0,31.0,29740.0,11.013882,20.176065,23.452555,27.609911,191.30989,195.52417,197.87878,202.21765,23.4,4.1454997,3.7455,3.2455
896,2025-11-28 08:00:00+00:00,5.1955,79.0,1.8502456,1.8298368,28.0,0.0,0.0,0.0,0.0,0.0,3.0,1017.9,1013.1656,100.0,98.0,98.0,100.0,29840.0,10.587917,20.056877,23.068108,26.405453,197.81898,201.03758,202.9638,205.8663,23.4,4.4455,3.9455001,3.4455001
897,2025-11-28 09:00:00+00:00,5.2454996,78.0,1.7206147,1.8646073,8.0,0.0,0.0,0.0,0.0,0.0,3.0,1017.2,1012.46985,100.0,100.0,80.0,76.0,29480.0,10.538843,18.35647,20.696085,23.241617,187.85323,191.30989,193.06932,196.18927,22.319998,4.3455,3.8455,3.3455
898,2025-11-28 10:00:00+00:00,5.7955,77.0,2.073978,2.534667,3.0,0.0,0.0,0.0,0.0,0.0,3.0,1017.2,1012.47906,100.0,100.0,86.0,100.0,31900.0,10.137692,17.782688,19.523155,21.749481,196.50444,201.37068,202.78244,204.44394,22.319998,4.8455,4.3455,3.8455
899,2025-11-28 11:00:00+00:00,6.3455,76.0,2.4236236,3.1609879,3.0,0.0,0.0,0.0,0.0,0.0,3.0,1016.7,1011.99066,100.0,100.0,97.0,72.0,34580.0,10.041354,17.418196,19.469975,21.325253,194.5345,198.06056,199.44012,201.80147,21.96,5.4455,4.9455,4.3455
900,2025-11-28 12:00:00+00:00,6.8954997,75.0,2.769469,3.589769,3.0,0.0,0.0,0.0,0.0,0.0,3.0,1016.5,1011.801,100.0,66.0,100.0,34.0,37260.0,11.304229,19.770523,21.2522,22.027763,189.16228,190.49142,190.73885,191.30989,24.119999,5.9455,5.4455,4.9455
901,2025-11-28 13:00:00+00:00,7.2454996,75.0,3.1080005,4.157979,3.0,0.0,0.0,0.0,0.0,0.0,61.0,1015.8,1011.11005,100.0,96.0,100.0,100.0,37480.0,10.239453,18.0036,19.914217,21.398056,190.1246,191.53459,192.5288,192.63336,24.119999,6.3455,5.8455,5.3455
902,2025-11-28 14:00:00+00:00,7.2955,77.0,3.529315,4.23643,5.0,0.3,0.3,0.0,0.0,0.0,61.0,1015.6,1010.91174,100.0,100.0,99.0,54.0,34600.0,10.594036,19.13426,21.398056,23.83896,189.78233,191.94415,192.63336,194.87573,22.68,6.4455,6.0455,5.4455
903,2025-11-28 15:00:00+00:00,7.1454997,77.0,3.3837929,4.213442,10.0,0.0,0.0,0.0,0.0,0.0,61.0,1014.7,1010.0134,100.0,100.0,91.0,87.0,34840.0,9.531505,18.511143,21.659918,24.1388,190.88548,193.49574,195.42223,197.35411,22.68,6.4455,5.9455,5.4455
904,2025-11-28 16:00:00+00:00,7.0955,78.0,3.5182698,4.3018646,13.0,0.0,0.0,0.0,0.0,0.0,3.0,1014.5,1009.8134,100.0,100.0,95.0,92.0,32720.0,8.759178,16.766108,19.242327,22.461807,189.46225,194.93147,197.41806,201.63095,19.44,6.3455,5.9455,5.4455
905,2025-11-28 17:00:00+00:00,6.8954997,80.0,3.6832056,3.932742,18.0,0.0,0.0,0.0,0.0,0.0,3.0,1014.9,1010.20844,100.0,80.0,93.0,100.0,28000.0,10.1376915,18.94024,22.027763,28.357857,186.1154,188.74608,191.30989,200.04533,21.599998,6.1454997,5.7454996,5.3455
906,2025-11-28 18:00:00+00:00,6.4954996,82.0,3.6436996,3.5704556,13.0,0.0,0.0,0.0,0.0,0.0,3.0,1014.6,1009.90283,100.0,74.0,100.0,100.0,24500.0,9.826088,18.709612,21.398056,29.28418,188.42688,191.09369,192.63336,200.88588,21.96,5.8455,5.3455,5.1454997
907,2025-11-28 19:00:00+00:00,6.2955,83.0,3.6202867,3.320444,5.0,0.0,0.0,0.0,0.0,0.0,3.0,1014.1,1009.4019,100.0,80.0,100.0,100.0,22640.0,10.1376915,18.998314,22.26477,30.018473,186.1154,189.81923,194.03627,202.56705,21.24,5.6454997,5.1454997,5.0455
908,2025-11-28 20:00:00+00:00,6.0955,84.0,3.594504,3.05692,10.0,0.0,0.0,0.0,0.0,0.0,3.0,1014.0,1009.29895,100.0,85.0,100.0,100.0,20760.0,10.538843,19.839235,22.61419,30.421598,187.85323,191.5138,193.81505,200.79419,22.319998,5.4455,4.9455,4.5455
909,2025-11-28 21:00:00+00:00,5.8954997,83.0,3.228818,2.7444634,15.0,0.1,0.1,0.0,0.0,0.0,61.0,1014.2,1009.49493,100.0,77.0,100.0,72.0,22020.0,10.829959,19.694992,22.66857,28.820242,195.42223,198.10385,200.44963,205.92485,23.039999,5.1454997,4.6454997,4.2454996
910,2025-11-28 22:00:00+00:00,5.7454996,85.0,3.4191926,2.706666,48.0,0.1,0.1,0.0,0.0,0.0,61.0,1013.4,1008.6961,100.0,87.0,100.0,100.0,18000.0,10.308831,19.0392,22.086521,29.47826,192.09474,195.35019,199.0257,208.44283,22.68,4.9455,4.5455,4.2454996
911,2025-11-28 23:00:00+00:00,5.7454996,87.0,3.7494218,3.0999727,85.0,0.1,0.1,0.0,0.0,0.0,61.0,1013.2,1008.497,100.0,98.0,100.0,100.0,13320.0,8.049845,15.0038395,17.287498,24.29133,206.56499,210.25635,211.37296,219.5881,21.24,4.9455,4.5455,4.2454996
912,2025-11-29 00:00:00+00:00,5.5455,90.0,4.03481,2.9992566,95.0,0.1,0.1,0.0,0.0,0.0,61.0,1012.6,1007.8963,100.0,100.0,100.0,100.0,7920.0,7.754637,14.48972,16.923828,22.725668,201.80147,206.56499,209.29126,220.50276,17.64,4.7454996,4.2454996,4.2454996
913,2025-11-29 01:00:00+00:00,5.7454996,90.0,4.2323856,3.3236609,90.0,0.0,0.0,0.0,0.0,0.0,61.0,1012.8,1008.0989,100.0,100.0,100.0,100.0,8500.0,7.172949,12.904882,17.10284,21.67487,197.52567,202.98874,210.34317,221.63345,17.28,4.9455,4.5455,4.5455
914,2025-11-29 02:00:00+00:00,5.9455,90.0,4.4299593,3.7065325,83.0,0.0,0.0,0.0,0.0,0.0,61.0,1012.6,1007.9029,100.0,100.0,100.0,100.0,7820.0,6.193674,11.246759,15.530151,20.3774,215.53777,219.80553,225.9391,237.99466,15.4800005,5.1454997,4.8455,4.9455
915,2025-11-29 03:00:00+00:00,5.8455,93.0,4.8004766,3.7986584,65.0,0.2,0.2,0.0,0.0,0.0,61.0,1012.6,1007.90137,100.0,100.0,100.0,100.0,4180.0,5.3999996,9.931042,13.584932,18.345877,216.86998,226.46873,237.99466,254.05453,12.599999,5.0455,4.8455,5.0455
916,2025-11-29 04:00:00+00:00,6.0455,94.0,5.152506,4.0057745,38.0,0.1,0.1,0.0,0.0,0.0,51.0,1012.7,1008.0044,100.0,100.0,95.0,100.0,3300.0,5.8603754,11.246759,14.973577,19.562946,222.5104,230.19447,242.81897,257.24246,12.959999,5.3455,5.1454997,5.2454996
917,2025-11-29 05:00:00+00:00,6.2955,94.0,5.4007154,4.449683,5.0,0.0,0.0,0.0,0.0,0.0,3.0,1012.9,1008.2075,100.0,85.0,100.0,100.0,3060.0,4.8965297,10.009036,13.570615,17.339897,216.02747,232.3057,248.19853,265.23645,11.879999,5.6454997,5.5455,5.6454997
918,2025-11-29 06:00:00+00:00,6.3954997,97.0,5.9538703,4.633849,0.0,0.0,0.0,0.0,0.0,0.0,3.0,1013.2,1008.5078,100.0,100.0,89.0,100.0,1280.0,5.154415,9.178235,11.384198,14.003029,204.77512,221.82008,235.30478,252.03076,11.5199995,5.7454996,5.4455,5.3455
919,2025-11-29 07:00:00+00:00,6.2955,96.0,5.704448,4.400008,0.0,0.0,0.0,0.0,0.0,0.0,3.0,1013.7,1009.00385,100.0,83.0,0.0,100.0,820.0,5.692099,10.587918,14.021525,15.696165,214.69522,215.3113,221.87778,233.39284,15.4800005,5.5455,5.3455,5.2454996
920,2025-11-29 08:00:00+00:00,6.2454996,95.0,5.503586,4.170884,0.0,0.0,0.0,0.0,0.0,0.0,3.0,1013.8,1009.10236,100.0,100.0,0.0,74.0,920.0,6.6185193,11.609651,15.856354,18.581022,202.38017,209.7448,219.47243,234.46223,14.04,5.4455,5.3455,5.5455
921,2025-11-29 09:00:00+00:00,6.4455,96.0,5.853739,4.316963,0.0,0.0,0.0,0.0,0.0,0.0,3.0,1014.0,1009.30505,100.0,100.0,0.0,33.0,580.0,7.5170207,12.181625,13.708391,16.489416,196.69933,198.9705,203.19861,216.11943,15.119999,5.5455,5.3455,5.3455
922,2025-11-29 10:00:00+00:00,6.8954997,93.0,5.841658,4.8507175,0.0,0.0,0.0,0.0,0.0,0.0,3.0,1013.8,1009.1135,100.0,100.0,0.0,8.0,3420.0,6.924738,11.013882,14.799459,18.58451,188.97255,191.30989,198.43504,211.53474,15.84,5.9455,5.5455,5.7454996
923,2025-11-29 11:00:00+00:00,7.3455,90.0,5.81292,5.2477074,0.0,0.0,0.0,0.0,0.0,0.0,3.0,1013.7,1009.0213,100.0,100.0,0.0,0.0,6320.0,7.24486,11.753877,12.7279215,18.79255,206.56499,207.3498,208.7397,216.43095,17.28,6.3455,5.9455,5.6454997
924,2025-11-29 12:00:00+00:00,7.3455,93.0,6.287868,5.4647512,0.0,0.0,0.0,0.0,0.0,0.0,3.0,1013.1,1008.424,100.0,98.0,0.0,100.0,1860.0,6.489992,10.028439,10.636766,11.113451,199.44012,201.03758,203.9625,204.90474,15.84,6.2454996,5.8455,5.5455
925,2025-11-29 13:00:00+00:00,7.6955,91.0,6.3189416,5.532653,0.0,0.0,0.0,0.0,0.0,0.0,3.0,1012.5,1007.8328,100.0,100.0,100.0,100.0,5020.0,8.473393,12.783802,13.138765,14.77755,167.73524,170.27249,170.53775,177.20735,18.359999,6.6454997,6.2454996,5.7454996
926,2025-11-29 14:00:00+00:00,7.7454996,92.0,6.5272026,5.8674574,0.0,0.0,0.0,0.0,0.0,0.0,3.0,1012.6,1007.9329,100.0,100.0,100.0,49.0,4560.0,6.849467,11.5199995,12.964998,16.700275,176.98727,180.0,181.59111,187.43132,18.72,6.8455,6.3455,6.0455
927,2025-11-29 15:00:00+00:00,7.6454997,92.0,6.4281726,5.6396875,0.0,0.0,0.0,0.0,0.0,0.0,3.0,1012.3,1007.63275,100.0,94.0,100.0,100.0,4960.0,7.5685663,13.441071,14.799459,17.298738,154.65387,159.62349,161.56496,167.98854,17.28,6.8455,6.3455,5.8455
928,2025-11-29 16:00:00+00:00,7.1955,93.0,6.139133,4.5922565,0.0,0.0,0.0,0.0,0.0,0.0,3.0,1012.7,1008.0234,100.0,100.0,93.0,84.0,3860.0,11.212135,19.881649,21.316135,21.707731,185.52745,185.19434,184.84392,185.7105,23.4,6.3455,5.8455,5.5455
929,2025-11-29 17:00:00+00:00,7.1454997,90.0,5.6153603,4.848583,0.0,0.0,0.0,0.0,0.0,0.0,3.0,1012.6,1007.9231,100.0,97.0,100.0,100.0,7940.0,8.311245,15.629972,17.873556,21.188072,184.96965,187.94337,189.27252,189.78233,23.759998,6.3455,5.9455,5.4455
930,2025-11-29 18:00:00+00:00,7.1955,92.0,5.982528,4.9211807,0.0,0.0,0.0,0.0,0.0,0.0,3.0,1012.2,1007.5257,100.0,98.0,58.0,100.0,5620.0,8.714677,16.485485,20.858265,23.623243,141.7098,148.39255,158.74942,172.11696,18.72,6.4455,6.2454996,6.2454996
931,2025-11-29 19:00:00+00:00,6.9954996,93.0,5.940817,4.49685,0.0,0.0,0.0,0.0,0.0,0.0,3.0,1011.6,1006.92523,100.0,100.0,100.0,100.0,4360.0,10.1887,18.847641,20.929594,28.241077,147.99466,151.47697,153.43501,162.95088,22.319998,6.2454996,5.7454996,5.5455
932,2025-11-29 20:00:00+00:00,6.7955,94.0,5.8971305,4.2288437,0.0,0.0,0.0,0.0,0.0,0.0,3.0,1011.8,1007.12085,100.0,89.0,100.0,9.0,3360.0,10.587917,19.586117,23.143827,24.884306,162.18102,162.89719,164.66666,165.76268,24.48,6.0455,5.5455,5.2454996
933,2025-11-29 21:00:00+00:00,6.6955,94.0,5.797848,4.051506,0.0,0.0,0.0,0.0,0.0,0.0,3.0,1011.3,1006.6216,99.0,94.0,86.0,24.0,3420.0,10.966713,20.523157,25.620771,26.980793,156.80138,158.38516,160.29193,161.3232,24.84,5.9455,5.5455,5.2454996
934,2025-11-29 22:00:00+00:00,6.4954996,93.0,5.445022,3.6282115,0.0,0.0,0.0,0.0,0.0,0.0,3.0,1010.9,1006.22003,100.0,97.0,78.0,100.0,3560.0,11.966953,21.407139,23.565567,25.96496,158.83867,160.34608,161.28816,163.0724,26.28,5.7454996,5.2454996,4.9455
935,2025-11-29 23:00:00+00:00,6.3954997,92.0,5.190252,3.7041912,0.0,0.0,0.0,0.0,0.0,0.0,3.0,1011.2,1006.5171,99.0,89.0,80.0,43.0,4580.0,10.383987,18.218275,20.288164,25.045238,146.3099,150.39565,152.52565,161.56496,24.48,5.5455,5.1454997,4.7454996
936,2025-11-30 00:00:00+00:00,5.9455,92.0,4.744587,3.1012897,0.0,0.0,0.0,0.0,0.0,0.0,3.0,1010.4,1005.71313,100.0,90.0,100.0,27.0,4740.0,10.787993,19.523155,20.858265,26.552288,154.2901,157.21756,158.74942,167.4712,24.119999,5.0455,4.6454997,4.2454996
937,2025-11-30 01:00:00+00:00,5.3455,92.0,4.150354,2.448883,0.0,0.0,0.0,0.0,0.0,0.0,3.0,1010.7,1006.0017,94.0,79.0,76.0,4.0,4600.0,10.315115,18.204042,22.657131,29.215502,150.75127,155.4623,162.42865,176.46777,23.759998,4.5455,4.1454997,4.7454996
938,2025-11-30 02:00:00+00:00,5.2454996,91.0,3.8956387,2.2584553,0.0,0.0,0.0,0.0,0.0,0.0,3.0,1010.7,1006.00006,100.0,100.0,100.0,93.0,5920.0,10.587918,19.201874,24.675106,31.012281,144.6887,149.589,156.80139,170.6471,23.039999,4.4455,4.1454997,4.7454996
939,2025-11-30 03:00:00+00:00,5.4455,93.0,4.4038258,2.6447182,0.0,0.0,0.0,0.0,0.0,0.0,3.0,1010.5,1005.80444,100.0,99.0,85.0,23.0,4640.0,10.009036,18.171976,24.162947,30.009838,142.3057,146.3099,155.34412,169.63373,22.68,4.6454997,4.3455,5.0455
940,2025-11-30 04:00:00+00:00,5.4954996,92.0,4.2989125,2.5827904,0.0,0.0,0.0,0.0,0.0,0.0,3.0,1010.3,1005.6061,100.0,100.0,100.0,100.0,5160.0,10.630672,19.008547,23.006226,30.599998,151.69934,155.37645,159.86362,171.20267,23.039999,4.7454996,4.2454996,4.7454996
941,2025-11-30 05:00:00+00:00,5.5455,91.0,4.192384,2.4140892,0.0,0.0,0.0,0.0,0.0,0.0,3.0,1010.5,1005.8061,100.0,91.0,100.0,7.0,5780.0,11.983188,21.924562,25.277025,33.092594,147.26479,150.4886,153.79994,165.5102,25.919998,4.7454996,4.3455,4.5455
942,2025-11-30 06:00:00+00:00,5.6454997,91.0,4.2912984,2.6131067,0.0,0.0,0.0,0.0,0.0,0.0,3.0,1010.4,1005.7081,84.0,69.0,33.0,16.0,7120.0,11.440979,21.407139,24.975283,33.87062,155.85446,160.34608,164.96213,177.5634,25.199999,4.9455,4.5455,4.6454997
943,2025-11-30 07:00:00+00:00,5.5455,91.0,4.192384,2.5675035,0.0,0.0,0.0,0.0,0.0,0.0,3.0,1010.6,1005.90564,100.0,58.0,100.0,59.0,7560.0,10.931203,20.969805,26.795223,34.651752,162.75845,168.11136,173.82993,184.17035,24.119999,4.9455,4.6454997,4.8455
944,2025-11-30 08:00:00+00:00,5.6454997,88.0,3.8134925,2.6423664,0.0,0.0,0.0,0.0,0.0,0.0,3.0,1010.5,1005.8077,100.0,64.0,100.0,100.0,10860.0,10.587917,20.696085,25.40743,33.887836,162.18102,166.93068,172.67369,183.04471,23.039999,4.9455,4.6454997,4.6454997
945,2025-11-30 09:00:00+00:00,5.9954996,89.0,4.3196497,3.0268993,0.0,0.0,0.0,0.0,0.0,0.0,3.0,1011.2,1006.5104,100.0,67.0,98.0,92.0,9780.0,11.043261,20.176065,23.584808,33.841915,160.9743,164.47583,167.66092,180.6095,23.039999,5.1454997,4.7454996,4.8455
946,2025-11-30 10:00:00+00:00,6.6454997,85.0,4.30241,3.813981,0.0,0.0,0.0,0.0,0.0,0.0,3.0,1011.2,1006.5211,100.0,72.0,64.0,100.0,15640.0,10.08,18.775301,21.746504,25.212852,180.0,184.39862,186.65433,189.86574,24.119999,5.7454996,5.3455,4.8455
947,2025-11-30 11:00:00+00:00,7.3455,83.0,4.64783,4.725486,0.0,0.0,0.0,0.0,0.0,0.0,3.0,1010.8,1006.13464,100.0,40.0,63.0,100.0,18980.0,9.114471,15.328561,16.454008,17.651016,189.0902,189.46225,190.08054,191.76826,22.319998,6.3455,5.8455,5.2454996
948,2025-11-30 12:00:00+00:00,8.3455,80.0,5.0960674,5.9747477,0.0,0.0,0.0,0.0,0.0,0.0,3.0,1010.2,1005.55414,100.0,49.0,72.0,100.0,25200.0,8.049845,12.849528,13.627795,14.05845,190.3048,191.30989,192.20045,193.32454,19.8,7.3455,6.8455,6.2454996
949,2025-11-30 13:00:00+00:00,8.7955,80.0,5.5344996,6.513319,0.0,0.0,0.0,0.0,0.0,0.0,3.0,1010.4,1005.76056,100.0,63.0,100.0,100.0,26660.0,8.0899935,13.281023,14.081477,14.77755,212.27562,212.82854,212.47118,214.07724,19.44,7.7454996,7.3455,6.7454996
950,2025-11-30 14:00:00+00:00,8.8455,81.0,5.7626023,6.657488,0.0,0.0,0.0,0.0,0.0,0.0,3.0,1010.9,1006.2591,100.0,87.0,100.0,100.0,25640.0,7.7879906,13.392774,14.4,15.349684,213.6901,216.25392,216.86998,219.2894,17.28,7.9455,7.5455,6.9455
951,2025-11-30 15:00:00+00:00,8.3955,83.0,5.67528,6.4938354,20.0,0.4,0.4,0.0,0.0,0.0,61.0,1010.9,1006.2515,100.0,65.0,100.0,100.0,21160.0,5.6920996,9.83268,10.787993,12.4811535,198.43504,203.7495,205.7099,213.23172,16.56,7.6454997,7.1454997,6.6454997
952,2025-11-30 16:00:00+00:00,8.0455,86.0,5.845205,5.831707,75.0,0.6,0.6,0.0,0.0,0.0,61.0,1011.5,1006.843,100.0,66.0,100.0,84.0,15700.0,8.089993,15.509274,17.87718,20.188908,200.85454,201.80147,205.01686,211.13892,16.199999,7.3455,6.8455,6.4455
953,2025-11-30 17:00:00+00:00,7.7454996,90.0,6.208035,5.895938,88.0,1.6,1.6,0.0,0.0,0.0,61.0,1011.8,1007.1366,100.0,70.0,100.0,100.0,9580.0,6.151683,11.440979,14.88242,18.089775,200.55612,204.14554,212.15227,222.58046,16.199999,7.0455,6.7454996,6.7454996
954,2025-11-30 18:00:00+00:00,7.6454997,91.0,6.26949,5.8145466,80.0,0.1,0.1,0.0,0.0,0.0,61.0,1012.6,1007.93134,100.0,100.0,100.0,93.0,6720.0,6.12,12.287555,16.135872,18.075441,208.07239,211.82741,218.65984,225.80684,15.119999,6.9455,6.9455,6.9455
955,2025-11-30 19:00:00+00:00,7.6955,89.0,5.99677,5.766506,48.0,0.0,0.0,0.0,0.0,0.0,3.0,1012.8,1008.1314,100.0,100.0,100.0,100.0,11340.0,6.3690495,12.819235,17.673029,22.380884,227.29063,231.84273,236.6336,244.25934,14.759999,7.0455,6.8455,6.8455
956,2025-11-30 20:00:00+00:00,7.7454996,88.0,5.8825374,5.858716,40.0,0.0,0.0,0.0,0.0,0.0,61.0,1013.6,1008.9283,100.0,100.0,95.0,100.0,12060.0,5.904439,13.089354,18.204042,22.35481,232.43134,238.49579,245.46228,255.06853,14.4,7.1454997,7.1454997,7.1454997
957,2025-11-30 21:00:00+00:00,7.5455,90.0,6.010479,5.5803356,13.0,0.0,0.0,0.0,0.0,0.0,3.0,1013.6,1008.9252,98.0,88.0,88.0,35.0,9980.0,6.638072,13.797912,20.880001,28.357857,257.4712,262.50424,270.0,278.02713,15.84,6.9455,6.8455,6.8455
958,2025-11-30 22:00:00+00:00,7.5955,84.0,5.0644493,5.258586,0.0,0.0,0.0,0.0,0.0,0.0,3.0,1014.4,1009.72217,100.0,100.0,100.0,99.0,22260.0,7.771331,15.745627,20.364674,26.727423,256.60748,259.46088,261.87,265.36462,18.0,7.0455,6.6454997,6.5455
959,2025-11-30 23:00:00+00:00,7.4954996,83.0,4.794615,5.101844,3.0,0.0,0.0,0.0,0.0,0.0,3.0,1015.3,1010.6164,100.0,100.0,93.0,28.0,22920.0,7.771331,16.09969,20.721119,27.021591,256.60748,259.69522,262.01077,267.70944,16.919998,6.8455,6.5455,6.3455
960,2025-12-01 00:00:00+00:00,6.8954997,82.0,4.034602,4.1152973,0.0,0.0,0.0,0.0,0.0,0.0,3.0,1015.3,1010.60657,43.0,0.0,43.0,0.0,26900.0,9.36,18.391735,21.349546,26.576681,270.0,273.3664,275.80664,278.56906,20.519999,6.4455,6.0455,5.5455
961,2025-12-01 01:00:00+00:00,6.2955,83.0,3.6202867,3.6367207,0.0,0.0,0.0,0.0,0.0,0.0,3.0,1016.2,1011.49225,94.0,2.0,93.0,0.0,24400.0,7.968939,16.766108,21.96,26.795223,251.56496,255.06853,259.6112,263.82993,18.359999,5.7454996,5.4455,5.1454997
962,2025-12-01 02:00:00+00:00,5.7454996,82.0,2.9107194,2.9297752,0.0,0.0,0.0,0.0,0.0,0.0,2.0,1016.6,1011.8812,40.0,0.0,40.0,0.0,26820.0,8.12197,17.163355,21.03152,28.137634,257.19574,260.34018,263.11838,266.33228,17.64,5.2454996,4.8455,4.6454997
963,2025-12-01 03:00:00+00:00,4.2955,83.0,1.6628058,1.0916653,0.0,0.0,0.0,0.0,0.0,0.0,2.0,1017.4,1012.65283,0.0,0.0,0.0,0.0,24700.0,9.255571,18.289274,21.485697,29.239891,256.50424,259.79608,261.3269,265.76367,19.44,3.7455,3.3455,3.0455
964,2025-12-01 04:00:00+00:00,3.5455,83.0,0.92866385,0.5053115,0.0,0.0,0.0,0.0,0.0,0.0,1.0,1016.9,1012.1424,4.0,4.0,0.0,0.0,23520.0,7.289444,15.484185,21.479666,27.952787,249.77505,252.40749,256.42953,262.6005,19.44,3.0455,2.7455,2.9455001
965,2025-12-01 05:00:00+00:00,3.0955,84.0,0.6540781,0.087357044,0.0,0.0,0.0,0.0,0.0,0.0,1.0,1017.4,1012.63214,41.0,41.0,0.0,0.0,21020.0,6.763786,15.379206,21.41319,27.112564,244.7989,249.44386,253.39293,259.28693,15.4800005,2.6455,2.6455,2.8455
966,2025-12-01 06:00:00+00:00,2.8455,88.0,1.0543658,0.034214973,0.0,0.0,0.0,0.0,0.0,0.0,1.0,1017.9,1013.12573,52.0,52.0,0.0,0.0,14240.0,5.8603754,13.684735,18.837322,23.000591,222.5104,234.63745,243.9247,252.69939,14.4,2.4455001,2.6455,2.7455
967,2025-12-01 07:00:00+00:00,2.7455,88.0,0.95581734,-0.047442436,0.0,0.0,0.0,0.0,0.0,0.0,2.0,1018.6,1013.82043,84.0,84.0,0.0,0.0,13940.0,5.6233797,14.57889,19.966211,24.023088,230.19447,237.09476,244.35904,250.75038,11.879999,2.5455,2.9455001,3.0455
968,2025-12-01 08:00:00+00:00,3.1955001,86.0,1.0790277,0.5584812,0.0,0.0,0.0,0.0,0.0,0.0,3.0,1019.4,1014.6247,100.0,100.0,0.0,0.0,16860.0,4.6938257,11.019764,16.09969,20.833395,212.47118,231.63248,243.43501,251.87805,11.5199995,2.7455,3.0455,3.2455
969,2025-12-01 09:00:00+00:00,4.1454997,83.0,1.515981,1.3692389,0.0,0.0,0.0,0.0,0.0,0.0,3.0,1019.4,1014.6409,100.0,100.0,0.0,0.0,20420.0,6.151683,10.163227,15.192682,18.668005,200.55612,202.93213,216.32692,230.4774,14.4,3.3455,3.2455,3.4455001
970,2025-12-01 10:00:00+00:00,4.6454997,80.0,1.490416,1.8962584,0.0,0.0,0.0,0.0,0.0,0.0,2.0,1019.1,1014.3508,45.0,45.0,0.0,0.0,26380.0,5.937272,8.654986,9.227524,14.05845,194.03627,196.9276,200.55612,219.80553,13.32,3.6455,3.1455,3.2455
971,2025-12-01 11:00:00+00:00,5.3954997,78.0,1.866385,2.430122,0.0,0.0,0.0,0.0,0.0,0.0,2.0,1018.9,1014.16455,68.0,68.0,0.0,0.0,29320.0,7.8625183,12.0694,12.522619,13.1041975,195.94547,197.35411,198.43504,200.92458,18.72,4.2454996,3.7455,3.1455
972,2025-12-01 12:00:00+00:00,5.9954996,73.0,1.5209126,3.1035442,0.0,0.0,0.0,0.0,0.0,0.0,2.0,1018.5,1013.7765,62.0,62.0,0.0,0.0,40280.0,6.9527545,10.30883,10.948973,12.10157,201.25058,204.77512,207.40749,210.37904,18.359999,4.8455,4.3455,3.8455
973,2025-12-01 13:00:00+00:00,6.2955,71.0,1.422044,3.3666515,0.0,0.0,0.0,0.0,0.0,0.0,1.0,1017.9,1013.1844,7.0,7.0,0.0,0.0,44800.0,7.0911775,10.464797,10.787993,11.269782,203.9625,206.56499,205.7099,206.56499,17.64,5.2454996,4.7454996,4.1454997
974,2025-12-01 14:00:00+00:00,6.0955,73.0,1.6173514,2.9982314,0.0,0.0,0.0,0.0,0.0,0.0,1.0,1018.2,1013.4795,57.0,49.0,0.0,15.0,40700.0,8.473393,13.627795,14.05845,14.494192,192.26476,192.20045,193.32454,194.38142,18.72,5.1454997,4.6454997,4.1454997
975,2025-12-01 15:00:00+00:00,5.4455,77.0,1.7343619,2.3439188,0.0,0.0,0.0,0.0,0.0,0.0,0.0,1018.2,1013.4687,6.0,0.0,0.0,6.0,35800.0,8.64,16.23596,18.486622,21.2522,180.0,183.814,186.70975,190.73885,19.08,4.7454996,4.3455,3.8455
976,2025-12-01 16:00:00+00:00,4.5455,82.0,1.7378459,1.4269929,0.0,0.0,0.0,0.0,0.0,0.0,0.0,1017.3,1012.5577,0.0,0.0,0.0,0.0,24420.0,8.759178,18.014393,23.469128,27.112564,170.53775,177.70944,184.39862,190.71307,18.72,4.0455,3.9455001,3.7455
977,2025-12-01 17:00:00+00:00,3.8955,84.0,1.4382616,0.81869364,0.0,0.0,0.0,0.0,0.0,0.0,0.0,1018.0,1013.2432,0.0,0.0,0.0,0.0,21520.0,8.12197,18.806337,24.863468,28.766228,167.19574,174.50777,182.4895,188.63705,18.72,3.5455,3.7455,3.7455
978,2025-12-01 18:00:00+00:00,3.1955001,84.0,0.7521041,-0.019073486,0.0,0.0,0.0,0.0,0.0,0.0,1.0,1017.8,1013.03217,23.0,0.0,0.0,23.0,21500.0,8.287822,20.240196,27.887802,33.481934,177.5105,185.10208,191.16484,196.87634,18.359999,2.9455001,3.5455,3.7455
979,2025-12-01 19:00:00+00:00,2.8455,82.0,0.076054126,-0.47615266,0.0,0.0,0.0,0.0,0.0,0.0,1.0,1018.3,1013.5238,23.0,0.0,0.0,23.0,26180.0,8.287822,19.559633,27.684914,34.726475,177.5105,186.3401,192.77124,197.49585,18.72,2.5455,3.2455,3.7455
980,2025-12-01 20:00:00+00:00,2.2955,82.0,-0.46163964,-1.3130808,0.0,0.0,0.0,0.0,0.0,0.0,2.0,1017.6,1012.81744,83.0,0.0,0.0,83.0,26860.0,9.6932955,22.148045,30.96837,37.226505,164.93146,172.52853,181.33218,189.46225,20.519999,1.9455,2.7455,3.3455
981,2025-12-01 21:00:00+00:00,1.7455001,81.0,-1.1670537,-1.8984265,0.0,0.0,0.0,0.0,0.0,0.0,3.0,1017.4,1012.60895,51.0,0.0,0.0,51.0,28660.0,9.227524,20.833395,28.802248,35.232212,159.44388,170.04944,179.28386,187.63324,20.880001,1.3455,2.0455,2.6455
982,2025-12-01 22:00:00+00:00,1.2455001,82.0,-1.4882212,-2.4632766,0.0,0.0,0.0,0.0,0.0,0.0,1.0,1017.6,1012.7991,40.0,0.0,0.0,40.0,25320.0,9.360001,20.780453,27.804028,34.292713,157.3801,165.96373,175.54448,184.2141,20.16,0.8455,1.4455,1.9455
983,2025-12-01 23:00:00+00:00,0.8955,83.0,-1.6656855,-2.9175136,0.0,0.0,0.0,0.0,0.0,0.0,3.0,1016.9,1012.09644,100.0,0.0,0.0,100.0,22440.0,9.904906,21.129883,30.344814,36.44722,160.90642,166.20049,175.23645,183.96457,21.599998,0.44550002,1.1455001,1.7455001
984,2025-12-02 00:00:00+00:00,0.5455,84.0,-1.8458427,-3.2108839,0.0,0.0,0.0,0.0,0.0,0.0,3.0,1016.9,1012.0904,100.0,0.0,0.0,100.0,19460.0,9.346143,20.008356,28.442278,35.516148,164.3577,171.7242,180.7252,190.51257,21.24,0.045500003,0.6455,1.2455001
985,2025-12-02 01:00:00+00:00,0.3955,87.0,-1.5159819,-3.3383985,0.0,0.0,0.0,0.0,0.0,0.0,3.0,1016.7,1011.8887,100.0,0.0,35.0,100.0,15300.0,9.504273,19.734436,28.137634,35.143818,155.37645,165.20319,176.33229,186.46973,20.16,-0.0545,0.5455,1.1455001
986,2025-12-02 02:00:00+00:00,0.34550002,88.0,-1.409527,-3.5377562,0.0,0.0,0.0,0.0,0.0,0.0,3.0,1016.8,1011.98724,99.0,0.0,0.0,99.0,12700.0,10.630672,21.461555,31.003918,38.18716,151.69934,157.30617,167.25471,177.83897,22.68,-0.15450001,0.44550002,1.2455001
987,2025-12-02 03:00:00+00:00,0.34550002,90.0,-1.1028329,-3.377813,0.0,0.0,0.0,0.0,0.0,0.0,2.0,1016.5,1011.68866,51.0,0.0,0.0,51.0,9500.0,9.83268,21.175835,31.569351,38.939953,156.2505,162.18102,172.79404,183.17976,22.319998,-0.0545,0.94549996,1.8455
988,2025-12-02 04:00:00+00:00,0.34550002,90.0,-1.1028329,-3.3088806,0.0,0.0,0.0,0.0,0.0,0.0,3.0,1015.6,1010.7929,99.0,0.0,0.0,99.0,9900.0,9.360001,20.431387,29.986076,37.221283,157.3801,165.71887,175.17932,184.99365,20.880001,-0.0545,1.0455,1.8455
989,2025-12-02 05:00:00+00:00,0.34550002,91.0,-0.95174575,-3.2502522,0.0,0.0,0.0,0.0,0.0,0.0,3.0,1015.6,1010.7929,96.0,0.0,11.0,91.0,8860.0,9.107359,20.545246,30.259275,38.046055,161.56496,168.887,177.95464,186.5197,19.8,-0.0545,1.2455001,1.9455
990,2025-12-02 06:00:00+00:00,0.045500003,92.0,-1.0993044,-3.4417872,0.0,0.0,0.0,0.0,0.0,0.0,3.0,1015.9,1011.08624,93.0,25.0,0.0,84.0,5340.0,8.217153,18.919704,27.181787,32.777798,151.1893,158.80588,168.54128,178.11185,19.44,-0.3545,0.74549997,1.6455001
991,2025-12-02 07:00:00+00:00,0.1455,93.0,-0.85230124,-3.188734,0.0,0.0,0.0,0.0,0.0,0.0,3.0,1016.1,1011.28705,100.0,47.0,0.0,100.0,5740.0,7.4128532,18.58451,25.849905,30.317043,150.9455,158.40463,167.125,175.91446,16.919998,-0.0545,0.8455,1.4455
992,2025-12-02 08:00:00+00:00,0.1455,93.0,-0.85230124,-3.2349157,0.0,0.0,0.0,0.0,0.0,0.0,3.0,1015.9,1011.0881,100.0,81.0,0.0,99.0,4940.0,7.729527,17.992796,25.153671,31.338614,152.24155,160.11475,170.94218,181.97488,16.919998,-0.2545,0.44550002,1.4455
993,2025-12-02 09:00:00+00:00,0.8455,91.0,-0.45706695,-2.762735,0.0,0.0,0.0,0.0,0.0,0.0,3.0,1016.5,1011.6973,100.0,100.0,0.0,100.0,5800.0,9.693296,18.678415,27.66384,32.686733,148.67137,152.44728,161.80075,172.40544,20.519999,0.045500003,0.8455,1.5455
994,2025-12-02 10:00:00+00:00,2.0955,88.0,0.3152364,-1.472677,0.0,0.0,0.0,0.0,0.0,0.0,3.0,1015.3,1010.5248,100.0,100.0,0.0,93.0,9380.0,10.233123,18.971008,28.883131,35.65454,140.71062,146.61147,157.27023,168.34973,21.96,1.2455001,1.4455,2.4455001
995,2025-12-02 11:00:00+00:00,3.4455001,88.0,1.6456461,-0.079319954,0.0,0.0,0.0,0.0,0.0,0.0,3.0,1014.8,1010.0503,100.0,100.0,0.0,100.0,10160.0,11.435313,20.929594,24.162947,33.790176,151.8215,153.43501,155.34412,165.81567,24.84,2.5455,2.1455,2.2455
996,2025-12-02 12:00:00+00:00,4.0955,85.0,1.7998054,0.6708479,0.0,0.0,0.0,0.0,0.0,0.0,3.0,1014.9,1010.161,100.0,100.0,0.0,47.0,14280.0,10.931203,19.242327,22.104116,25.849905,162.75845,162.58194,163.92636,167.125,25.199999,3.1455,2.6455,2.2455
997,2025-12-02 13:00:00+00:00,4.6955,85.0,2.3886967,1.3721004,0.0,0.0,0.0,0.0,0.0,0.0,3.0,1014.2,1009.4747,82.0,66.0,0.0,50.0,15640.0,10.948973,19.161337,20.945072,22.930048,152.59251,154.39786,155.63756,157.86446,23.759998,3.7455,3.2455,2.7455
998,2025-12-02 14:00:00+00:00,4.9954996,85.0,2.683132,1.7463307,0.0,0.0,0.0,0.0,0.0,0.0,2.0,1014.8,1010.0769,50.0,50.0,0.0,0.0,17240.0,10.805998,20.288164,22.862123,25.14852,150.01845,152.52565,153.8385,156.3706,24.84,4.2454996,3.7455,3.2455
999,2025-12-02 15:00:00+00:00,4.3954997,84.0,1.92835,1.2092896,0.0,0.0,0.0,0.0,0.0,0.0,0.0,1014.2,1009.4693,0.0,0.0,0.0,0.0,20260.0,9.449572,19.376562,24.651457,28.696312,139.63554,144.83348,151.1893,160.20103,22.68,3.9455001,3.7455,3.6455
1000,2025-12-02 16:00:00+00:00,3.7955,88.0,1.9905498,0.5113201,0.0,0.0,0.0,0.0,0.0,0.0,2.0,1014.3,1009.5586,61.0,0.0,0.0,61.0,13720.0,10.195057,21.599998,29.387999,34.981182,137.86247,143.13002,149.03632,156.33685,21.599998,3.4455001,3.7455,3.9455001
1001,2025-12-02 17:00:00+00:00,3.1955001,91.0,1.8677784,0.0025167465,0.0,0.0,0.0,0.0,0.0,0.0,1.0,1014.7,1009.9467,28.0,0.0,0.0,28.0,8520.0,9.422101,20.696087,27.666182,34.50746,133.45189,139.93929,147.75757,156.64442,20.880001,2.9455001,3.1455,3.7455
1002,2025-12-02 18:00:00+00:00,2.3455,94.0,1.4787928,-0.84017086,0.0,0.0,0.0,0.0,0.0,0.0,0.0,1014.8,1010.03156,24.0,24.0,0.0,0.0,4780.0,8.913181,20.304129,27.238941,33.497414,136.63654,142.92683,150.72484,159.22766,19.08,2.0455,2.4455001,3.0455
1003,2025-12-02 19:00:00+00:00,2.0455,94.0,1.1809071,-1.3030162,0.0,0.0,0.0,0.0,0.0,0.0,1.0,1015.0,1010.2253,40.0,31.0,0.0,15.0,4560.0,9.686609,21.437386,28.58545,33.497414,131.98714,139.08571,148.91257,159.22766,20.16,1.7455001,2.2455,2.9455001
1004,2025-12-02 20:00:00+00:00,1.7455001,94.0,0.8830189,-1.5038695,0.0,0.0,0.0,0.0,0.0,0.0,3.0,1015.2,1010.4193,80.0,36.0,0.0,57.0,4480.0,8.669949,19.67195,26.564486,30.821548,138.36655,145.43741,153.43501,165.80142,20.16,1.4455,1.9455,3.1455
1005,2025-12-02 21:00:00+00:00,1.3455,93.0,0.33784747,-1.8505192,0.0,0.0,0.0,0.0,0.0,0.0,0.0,1015.3,1010.51184,9.0,8.0,0.0,0.0,5100.0,7.7043357,18.03237,24.014996,27.381308,142.59457,153.94656,167.00539,182.26045,17.64,1.1455001,2.0455,3.3455
1006,2025-12-02 22:00:00+00:00,0.8955,94.0,0.038987737,-2.300909,0.0,0.0,0.0,0.0,0.0,0.0,1.0,1015.3,1010.5039,10.0,10.0,0.0,0.0,4140.0,7.386582,17.414474,21.915693,24.863468,136.97493,150.2552,165.73546,182.4895,16.919998,0.74549997,1.9455,2.9455001
1007,2025-12-02 23:00:00+00:00,0.6455,94.0,-0.2092606,-2.6632228,0.0,0.0,0.0,0.0,0.0,0.0,2.0,1015.0,1010.2009,48.0,48.0,0.0,0.0,4040.0,7.8954163,18.374111,22.427162,24.881702,133.1524,145.37578,161.27412,176.68228,16.919998,0.6455,1.9455,2.9455001
1008,2025-12-03 00:00:00+00:00,0.5455,94.0,-0.30856052,-2.5949337,0.0,0.0,0.0,0.0,0.0,0.0,2.0,1014.8,1010.0003,83.0,83.0,0.0,0.0,3600.0,6.638072,15.496736,19.562946,22.751316,130.60121,149.26459,167.24248,184.53769,15.4800005,0.44550002,1.8455,2.8455
1009,2025-12-03 01:00:00+00:00,0.6455,93.0,-0.35640004,-2.6576195,0.0,0.0,0.0,0.0,0.0,0.0,2.0,1015.5,1010.69855,83.0,83.0,0.0,0.0,4400.0,7.7043357,17.81909,21.434364,22.180206,127.40543,135.0001,150.85202,166.86597,16.56,0.34550002,1.5455,2.5455
1010,2025-12-03 02:00:00+00:00,0.74549997,92.0,-0.40589154,-2.4835806,0.0,0.0,0.0,0.0,0.0,0.0,2.0,1015.6,1010.8,81.0,81.0,0.0,0.0,5840.0,7.145796,16.418526,21.273533,22.505037,130.91429,142.12495,156.0375,172.64772,16.56,0.34550002,1.4455,2.6455
1011,2025-12-03 03:00:00+00:00,0.8455,92.0,-0.30683404,-2.5168,0.0,0.0,0.0,0.0,0.0,0.0,2.0,1014.8,1010.0053,81.0,81.0,0.0,0.0,5220.0,8.161764,17.884428,22.702845,23.584808,131.42357,139.89915,152.62238,167.66092,16.56,0.34550002,1.2455001,2.5455
1012,2025-12-03 04:00:00+00:00,0.8955,91.0,-0.4075997,-2.5560708,0.0,0.0,0.0,0.0,0.0,0.0,3.0,1014.8,1010.0063,85.0,85.0,0.0,0.0,5740.0,8.669949,16.563911,22.90743,25.671307,131.63345,137.64261,149.80847,165.37909,19.08,0.1455,0.8455,2.2455
1013,2025-12-03 05:00:00+00:00,1.0455,91.0,-0.2591984,-2.1587315,0.0,0.0,0.0,0.0,0.0,0.0,3.0,1014.8,1010.0088,100.0,100.0,0.0,0.0,5800.0,7.127636,14.4,19.995398,23.177402,135.0001,143.13002,156.66594,173.75818,18.0,0.34550002,0.94549996,2.1455
1014,2025-12-03 06:00:00+00:00,1.0955,92.0,-0.059192166,-2.174515,0.0,0.0,0.0,0.0,0.0,0.0,2.0,1015.0,1010.20886,86.0,86.0,0.0,0.0,4320.0,7.7879906,13.104198,17.429354,19.353138,123.6901,127.18479,141.7098,161.56496,17.64,0.2455,0.5455,1.7455001
1015,2025-12-03 07:00:00+00:00,0.8455,93.0,-0.15804197,-2.4275053,0.0,0.0,0.0,0.0,0.0,0.0,3.0,1015.0,1010.2044,100.0,100.0,0.0,0.0,3700.0,7.7043357,14.512064,19.881649,22.35481,127.40543,133.99501,148.32457,165.06853,18.72,0.045500003,0.6455,2.0455
1016,2025-12-03 08:00:00+00:00,1.1955,92.0,0.03986403,-2.0749016,0.0,0.0,0.0,0.0,0.0,0.0,3.0,1015.5,1010.7084,94.0,94.0,0.0,0.0,4520.0,7.8954163,14.565548,21.2522,25.277023,133.1524,140.01317,153.86906,169.33026,18.0,0.34550002,0.94549996,2.1455
1017,2025-12-03 09:00:00+00:00,2.0455,91.0,0.73011786,-1.0414505,0.0,0.0,0.0,0.0,0.0,0.0,3.0,1015.3,1010.52386,98.0,95.0,34.0,0.0,4920.0,7.386582,12.475961,17.906157,20.617662,133.02507,136.16905,149.82657,167.90526,18.0,1.0455,1.3455,2.0455
1018,2025-12-03 10:00:00+00:00,2.8955,90.0,1.4167515,-0.083007336,0.0,0.0,0.0,0.0,0.0,0.0,3.0,1014.7,1009.9415,99.0,92.0,93.0,0.0,6460.0,7.42159,11.808878,17.068707,22.101183,140.90616,142.43134,152.35411,167.77489,16.919998,1.9455,1.5455,2.2455
1019,2025-12-03 11:00:00+00:00,3.7455,88.0,1.9412788,0.7868695,0.0,0.0,0.0,0.0,0.0,0.0,3.0,1014.5,1009.7571,97.0,74.0,89.0,0.0,8580.0,7.9036193,12.55879,14.007655,21.398056,149.9315,152.70052,154.09355,167.36664,18.72,2.7455,2.2455,2.3455
1020,2025-12-03 12:00:00+00:00,4.1955,86.0,2.0618763,1.3334775,0.0,0.0,0.0,0.0,0.0,0.0,3.0,1014.6,1009.86414,93.0,75.0,73.0,0.0,11920.0,7.386582,11.457958,11.966954,15.379206,133.02507,133.72705,136.2188,147.42595,17.64,3.1455,2.6455,2.1455
1021,2025-12-03 13:00:00+00:00,4.5955,85.0,2.29055,1.5148182,0.0,0.0,0.0,0.0,0.0,0.0,3.0,1014.5,1009.77136,100.0,91.0,100.0,0.0,14840.0,9.1641035,14.773164,15.546833,16.323528,135.0001,136.97493,137.81563,138.57643,20.519999,3.5455,3.0455,2.5455
1022,2025-12-03 14:00:00+00:00,4.6955,85.0,2.3886967,1.6647525,0.0,0.0,0.0,0.0,0.0,0.0,3.0,1014.4,1009.67377,97.0,74.0,83.0,0.0,15080.0,8.942214,15.408671,16.489416,17.57744,139.89915,142.59457,143.88057,145.0079,20.16,3.8455,3.3455,2.7455
1023,2025-12-03 15:00:00+00:00,4.5455,88.0,2.7296047,1.7644663,0.0,0.0,0.0,0.0,0.0,0.0,3.0,1013.9,1009.1736,89.0,22.0,79.0,0.0,11880.0,7.653705,14.4,16.87398,20.799152,138.81418,143.13002,146.3099,156.54095,19.8,3.8455,3.3455,3.1455
1024,2025-12-03 16:00:00+00:00,4.0455,91.0,2.7086208,1.1680479,0.0,0.0,0.0,0.0,0.0,0.0,3.0,1013.8,1009.06537,100.0,27.0,100.0,0.0,7280.0,8.287822,16.323528,21.203358,24.696104,124.3804,131.42357,139.82083,149.3228,17.64,3.4455001,3.1455,3.0455
1025,2025-12-03 17:00:00+00:00,3.7955,91.0,2.4613178,0.99939585,0.0,0.0,0.0,0.0,0.0,0.0,3.0,1014.2,1009.4591,99.0,16.0,97.0,0.0,7180.0,7.42159,15.530151,20.808498,25.772078,129.09386,134.0609,142.73352,151.64513,18.0,3.1455,3.0455,3.1455
1026,2025-12-03 18:00:00+00:00,3.4955,90.0,2.0095491,0.5851984,0.0,0.0,0.0,0.0,0.0,0.0,3.0,1014.4,1009.65314,86.0,6.0,82.0,0.0,9480.0,7.653705,16.704155,22.238562,26.208395,138.81418,142.88306,150.9455,159.07542,17.64,2.9455001,3.2455,3.4455001
1027,2025-12-03 19:00:00+00:00,3.2955,88.0,1.4978278,0.28588724,0.0,0.0,0.0,0.0,0.0,0.0,3.0,1014.6,1009.8487,91.0,11.0,85.0,0.0,13060.0,7.729527,16.595179,23.565567,28.387545,152.24155,155.65892,161.28816,167.55002,18.359999,2.7455,2.8455,3.0455
1028,2025-12-03 20:00:00+00:00,3.0455,86.0,0.93159413,-0.054816246,5.0,0.0,0.0,0.0,0.0,0.0,2.0,1014.5,1009.7451,78.0,8.0,73.0,0.0,15400.0,7.7043357,15.807239,21.461555,25.14852,142.59457,149.9315,157.30617,166.75948,16.56,2.4455001,2.4455001,2.6455
1029,2025-12-03 21:00:00+00:00,2.8955,88.0,1.1036403,-0.176548,25.0,0.0,0.0,0.0,0.0,0.0,2.0,1014.2,1009.4439,79.0,14.0,73.0,0.0,12960.0,7.7043357,16.375053,21.734581,24.933735,142.59457,146.65927,153.43501,162.3498,18.359999,2.3455,2.2455,2.4455001
1030,2025-12-03 22:00:00+00:00,2.5955,87.0,0.64945066,-0.49015188,15.0,0.0,0.0,0.0,0.0,0.0,3.0,1014.1,1009.33905,100.0,29.0,84.0,100.0,12820.0,7.289445,14.8257065,20.140705,23.933908,147.09476,150.9455,155.72557,164.2913,16.56,1.9455,1.7455001,1.8455
1031,2025-12-03 23:00:00+00:00,2.2455,87.0,0.3049708,-1.0291104,10.0,0.0,0.0,0.0,0.0,0.0,3.0,1013.8,1009.03436,94.0,4.0,73.0,71.0,13080.0,8.209263,15.379206,20.945072,24.569832,142.12495,147.42595,155.63756,169.0194,18.359999,1.5455,1.4455,2.1455
1032,2025-12-04 00:00:00+00:00,2.1955001,87.0,0.2557589,-0.836117,3.0,0.0,0.0,0.0,0.0,0.0,3.0,1014.2,1009.4316,96.0,0.0,96.0,0.0,13120.0,6.489992,11.966954,17.462784,21.611998,160.55988,164.2913,171.70294,181.9091,18.0,1.4455,1.4455,2.0455
1033,2025-12-04 01:00:00+00:00,2.0455,87.0,0.108121514,-1.0820792,0.0,0.0,0.0,0.0,0.0,0.0,2.0,1014.5,1009.7276,75.0,0.0,75.0,0.0,13340.0,6.989936,12.7279215,17.654686,19.813087,145.49142,151.2603,163.41258,177.91748,15.4800005,1.2455001,1.4455,2.1455
1034,2025-12-04 02:00:00+00:00,1.6955,89.0,0.076834515,-1.3208895,0.0,0.0,0.0,0.0,0.0,0.0,1.0,1013.9,1009.12445,32.0,0.0,33.0,2.0,10740.0,6.193674,12.475961,15.990646,16.327497,125.537766,136.16905,148.81508,165.96373,16.199999,1.0455,1.3455,2.1455
1035,2025-12-04 03:00:00+00:00,1.4955001,93.0,0.48661277,-1.5214455,0.0,0.0,0.0,0.0,0.0,0.0,0.0,1013.4,1008.62335,14.0,14.0,0.0,0.0,5240.0,6.638072,14.336861,18.775303,19.855558,139.39879,141.1155,147.52882,157.61983,15.84,0.94549996,1.0455,1.8455
1036,2025-12-04 04:00:00+00:00,1.0955,92.0,-0.059192166,-2.0472584,0.0,0.0,0.0,0.0,0.0,0.0,1.0,1013.1,1008.3178,41.0,13.0,30.0,0.0,5600.0,6.9153743,14.982228,20.447239,22.35481,141.34016,144.78232,153.88615,165.06853,16.56,0.5455,0.8455,1.7455001
1037,2025-12-04 05:00:00+00:00,0.74549997,92.0,-0.40589154,-2.4320536,0.0,0.0,0.0,0.0,0.0,0.0,3.0,1013.1,1008.3118,87.0,3.0,34.0,72.0,5960.0,6.792466,15.617529,21.288757,24.387177,147.99466,154.02567,161.25856,171.51114,15.84,0.2455,0.44550002,1.1455001
1038,2025-12-04 06:00:00+00:00,0.94549996,93.0,-0.058863454,-2.3859386,0.0,0.0,0.0,0.0,0.0,0.0,3.0,1013.3,1008.51434,100.0,51.0,5.0,100.0,5280.0,8.209263,16.575644,22.539564,27.345785,142.12495,145.6196,153.43501,163.95093,15.84,0.34550002,0.44550002,1.1455001
1039,2025-12-04 07:00:00+00:00,0.7955,92.0,-0.35636273,-2.6549163,0.0,0.0,0.0,0.0,0.0,0.0,3.0,1013.2,1008.41235,100.0,32.0,28.0,100.0,5420.0,8.714677,18.171976,25.12016,29.427658,141.7098,146.3099,154.5367,165.1137,18.72,0.2455,0.5455,1.3455
1040,2025-12-04 08:00:00+00:00,0.8955,91.0,-0.4075997,-2.447896,0.0,0.0,0.0,0.0,0.0,0.0,3.0,1013.2,1008.4139,100.0,10.0,52.0,100.0,7500.0,7.928177,16.78156,23.34455,27.248457,140.52757,144.60512,153.43501,164.67844,19.08,0.2455,0.5455,1.3455
1041,2025-12-04 09:00:00+00:00,1.7455001,86.0,-0.34622517,-1.4822674,0.0,0.0,0.0,0.0,0.0,0.0,3.0,1012.3,1007.53296,100.0,0.0,94.0,100.0,13540.0,7.2,12.783802,19.33639,25.620771,143.13002,147.65259,155.82089,162.838,17.28,0.8455,0.6455,1.1455001
1042,2025-12-04 10:00:00+00:00,2.5455,83.0,-0.05026656,-0.75274706,0.0,0.0,0.0,0.0,0.0,0.0,3.0,1012.6,1007.84515,100.0,0.0,100.0,100.0,18880.0,7.9932966,13.979872,16.485485,24.535526,144.16226,145.49142,148.39255,157.5741,17.64,1.5455,1.0455,1.2455001
1043,2025-12-04 11:00:00+00:00,3.2955,80.0,0.1744991,0.032184124,0.0,0.0,0.0,0.0,0.0,0.0,3.0,1012.3,1007.55945,100.0,23.0,66.0,100.0,23320.0,7.9932966,12.979984,14.386494,17.068707,144.16226,146.3099,148.29861,152.35411,19.44,2.2455,1.7455001,1.2455001
1044,2025-12-04 12:00:00+00:00,4.2454996,78.0,0.74875164,0.902791,0.0,0.0,0.0,0.0,0.0,0.0,3.0,1011.5,1006.77936,98.0,51.0,64.0,88.0,26900.0,9.1641035,15.021105,16.323528,17.654688,135.0001,135.97093,138.57643,140.79282,19.44,3.1455,2.6455,2.0455
1045,2025-12-04 13:00:00+00:00,4.5455,79.0,1.2176242,0.9419956,0.0,0.0,0.0,0.0,0.0,0.0,3.0,1010.6,1005.8889,97.0,84.0,67.0,27.0,27240.0,11.480557,19.681828,21.252197,22.26477,138.81418,140.19447,141.18861,140.90614,25.56,3.4455001,2.9455001,2.4455001
1046,2025-12-04 14:00:00+00:00,4.5455,80.0,1.3929473,1.0105166,0.0,0.0,0.0,0.0,0.0,0.0,3.0,1010.6,1005.8889,92.0,83.0,67.0,0.0,25100.0,11.212135,20.364674,22.406927,24.216522,132.39738,135.0001,136.30188,138.01286,26.28,3.6455,3.1455,2.6455
1047,2025-12-04 15:00:00+00:00,4.0955,86.0,1.9635949,0.5099907,0.0,0.0,0.0,0.0,0.0,0.0,3.0,1010.8,1006.0801,100.0,100.0,27.0,0.0,14180.0,12.229406,22.691423,25.264202,27.333935,137.38599,138.21558,139.04459,139.80803,25.919998,3.2455,2.7455,2.2455
1048,2025-12-04 16:00:00+00:00,4.3954997,86.0,2.2584376,1.2318859,0.0,0.0,0.0,0.0,0.0,0.0,3.0,1010.6,1005.88605,100.0,100.0,63.0,0.0,14960.0,9.693296,18.581022,21.533897,28.515089,121.328636,125.537766,128.21107,136.02293,27.72,3.6455,3.1455,2.7455
1049,2025-12-04 17:00:00+00:00,3.9955,89.0,2.3463702,0.8475013,0.0,0.0,0.0,0.0,0.0,0.0,3.0,1010.8,1006.0784,100.0,100.0,22.0,0.0,9200.0,9.6932955,17.533146,19.386593,26.36616,105.06854,109.17911,111.801476,124.992096,21.96,3.1455,2.6455,2.4455001
1050,2025-12-04 18:00:00+00:00,3.2455,89.0,1.606335,0.031794548,0.0,0.0,0.0,0.0,0.0,0.0,3.0,1010.8,1006.06555,100.0,100.0,0.0,56.0,8460.0,9.255571,15.379206,16.62249,22.366402,103.49575,106.31393,107.650215,123.17853,21.96,2.2455,1.8455,2.1455
1051,2025-12-04 19:00:00+00:00,2.2955,91.0,0.9774401,-1.1476686,0.0,0.0,0.0,0.0,0.0,0.0,3.0,1010.3,1005.55176,100.0,100.0,36.0,95.0,4120.0,10.105681,17.339897,19.245697,25.6233,94.08554,94.76356,97.52373,114.04423,23.039999,1.2455001,0.8455,1.5455
1052,2025-12-04 20:00:00+00:00,2.2455,91.0,0.92797595,-1.1582613,0.0,0.0,0.0,0.0,0.0,0.0,3.0,1010.2,1005.4513,100.0,100.0,18.0,100.0,4540.0,9.779817,16.75064,19.839235,25.140787,96.340096,98.65246,101.5138,119.1342,23.039999,1.2455001,0.74549997,1.5455
1053,2025-12-04 21:00:00+00:00,2.1455,92.0,0.9808779,-1.1104491,0.0,0.0,0.0,0.0,0.0,0.0,3.0,1010.6,1005.84784,100.0,100.0,15.0,24.0,3760.0,8.825508,15.893093,17.377226,25.478743,101.768265,103.0919,103.17256,113.30492,23.039999,1.1455001,0.74549997,1.2455001
1054,2025-12-04 22:00:00+00:00,2.3455,92.0,1.1789814,-0.62209463,0.0,0.0,0.0,0.0,0.0,0.0,3.0,1010.3,1005.55273,100.0,100.0,100.0,100.0,4380.0,7.072878,11.874544,16.73516,22.553936,104.743614,104.03627,108.8248,118.61037,19.44,1.4455,0.94549996,1.3455
1055,2025-12-04 23:00:00+00:00,2.5455,91.0,1.2247598,-0.52958536,0.0,0.0,0.0,0.0,0.0,0.0,3.0,1010.0,1005.2574,100.0,100.0,95.0,100.0,5060.0,7.8625183,13.5515,17.654688,23.710857,105.945465,106.99091,110.28265,120.0685,17.64,1.6455001,1.1455001,1.5455
1056,2025-12-05 00:00:00+00:00,2.6455,91.0,1.3236871,-0.31245923,0.0,0.0,0.0,0.0,0.0,0.0,3.0,1010.3,1005.55774,100.0,100.0,100.0,100.0,5900.0,7.172949,12.522619,16.1198,22.104116,107.52566,108.43504,113.70266,127.05662,17.64,1.7455001,1.3455,1.6455001
1057,2025-12-05 01:00:00+00:00,2.8455,90.0,1.3673506,-0.024226189,0.0,0.0,0.0,0.0,0.0,0.0,3.0,1010.0,1005.26276,100.0,100.0,100.0,100.0,6560.0,6.6185193,11.298495,15.459054,21.252197,112.38018,112.47948,117.75845,128.8114,16.56,1.9455,1.5455,2.0455
1058,2025-12-05 02:00:00+00:00,3.0955,90.0,1.6143523,0.4812169,0.0,0.0,0.0,0.0,0.0,0.0,3.0,1010.1,1005.3663,100.0,100.0,100.0,100.0,7500.0,5.154415,9.360001,14.336861,20.188908,114.775116,112.61991,118.495544,129.93633,15.119999,2.2455,1.9455,2.6455
1059,2025-12-05 03:00:00+00:00,3.3955,91.0,2.0656264,0.9617939,0.0,0.0,0.0,0.0,0.0,0.0,3.0,1010.1,1005.37164,100.0,100.0,100.0,100.0,5960.0,4.452954,7.342588,11.177405,16.595179,104.03627,101.3099,104.93147,114.34108,11.5199995,2.5455,2.3455,2.6455
1060,2025-12-05 04:00:00+00:00,3.4955,92.0,2.3180485,1.0734386,3.0,0.0,0.0,0.0,0.0,0.0,3.0,1009.7,1004.9751,100.0,100.0,100.0,100.0,4120.0,4.6800003,8.225035,10.966713,17.068707,112.61991,113.198616,113.19862,117.64589,14.04,2.6455,2.2455,2.3455
1061,2025-12-05 05:00:00+00:00,3.6455,93.0,2.6188314,0.9964404,15.0,0.0,0.0,0.0,0.0,0.0,3.0,1010.6,1005.8734,100.0,100.0,100.0,100.0,3900.0,6.6087217,11.119281,12.904882,17.287498,119.357666,119.05451,120.141304,121.372955,14.4,2.7455,2.3455,1.9455
1062,2025-12-05 06:00:00+00:00,3.7455,93.0,2.7180011,1.5302272,53.0,0.5,0.5,0.0,0.0,0.0,61.0,1010.3,1005.5767,100.0,100.0,100.0,100.0,3880.0,3.7585104,5.2416787,5.5887027,7.5685663,106.699326,105.945465,104.93147,115.34614,13.679999,2.8455,2.4455001,2.0455
1063,2025-12-05 07:00:00+00:00,3.8455,94.0,2.9681833,1.3182664,98.0,1.4,1.4,0.0,0.0,0.0,61.0,1010.6,1005.87683,100.0,100.0,100.0,100.0,2660.0,6.2145634,10.308831,11.440978,13.708391,100.00792,102.09474,102.72436,113.198616,13.32,3.0455,2.5455,2.2455
1064,2025-12-05 08:00:00+00:00,3.8955,94.0,3.0178292,1.7039385,100.0,0.6,0.6,0.0,0.0,0.0,61.0,1011.0,1006.27594,100.0,92.0,91.0,100.0,2020.0,3.9763298,6.4799995,8.759178,10.966713,84.805664,90.0,99.46225,113.19862,14.759999,3.0455,2.6455,2.5455
1065,2025-12-05 09:00:00+00:00,4.2955,94.0,3.4149876,2.0072837,100.0,0.3,0.3,0.0,0.0,0.0,53.0,1010.9,1006.1831,98.0,96.0,80.0,45.0,1680.0,5.1544156,8.825508,9.178235,9.605998,102.09474,101.768265,101.3099,102.99462,10.08,3.4455001,2.9455001,2.6455
1066,2025-12-05 10:00:00+00:00,4.4455,92.0,3.2589781,2.1652136,75.0,0.0,0.0,0.0,0.0,0.0,53.0,1011.0,1006.28516,100.0,100.0,76.0,100.0,4960.0,4.896529,7.5170207,7.8625183,8.209263,107.10281,106.699326,105.945465,105.25517,13.32,3.5455,3.0455,2.6455
1067,2025-12-05 11:00:00+00:00,4.5955,92.0,3.4075432,2.5735798,48.0,0.0,0.0,0.0,0.0,0.0,51.0,1011.1,1006.38715,100.0,100.0,94.0,100.0,4480.0,3.319036,4.072935,4.5820518,4.5820518,139.39879,135.0001,135.0001,135.0001,10.08,3.6455,3.1455,2.7455
1068,2025-12-05 12:00:00+00:00,4.7955,91.0,3.4505146,2.8872914,45.0,0.0,0.0,0.0,0.0,0.0,51.0,1011.6,1006.8883,100.0,100.0,100.0,100.0,5840.0,2.5959969,3.396233,3.7064266,3.7064266,236.3099,237.99466,240.94548,240.94548,9.0,3.8455,3.3455,2.9455001
1069,2025-12-05 13:00:00+00:00,4.8954997,91.0,3.5494318,2.9095163,28.0,0.0,0.0,0.0,0.0,0.0,51.0,1011.3,1006.59125,100.0,100.0,89.0,100.0,5940.0,3.2599385,4.3349743,4.3349743,4.3349743,263.6599,265.23645,265.23645,265.23645,9.72,3.9455001,3.4455001,2.9455001
1070,2025-12-05 14:00:00+00:00,4.9455,90.0,3.442072,3.0042458,8.0,0.0,0.0,0.0,0.0,0.0,3.0,1011.9,1007.18945,100.0,100.0,69.0,100.0,6760.0,2.8116899,3.319036,3.319036,2.8116899,230.19447,229.39879,229.39879,230.19447,7.2,4.0455,3.5455,3.0455
1071,2025-12-05 15:00:00+00:00,4.7454996,93.0,3.7096734,2.551896,5.0,0.0,0.0,0.0,0.0,0.0,3.0,1011.9,1007.186,100.0,100.0,70.0,100.0,3460.0,4.8965297,7.2,7.2,7.2,233.97253,233.13002,233.13002,233.13002,12.599999,3.8455,3.4455001,3.0455
1072,2025-12-05 16:00:00+00:00,4.3455,90.0,2.8493161,1.4580293,0.0,0.0,0.0,0.0,0.0,0.0,3.0,1013.1,1008.3738,100.0,100.0,54.0,87.0,6820.0,8.534353,13.849477,14.654254,15.141414,242.35411,242.10283,242.176,241.60707,19.08,3.4455001,2.9455001,2.3455
1073,2025-12-05 17:00:00+00:00,3.9955,88.0,2.1876345,1.2676406,0.0,0.0,0.0,0.0,0.0,0.0,3.0,1013.1,1008.3677,100.0,88.0,37.0,100.0,10160.0,6.6185193,10.829958,11.631956,12.43434,247.61981,248.5522,248.19853,247.8905,18.359999,3.1455,2.6455,2.0455
1074,2025-12-05 18:00:00+00:00,3.8455,88.0,2.039821,1.0886922,0.0,0.0,0.0,0.0,0.0,0.0,3.0,1013.3,1008.5642,100.0,95.0,33.0,100.0,10020.0,6.638072,10.464797,10.97262,10.97262,229.39879,229.18501,228.99101,228.99101,15.119999,2.9455001,2.4455001,1.9455
1075,2025-12-05 19:00:00+00:00,3.4455001,88.0,1.6456461,0.47463655,0.0,0.0,0.0,0.0,0.0,0.0,3.0,1013.4,1008.65686,100.0,100.0,0.0,100.0,10100.0,7.6367526,12.738099,14.021525,15.815435,224.9999,227.29063,228.12221,228.69148,17.64,2.5455,2.0455,1.5455
1076,2025-12-05 20:00:00+00:00,3.1955001,88.0,1.3992821,0.26096582,0.0,0.0,0.0,0.0,0.0,0.0,3.0,1013.6,1008.8518,100.0,92.0,0.0,100.0,11500.0,7.10031,11.4862,12.181624,12.88981,210.46547,212.19571,214.15974,215.90982,16.919998,2.2455,1.8455,1.2455001
1077,2025-12-05 21:00:00+00:00,2.7955,89.0,1.1622998,-0.29591227,0.0,0.0,0.0,0.0,0.0,0.0,2.0,1014.3,1009.5416,83.0,83.0,0.0,0.0,8180.0,7.9036193,12.904882,13.397612,13.70839,210.0685,210.1413,210.69965,209.93143,17.28,1.8455,1.3455,0.8455
1078,2025-12-05 22:00:00+00:00,2.4455001,90.0,0.9721418,-0.66050696,0.0,0.0,0.0,0.0,0.0,0.0,3.0,1014.4,1009.6351,99.0,99.0,0.0,0.0,7100.0,7.7879906,13.18308,13.979872,14.689588,213.6901,214.9921,214.50858,216.02747,18.359999,1.5455,1.0455,0.44550002
1079,2025-12-05 23:00:00+00:00,2.2455,92.0,1.07993,-0.6462145,0.0,0.0,0.0,0.0,0.0,0.0,3.0,1013.9,1009.1339,100.0,100.0,0.0,0.0,4600.0,6.439876,10.630672,13.684735,18.899143,206.56499,208.30066,215.36255,229.63554,17.64,1.3455,0.94549996,0.6455
1080,2025-12-06 00:00:00+00:00,2.1455,94.0,1.2802029,-0.92522144,0.0,0.0,0.0,0.0,0.0,0.0,3.0,1014.2,1009.43097,100.0,100.0,0.0,0.0,2780.0,7.8954163,13.363711,14.8257065,15.315873,204.22774,207.25525,209.0545,209.57774,19.08,1.1455001,0.74549997,0.44550002
1081,2025-12-06 01:00:00+00:00,1.9455,95.0,1.2289239,-1.1421814,0.0,0.0,0.0,0.0,0.0,0.0,3.0,1014.1,1009.32794,100.0,100.0,0.0,0.0,1020.0,7.9526596,13.441071,14.205182,14.618837,185.19434,187.69595,188.74608,189.92618,19.08,1.0455,0.74549997,0.34550002
1082,2025-12-06 02:00:00+00:00,2.5455,91.0,1.2247598,-0.38597918,0.0,0.0,0.0,0.0,0.0,0.0,3.0,1013.7,1008.94,100.0,100.0,0.0,28.0,5720.0,6.87779,11.885453,13.698934,18.079027,173.99109,178.26433,183.01273,192.65256,17.28,1.6455001,1.2455001,0.94549996
1083,2025-12-06 03:00:00+00:00,2.5955,92.0,1.4266088,-0.35433388,0.0,0.0,0.0,0.0,0.0,0.0,3.0,1013.1,1008.34375,100.0,100.0,0.0,52.0,4740.0,7.2359104,12.605142,14.04,19.70815,174.2895,178.36346,180.0,189.46225,17.28,1.7455001,1.2455001,0.8455
1084,2025-12-06 04:00:00+00:00,2.4455001,92.0,1.278033,-0.8032911,0.0,0.0,0.0,0.0,0.0,0.0,3.0,1012.8,1008.04254,100.0,99.0,0.0,80.0,4700.0,9.114471,15.188415,16.23596,16.93531,170.9098,174.55975,176.186,177.5634,19.8,1.5455,1.0455,0.6455
1085,2025-12-06 05:00:00+00:00,2.0955,92.0,0.9313516,-1.3599358,0.0,0.0,0.0,0.0,0.0,0.0,3.0,1013.1,1008.33514,97.0,97.0,0.0,5.0,4140.0,10.137692,16.766108,17.811815,19.06301,163.49556,165.06853,165.96373,169.11452,22.68,1.1455001,0.6455,0.34550002
1086,2025-12-06 06:00:00+00:00,1.8455,92.0,0.6837191,-1.7450197,0.0,0.0,0.0,0.0,0.0,0.0,3.0,1012.9,1008.1317,95.0,95.0,0.0,57.0,4100.0,10.787993,18.204042,19.33639,19.66536,154.2901,155.4623,155.82089,156.2505,23.4,0.8455,0.34550002,-0.0545
1087,2025-12-06 07:00:00+00:00,1.2955,95.0,0.58271575,-2.217464,0.0,0.0,0.0,0.0,0.0,0.0,3.0,1012.8,1008.0227,98.0,94.0,0.0,81.0,1660.0,10.144082,17.22742,18.35647,25.417631,152.52565,153.97047,154.44008,164.38895,24.48,0.34550002,0.045500003,-0.0545
1088,2025-12-06 08:00:00+00:00,1.2955,93.0,0.288259,-2.2715585,0.0,0.0,0.0,0.0,0.0,0.0,3.0,1012.4,1007.62463,100.0,83.0,100.0,100.0,3340.0,10.195057,18.0,23.090569,31.550869,137.86247,143.13002,149.03632,163.42592,23.039999,0.34550002,-0.0545,1.1455001
1089,2025-12-06 09:00:00+00:00,1.5955,91.0,0.28493083,-2.0514522,0.0,0.0,0.0,0.0,0.0,0.0,3.0,1012.0,1007.2319,100.0,78.0,100.0,100.0,4720.0,10.739832,18.723461,20.808498,30.274265,140.44037,142.02834,142.73352,154.65387,24.119999,0.6455,0.1455,0.44550002
1090,2025-12-06 10:00:00+00:00,2.3955,88.0,0.6108923,-1.1925106,0.0,0.0,0.0,0.0,0.0,0.0,3.0,1011.7,1006.9468,100.0,69.0,100.0,100.0,8700.0,10.691453,18.35647,20.188908,30.267845,135.0001,138.17992,140.06367,153.13026,23.759998,1.3455,0.94549996,0.74549997
1091,2025-12-06 11:00:00+00:00,3.1455,88.0,1.3500087,-0.4525051,0.0,0.0,0.0,0.0,0.0,0.0,3.0,1010.7,1005.9645,100.0,74.0,100.0,100.0,10200.0,11.592894,20.570463,23.277834,26.749235,143.84172,147.14429,148.27644,151.02039,25.919998,2.1455,1.6455001,1.1455001
1092,2025-12-06 12:00:00+00:00,3.9955,84.0,1.536281,0.5325775,0.0,0.0,0.0,0.0,0.0,0.0,3.0,1010.1,1005.3817,100.0,46.0,100.0,100.0,17900.0,10.883676,18.775303,20.68356,22.90743,145.78424,147.52882,148.52321,149.80847,25.199999,2.9455001,2.4455001,1.9455
1093,2025-12-06 13:00:00+00:00,4.2955,83.0,1.6628058,0.64565945,0.0,0.0,0.0,0.0,0.0,0.0,3.0,1009.2,1004.491,100.0,43.0,100.0,100.0,19940.0,12.313894,21.889065,23.979893,25.959969,142.12495,143.69542,144.16226,146.3099,27.359999,3.3455,2.8455,2.3455
1094,2025-12-06 14:00:00+00:00,4.2955,85.0,1.9961048,0.75162125,0.0,0.0,0.0,0.0,0.0,0.0,3.0,1009.2,1004.491,100.0,69.0,81.0,100.0,16040.0,11.983188,21.794127,24.514387,26.89419,147.26479,149.19862,150.04648,152.06294,27.72,3.4455001,2.9455001,2.4455001
1095,2025-12-06 15:00:00+00:00,4.3954997,85.0,2.094254,0.80612326,0.0,0.0,0.0,0.0,0.0,0.0,3.0,1009.2,1004.4926,100.0,67.0,98.0,70.0,17060.0,12.413477,23.507753,26.729847,29.49804,150.46132,152.6502,154.47035,156.2505,28.44,3.6455,3.1455,2.6455
1096,2025-12-06 16:00:00+00:00,4.4455,85.0,2.1433282,0.98445845,13.0,0.0,0.0,0.0,0.0,0.0,3.0,1008.8,1004.0954,98.0,53.0,96.0,0.0,17480.0,11.592895,22.73707,26.339111,31.534437,154.23073,156.68227,158.34395,161.35811,27.359999,3.7455,3.3455,2.8455
1097,2025-12-06 17:00:00+00:00,4.3455,86.0,2.2092977,0.8961201,30.0,0.0,0.0,0.0,0.0,0.0,3.0,1008.8,1004.0939,85.0,65.0,55.0,0.0,16140.0,11.592895,22.73707,26.339111,35.016357,154.23073,156.68227,158.34395,165.10648,26.64,3.6455,3.2455,3.0455
1098,2025-12-06 18:00:00+00:00,4.3455,86.0,2.2092977,1.1046133,20.0,0.0,0.0,0.0,0.0,0.0,3.0,1008.4,1003.69574,93.0,85.0,41.0,3.0,15580.0,10.163227,19.809813,23.241617,31.845251,157.06787,160.90642,163.81073,174.1606,25.199999,3.6455,3.2455,3.1455
1099,2025-12-06 19:00:00+00:00,4.4954996,86.0,2.3567169,1.2342329,10.0,0.0,0.0,0.0,0.0,0.0,3.0,1008.5,1003.7978,100.0,100.0,43.0,0.0,15520.0,10.483357,19.914217,24.031178,32.41799,164.05453,167.4712,171.38443,181.9091,23.039999,3.7455,3.3455,3.5455
1100,2025-12-06 20:00:00+00:00,4.6955,85.0,2.3886967,1.4904118,10.0,0.0,0.0,0.0,0.0,0.0,3.0,1009.2,1004.498,100.0,90.0,100.0,0.0,17140.0,10.137692,19.770523,24.187069,34.162083,163.49556,169.50858,175.7322,187.87384,24.119999,3.9455001,3.6455,3.6455
1101,2025-12-06 21:00:00+00:00,4.6955,83.0,2.0543294,1.6838284,5.0,0.0,0.0,0.0,0.0,0.0,3.0,1009.5,1004.7966,97.0,68.0,89.0,0.0,22020.0,8.4042845,16.923828,21.316135,28.930204,170.13426,178.78116,184.84392,196.63103,21.599998,4.0455,3.7455,3.6455
1102,2025-12-06 22:00:00+00:00,4.6454997,85.0,2.339623,1.7502608,3.0,0.0,0.0,0.0,0.0,0.0,3.0,1008.3,1003.6012,92.0,64.0,70.0,0.0,18300.0,7.9526596,17.339897,23.933908,31.235058,174.80566,184.76355,195.7087,205.97433,17.28,4.1454997,4.0455,4.4455
1103,2025-12-06 23:00:00+00:00,4.2955,89.0,2.6423752,1.4151511,0.0,0.0,0.0,0.0,0.0,0.0,2.0,1008.5,1003.7943,82.0,72.0,15.0,0.0,11840.0,8.225035,17.727943,23.759998,28.901073,156.80139,167.09259,180.0,193.69006,18.359999,3.8455,3.9455001,4.2454996
1104,2025-12-07 00:00:00+00:00,4.1955,88.0,2.3847163,1.1223369,0.0,0.0,0.0,0.0,0.0,0.0,3.0,1008.7,1003.9917,97.0,93.0,7.0,74.0,11940.0,9.227524,18.511143,25.570139,31.355152,159.44388,166.50426,178.38649,192.60016,19.08,3.5455,3.8455,4.3455
1105,2025-12-07 01:00:00+00:00,4.1454997,90.0,2.6517265,1.1696572,0.0,0.0,0.0,0.0,0.0,0.0,3.0,1008.5,1003.7918,91.0,69.0,82.0,0.0,8960.0,8.891344,18.079027,25.20257,31.912327,158.62932,167.34744,179.18156,191.05637,19.8,3.5455,3.6455,4.2454996
1106,2025-12-07 02:00:00+00:00,4.0455,91.0,2.7086208,1.0779109,3.0,0.0,0.0,0.0,0.0,0.0,3.0,1009.0,1004.2878,83.0,74.0,63.0,6.0,7520.0,8.905908,18.775301,26.437336,33.481934,165.96373,175.60138,186.25394,196.87634,19.44,3.5455,3.6455,4.1454997
1107,2025-12-07 03:00:00+00:00,4.2955,90.0,2.7999187,1.4257736,5.0,0.0,0.0,0.0,0.0,0.0,3.0,1008.5,1003.7943,100.0,93.0,96.0,100.0,9380.0,8.350138,18.014393,26.282465,34.981182,172.56868,182.29056,193.46523,203.66315,19.08,3.8455,3.8455,4.7454996
1108,2025-12-07 04:00:00+00:00,4.6955,90.0,3.1950927,1.9433198,8.0,0.0,0.0,0.0,0.0,0.0,3.0,1008.5,1003.8012,100.0,49.0,100.0,71.0,9640.0,8.049845,17.64,25.277023,33.092598,169.6952,180.0,190.66974,202.38019,18.72,4.1454997,4.2454996,5.0455
1109,2025-12-07 05:00:00+00:00,5.0455,90.0,3.540862,2.3257985,40.0,0.0,0.0,0.0,0.0,0.0,3.0,1008.9,1004.20496,100.0,77.0,100.0,0.0,9120.0,8.28,18.175545,26.309572,34.77868,180.0,187.96953,196.69933,205.76927,18.0,4.5455,4.4455,5.0455
1110,2025-12-07 06:00:00+00:00,5.6454997,90.0,4.133598,2.9279523,68.0,0.1,0.1,0.0,0.0,0.0,61.0,1009.2,1004.5137,97.0,80.0,92.0,0.0,9220.0,9.0645685,19.296133,23.34455,33.809345,186.84268,194.03627,197.03786,206.56499,19.8,5.0455,4.6454997,5.1454997
1111,2025-12-07 07:00:00+00:00,5.8455,92.0,4.645549,3.380065,90.0,0.3,0.3,0.0,0.0,0.0,80.0,1009.4,1004.71625,97.0,92.0,92.0,0.0,6600.0,8.049845,17.208603,21.53089,29.88217,190.3048,195.78082,200.55612,211.20045,20.519999,5.3455,4.9455,5.4455
1112,2025-12-07 08:00:00+00:00,6.1454997,92.0,4.942661,3.7503014,73.0,0.0,0.0,0.0,0.0,0.0,80.0,1009.4,1004.72125,100.0,100.0,88.0,20.0,5540.0,7.9932976,17.654686,23.4,32.97097,187.76508,196.58742,202.6199,211.60745,17.64,5.5455,5.2454996,5.8455
1113,2025-12-07 09:00:00+00:00,6.8455,92.0,5.6359096,4.452609,45.0,0.1,0.1,0.0,0.0,0.0,61.0,1010.1,1005.4296,100.0,89.0,100.0,100.0,6020.0,9.0,18.919704,23.358425,33.449017,196.26028,201.19412,204.5901,214.03217,20.16,6.2454996,5.8455,6.1454997
1114,2025-12-07 10:00:00+00:00,7.4455,91.0,6.071677,5.183691,30.0,0.0,0.0,0.0,0.0,0.0,61.0,1010.2,1005.539,100.0,86.0,100.0,100.0,7200.0,8.766573,17.727943,21.413193,30.312769,199.17911,203.9625,206.99576,217.27826,20.16,6.7454996,6.3455,6.2454996
1115,2025-12-07 11:00:00+00:00,8.0955,89.0,6.3913636,5.916292,5.0,0.0,0.0,0.0,0.0,0.0,3.0,1010.7,1006.04767,100.0,72.0,100.0,0.0,9580.0,8.699793,17.238699,20.570463,29.301876,204.44394,208.70586,212.85571,222.5104,19.44,7.4455,7.0455,6.8455
1116,2025-12-07 12:00:00+00:00,8.945499,87.0,6.897954,6.932251,5.0,0.0,0.0,0.0,0.0,0.0,3.0,1010.4,1005.76306,94.0,86.0,71.0,0.0,12720.0,8.373386,15.315873,17.974781,23.000591,205.4633,209.57774,212.73521,219.92033,19.8,8.1455,7.7454996,7.2454996
1117,2025-12-07 13:00:00+00:00,9.4955,86.0,7.2698307,7.6888256,0.0,0.0,0.0,0.0,0.0,0.0,3.0,1010.4,1005.77185,87.0,77.0,32.0,0.0,15280.0,7.5685663,14.336861,15.990646,18.79255,205.34613,208.49554,211.18492,216.43095,16.919998,8.6455,8.2455,7.7454996
1118,2025-12-07 14:00:00+00:00,9.5455,86.0,7.3189526,7.924205,0.0,0.0,0.0,0.0,0.0,0.0,3.0,1010.8,1006.17096,92.0,65.0,76.0,0.0,15660.0,6.379216,12.904882,15.141414,18.171976,196.38962,202.98874,208.39293,213.6901,17.64,8.945499,8.445499,8.0455
1119,2025-12-07 15:00:00+00:00,9.0955,89.0,7.377812,7.4199467,0.0,0.0,0.0,0.0,0.0,0.0,2.0,1010.3,1005.66595,86.0,76.0,26.0,0.0,12580.0,6.849467,15.893093,19.809813,22.057161,183.01273,193.0919,199.09358,206.14677,13.679999,8.7455,8.5455,8.2455
1120,2025-12-07 16:00:00+00:00,8.3955,91.0,7.0112658,6.6327896,0.0,0.0,0.0,0.0,0.0,0.0,2.0,1010.3,1005.6543,72.0,52.0,45.0,0.0,9140.0,6.8399997,18.0036,22.768398,24.967499,180.0,191.53459,198.43504,204.71742,14.4,8.445499,8.6455,8.445499
1121,2025-12-07 17:00:00+00:00,8.1455,91.0,6.764011,6.4276333,0.0,0.0,0.0,0.0,0.0,0.0,3.0,1010.9,1006.2475,91.0,68.0,59.0,38.0,9140.0,6.130579,17.555305,22.461807,25.603062,183.3664,195.46127,201.63095,207.64589,13.679999,8.445499,8.7455,8.7455
1122,2025-12-07 18:00:00+00:00,7.6955,94.0,6.7906575,5.927085,0.0,0.0,0.0,0.0,0.0,0.0,2.0,1011.4,1006.7379,100.0,5.0,0.0,100.0,6200.0,6.519877,18.888851,24.448214,28.019936,173.6599,187.66672,193.62701,200.29765,12.599999,8.445499,8.8455,9.0455
1123,2025-12-07 19:00:00+00:00,7.2454996,94.0,6.3438964,5.343238,0.0,0.0,0.0,0.0,0.0,0.0,1.0,1011.2,1006.5313,12.0,0.0,0.0,12.0,5600.0,6.725354,19.44,25.099514,29.275326,164.47583,180.0,188.24623,196.42938,14.4,7.9455,8.5455,8.945499
1124,2025-12-07 20:00:00+00:00,6.7955,94.0,5.8971305,4.6604595,0.0,0.0,0.0,0.0,0.0,0.0,3.0,1010.9,1006.22504,95.0,21.0,0.0,88.0,4960.0,7.628263,21.316135,27.757376,33.26252,160.70985,175.15608,182.97366,189.972,15.4800005,7.5455,8.2455,8.6455
1125,2025-12-07 21:00:00+00:00,6.5455,93.0,5.4946017,4.2602396,0.0,0.0,0.0,0.0,0.0,0.0,3.0,1010.6,1005.9223,100.0,0.0,61.0,100.0,5860.0,8.049845,21.749481,29.215502,35.069984,153.43501,167.57407,176.46777,185.30084,17.64,6.6454997,7.2454996,7.6454997
1126,2025-12-07 22:00:00+00:00,6.3455,92.0,5.140734,3.7443476,0.0,0.0,0.0,0.0,0.0,0.0,3.0,1010.1,1005.4212,100.0,49.0,99.0,100.0,6960.0,9.6932955,23.675303,32.058193,39.014767,164.93146,171.25392,178.06946,184.76355,20.519999,6.1454997,6.7454996,7.1454997
1127,2025-12-07 23:00:00+00:00,6.3455,90.0,4.825101,3.565261,0.0,0.0,0.0,0.0,0.0,0.0,3.0,1009.4,1004.7245,100.0,46.0,100.0,100.0,9380.0,10.464797,22.545315,32.335934,40.719803,153.43501,160.40762,168.4399,177.46649,22.68,6.0455,6.3455,7.3455
1128,2025-12-08 00:00:00+00:00,6.6955,88.0,4.8480473,3.7321172,0.0,0.0,0.0,0.0,0.0,0.0,3.0,1008.9,1004.2327,100.0,68.0,100.0,100.0,13520.0,11.753877,24.535526,31.655441,42.971394,152.6502,157.5741,162.80138,171.3269,23.4,6.2454996,6.0455,7.2454996
1129,2025-12-08 01:00:00+00:00,6.9455,87.0,4.930198,3.9533653,28.0,0.0,0.0,0.0,0.0,0.0,3.0,1008.8,1004.1372,100.0,68.0,98.0,100.0,14660.0,12.0694,24.18707,28.739187,41.140926,162.64589,165.3432,167.70474,175.9859,28.08,6.3455,6.0455,6.3455
1130,2025-12-08 02:00:00+00:00,7.1955,88.0,5.34067,4.2744284,100.0,0.6,0.6,0.0,0.0,0.0,61.0,1008.3,1003.6437,100.0,100.0,100.0,100.0,12020.0,12.181625,24.535524,29.655787,40.68637,161.0295,165.55592,169.50858,178.98604,27.0,6.6454997,6.3455,6.3455
1131,2025-12-08 03:00:00+00:00,7.5955,91.0,6.2200356,4.729702,90.0,0.5,0.5,0.0,0.0,0.0,61.0,1007.6,1002.9535,100.0,79.0,100.0,100.0,7200.0,13.138765,26.121714,31.421213,39.96162,170.53775,172.87508,175.4,180.51616,28.44,7.0455,6.7454996,6.5455
1132,2025-12-08 04:00:00+00:00,8.1455,91.0,6.764011,5.4573717,78.0,0.0,0.0,0.0,0.0,0.0,3.0,1007.6,1002.96265,100.0,100.0,100.0,46.0,7180.0,12.783802,25.420181,30.385365,35.65454,189.72751,192.26476,193.70699,196.42226,28.8,7.6454997,7.2454996,6.7454996
1133,2025-12-08 05:00:00+00:00,8.695499,93.0,7.6264577,6.459235,45.0,0.5,0.5,0.0,0.0,0.0,61.0,1008.6,1003.9671,100.0,100.0,100.0,68.0,5000.0,11.113451,23.042812,27.971327,39.91944,204.90474,208.96756,211.84901,219.14398,28.44,8.1455,7.8455,7.7454996
1134,2025-12-08 06:00:00+00:00,9.2955,96.0,8.690158,7.4260225,8.0,0.2,0.2,0.0,0.0,0.0,80.0,1009.4,1004.77325,100.0,100.0,43.0,100.0,2720.0,10.464797,21.892027,32.559605,44.66322,220.81499,224.9999,234.90411,249.22766,24.119999,8.945499,8.945499,9.7455
1135,2025-12-08 07:00:00+00:00,9.7455,94.0,8.8258295,7.9898567,0.0,0.0,0.0,0.0,0.0,0.0,2.0,1010.5,1005.8754,83.0,83.0,0.0,0.0,4560.0,9.931042,22.493519,30.758411,39.5181,223.53127,230.19447,237.42595,246.93845,20.880001,9.5455,9.5455,9.8455
1136,2025-12-08 08:00:00+00:00,10.0955,91.0,8.692536,8.177798,0.0,0.0,0.0,0.0,0.0,0.0,2.0,1011.0,1006.3789,84.0,84.0,0.0,0.0,8560.0,10.799999,24.881702,33.809345,43.952446,233.13002,238.60979,243.43501,250.37766,22.68,9.945499,9.945499,10.0455
1137,2025-12-08 09:00:00+00:00,10.945499,86.0,8.694311,8.818268,0.0,0.0,0.0,0.0,0.0,0.0,3.0,1012.5,1007.8859,81.0,49.0,0.0,55.0,17480.0,12.24,25.952478,31.688177,36.77114,241.92761,246.27959,248.68202,251.74234,27.359999,10.6455,10.2455,9.945499
1138,2025-12-08 10:00:00+00:00,11.2955,82.0,8.333583,9.325668,0.0,0.0,0.0,0.0,0.0,0.0,2.0,1011.7,1007.09515,77.0,10.0,61.0,24.0,24120.0,10.514218,20.570463,24.514387,28.33957,231.95291,237.14427,240.04648,244.41153,26.28,10.6455,10.2455,9.8455
1139,2025-12-08 11:00:00+00:00,12.1455,77.0,8.23311,9.845555,0.0,0.0,0.0,0.0,0.0,0.0,3.0,1012.8,1008.2038,100.0,0.0,77.0,100.0,34980.0,12.599998,23.664352,27.41678,31.557035,233.13002,236.79341,240.06857,242.8504,27.0,11.3455,10.945499,10.5455
1140,2025-12-08 12:00:00+00:00,13.1455,69.0,7.5836644,10.8841915,0.0,0.0,0.0,0.0,0.0,0.0,3.0,1012.7,1008.1204,100.0,0.0,0.0,100.0,49600.0,11.212135,21.252197,24.482647,27.558228,227.60262,231.1886,233.97253,236.7251,25.919998,12.445499,11.945499,11.445499
1141,2025-12-08 13:00:00+00:00,12.9955,74.0,8.468975,10.997295,0.0,0.0,0.0,0.0,0.0,0.0,3.0,1012.9,1008.317,99.0,22.0,83.0,97.0,40820.0,10.948973,20.371038,23.469128,26.712873,223.66785,226.43204,228.73149,232.66673,24.84,12.3455,11.8455,11.445499
1142,2025-12-08 14:00:00+00:00,12.7955,78.0,9.054599,11.210866,0.0,0.0,0.0,0.0,0.0,0.0,3.0,1013.5,1008.911,100.0,0.0,100.0,100.0,34700.0,9.178235,18.844202,22.493519,26.867676,221.82008,226.54811,230.19447,234.81921,21.96,12.2455,11.8455,11.445499
1143,2025-12-08 15:00:00+00:00,12.445499,79.0,8.903381,10.92977,5.0,0.0,0.0,0.0,0.0,0.0,3.0,1013.1,1008.50745,100.0,100.0,100.0,80.0,32240.0,8.427383,18.359999,25.864943,31.902174,199.9832,208.07239,214.7961,220.88171,19.08,12.0455,11.8455,11.7455
1144,2025-12-08 16:00:00+00:00,12.2455,83.0,9.441803,10.883995,25.0,0.0,0.0,0.0,0.0,0.0,3.0,1013.1,1008.50397,100.0,55.0,100.0,100.0,24220.0,8.373386,18.709612,27.36947,34.17157,205.4633,210.01828,215.36255,221.58331,18.72,11.8455,11.8455,11.8455
1145,2025-12-08 17:00:00+00:00,12.1455,88.0,10.216845,10.954329,55.0,0.1,0.1,0.0,0.0,0.0,61.0,1013.3,1008.70154,100.0,65.0,100.0,100.0,12740.0,8.707237,19.376562,26.089443,34.882866,209.7448,215.16652,219.40063,226.25438,20.519999,11.7455,11.5455,11.6455
1146,2025-12-08 18:00:00+00:00,12.0955,94.0,11.158681,11.297894,55.0,1.0,1.0,0.0,0.0,0.0,61.0,1013.5,1008.9,100.0,100.0,100.0,100.0,5120.0,7.928177,18.11841,22.691423,32.078403,219.47243,220.97165,221.78442,224.09071,19.8,11.6455,11.2455,11.2455
1147,2025-12-08 19:00:00+00:00,12.195499,93.0,11.096588,10.99107,85.0,1.0,1.0,0.0,0.0,0.0,61.0,1013.8,1009.2002,100.0,68.0,100.0,100.0,5060.0,10.587918,22.218153,27.492311,37.14286,215.3113,220.39983,224.9999,236.46393,22.319998,11.7455,11.5455,11.6455
1148,2025-12-08 20:00:00+00:00,12.3455,93.0,11.245298,11.208095,88.0,0.90000004,0.90000004,0.0,0.0,0.0,61.0,1014.4,1009.80005,100.0,67.0,100.0,100.0,5940.0,10.44,22.183128,27.722336,37.51262,223.60289,228.28934,232.38597,243.18912,24.119999,11.945499,11.7455,11.8455
1149,2025-12-08 21:00:00+00:00,12.3455,95.0,11.566889,11.199389,90.0,0.8,0.8,0.0,0.0,0.0,61.0,1014.6,1009.9991,100.0,75.0,100.0,100.0,3460.0,11.183201,23.47741,31.63087,39.79262,213.17853,215.6399,221.30852,228.6679,22.319998,11.945499,11.7455,12.0455
1150,2025-12-08 22:00:00+00:00,12.3455,94.0,11.406847,11.158872,98.0,3.1000001,2.9,0.2,0.0,0.0,63.0,1014.2,1009.60095,100.0,87.0,100.0,100.0,4480.0,11.119281,22.473343,28.394392,35.9153,209.0545,215.21768,219.3405,227.03091,24.48,11.8455,11.5455,11.5455
1151,2025-12-08 23:00:00+00:00,12.2955,92.0,11.032706,11.157016,98.0,0.3,0.3,0.0,0.0,0.0,61.0,1013.8,1009.2018,100.0,54.0,100.0,100.0,6260.0,10.00256,21.370783,27.579382,37.221283,210.25635,212.61923,215.97247,221.86356,23.4,11.8455,11.5455,11.7455
1152,2025-12-09 00:00:00+00:00,11.945499,94.0,11.00978,10.884746,100.0,0.0,0.0,0.0,0.0,0.0,61.0,1014.2,1009.59436,100.0,78.0,100.0,100.0,3740.0,9.422101,19.64228,25.076267,34.247337,226.54811,228.7154,230.82635,236.14285,23.4,11.445499,11.1455,11.0455
1153,2025-12-09 01:00:00+00:00,11.945499,93.0,10.848736,10.945891,93.0,0.6,0.5,0.0,0.0,0.0,61.0,1014.2,1009.59436,100.0,67.0,100.0,100.0,5480.0,8.669949,18.35647,23.688984,31.559086,221.63345,228.17992,233.65245,244.3119,20.880001,11.445499,11.1455,11.3455
1154,2025-12-09 02:00:00+00:00,11.8455,93.0,10.749594,10.8184185,80.0,0.4,0.4,0.0,0.0,0.0,61.0,1014.8,1010.18994,100.0,72.0,100.0,100.0,5500.0,8.654987,18.440998,23.565569,31.883888,224.9999,231.34016,235.58157,244.59233,19.08,11.3455,11.0455,11.2455
1155,2025-12-09 03:00:00+00:00,11.6455,93.0,10.551311,10.813324,73.0,0.4,0.2,0.1,0.0,0.0,61.0,1014.4,1009.78864,100.0,74.0,100.0,100.0,5580.0,6.9153743,15.696165,22.104116,28.220417,231.34016,233.39284,239.67648,246.70541,18.359999,11.1455,10.945499,10.945499
1156,2025-12-09 04:00:00+00:00,11.4955,94.0,10.563074,10.204354,65.0,0.4,0.3,0.1,0.0,0.0,61.0,1014.1,1009.4874,100.0,81.0,100.0,100.0,4320.0,10.086427,20.188908,27.534704,32.750107,214.82455,219.93633,228.17992,236.65927,20.519999,11.0455,10.945499,10.945499
1157,2025-12-09 05:00:00+00:00,11.5955,91.0,10.175907,10.136231,75.0,0.1,0.1,0.0,0.0,0.0,61.0,1014.4,1009.7877,100.0,71.0,100.0,100.0,7460.0,10.464797,21.470612,26.121714,31.581665,229.18501,235.24402,240.25522,245.77226,22.319998,11.0455,10.7455,10.3455
1158,2025-12-09 06:00:00+00:00,11.5455,92.0,10.290095,10.400799,63.0,0.0,0.0,0.0,0.0,0.0,61.0,1015.4,1010.78253,100.0,68.0,97.0,100.0,6980.0,8.534353,18.514643,22.226902,30.421598,242.35411,243.43501,245.09526,249.20581,23.039999,11.0455,10.6455,10.5455
1159,2025-12-09 07:00:00+00:00,11.445499,91.0,10.027575,10.169923,28.0,0.0,0.0,0.0,0.0,0.0,3.0,1014.9,1010.28326,100.0,64.0,90.0,100.0,8080.0,8.913181,18.723461,25.006397,32.427986,226.63654,232.02834,239.74365,247.13545,18.72,10.945499,10.7455,10.945499
1160,2025-12-09 08:00:00+00:00,11.2455,91.0,9.829796,9.98793,13.0,0.0,0.0,0.0,0.0,0.0,3.0,1014.6,1009.98096,100.0,62.0,93.0,100.0,7300.0,8.404285,18.391737,24.985659,33.89549,226.73567,229.76372,233.79045,239.34941,20.880001,10.7455,10.5455,10.945499
1161,2025-12-09 09:00:00+00:00,11.4955,92.0,10.240587,10.464876,13.0,0.0,0.0,0.0,0.0,0.0,3.0,1015.0,1010.38336,100.0,58.0,100.0,100.0,6980.0,7.653705,16.363178,23.363974,31.394394,228.81418,230.35587,236.3099,243.43501,17.64,10.945499,10.8455,11.3455
1162,2025-12-09 10:00:00+00:00,11.7955,91.0,10.373683,10.694083,53.0,0.2,0.2,0.0,0.0,0.0,61.0,1014.9,1010.2889,100.0,53.0,94.0,100.0,7500.0,8.404285,16.870138,22.392464,30.77105,226.73567,230.19447,233.49846,241.33614,18.72,11.1455,10.8455,11.2455
1163,2025-12-09 11:00:00+00:00,12.0955,91.0,10.670342,11.229794,80.0,0.4,0.4,0.0,0.0,0.0,61.0,1015.1,1010.49274,100.0,61.0,99.0,100.0,6920.0,7.386582,14.336861,17.57744,23.83624,226.97493,231.1155,235.0079,244.98314,18.359999,11.3455,10.945499,10.8455
1164,2025-12-09 12:00:00+00:00,12.1455,93.0,11.047018,11.24558,90.0,0.1,0.1,0.0,0.0,0.0,61.0,1015.0,1010.3938,100.0,77.0,98.0,100.0,3800.0,8.39657,14.386494,18.043148,20.65848,239.0363,238.29861,241.38963,247.4569,16.56,11.3455,11.0455,10.6455
1165,2025-12-09 13:00:00+00:00,12.3455,92.0,11.0822115,11.712704,83.0,0.0,0.0,0.0,0.0,0.0,61.0,1014.2,1009.60095,100.0,59.0,100.0,100.0,5620.0,6.638072,11.457958,12.984975,14.689588,220.60121,223.72705,226.12321,233.97253,17.64,11.5455,11.0455,10.7455
1166,2025-12-09 14:00:00+00:00,12.2955,92.0,11.032706,11.767559,70.0,0.0,0.0,0.0,0.0,0.0,61.0,1014.4,1009.7991,100.0,55.0,92.0,100.0,5280.0,5.815978,10.948973,13.979872,17.31746,201.80147,207.40749,214.50858,226.68465,18.0,11.5455,11.1455,11.0455
1167,2025-12-09 15:00:00+00:00,11.945499,94.0,11.00978,11.272417,48.0,0.1,0.1,0.0,0.0,0.0,61.0,1014.4,1009.79346,100.0,73.0,93.0,100.0,4220.0,6.763786,13.397612,18.079027,21.650938,205.2011,210.69965,215.2725,222.97864,15.119999,11.3455,11.0455,11.0455
1168,2025-12-09 16:00:00+00:00,11.7455,93.0,10.650453,11.109485,15.0,0.0,0.0,0.0,0.0,0.0,61.0,1014.1,1009.4915,100.0,34.0,88.0,100.0,5200.0,5.771239,12.429127,16.645864,18.971008,176.42374,190.00792,201.57137,213.38853,15.119999,11.2455,11.2455,11.445499
1169,2025-12-09 17:00:00+00:00,11.4955,93.0,10.4025955,10.608801,0.0,0.0,0.0,0.0,0.0,0.0,3.0,1013.8,1009.18884,100.0,20.0,78.0,100.0,5080.0,6.9899354,16.215992,20.240196,21.046917,168.11136,177.45525,185.10208,192.8477,14.759999,11.0455,11.1455,11.2455
1170,2025-12-09 18:00:00+00:00,11.2455,93.0,10.154736,10.303249,8.0,0.0,0.0,0.0,0.0,0.0,3.0,1014.0,1009.3837,100.0,7.0,100.0,100.0,5100.0,6.87779,16.203999,21.542923,24.1388,173.99109,181.273,189.61966,197.35411,16.199999,10.8455,11.1455,11.5455
1171,2025-12-09 19:00:00+00:00,11.195499,91.0,9.780351,10.027284,18.0,0.0,0.0,0.0,0.0,0.0,3.0,1013.4,1008.7859,100.0,2.0,99.0,100.0,7520.0,7.69592,18.391735,24.546085,28.036118,169.21574,176.6336,184.20528,192.6086,16.199999,10.8455,11.445499,11.945499
1172,2025-12-09 20:00:00+00:00,11.2455,90.0,9.664955,10.044881,33.0,0.0,0.0,0.0,0.0,0.0,3.0,1013.6,1008.98553,100.0,33.0,100.0,100.0,9320.0,7.69592,18.089775,25.20257,29.784426,169.21574,174.2895,180.81844,187.64032,17.64,10.8455,11.3455,11.6455
1173,2025-12-09 21:00:00+00:00,11.0455,94.0,10.116363,9.887725,35.0,0.4,0.4,0.0,0.0,0.0,61.0,1013.0,1008.3852,100.0,38.0,90.0,100.0,4140.0,8.28,18.844202,25.862436,30.589407,180.0,186.58185,196.16457,206.56499,17.28,10.5455,10.945499,11.2455
1174,2025-12-09 22:00:00+00:00,11.1455,93.0,10.0555935,10.174779,8.0,0.0,0.0,0.0,0.0,0.0,3.0,1013.4,1008.7849,100.0,29.0,99.0,20.0,5240.0,6.87779,15.281989,21.900904,26.282465,186.00891,195.01842,205.30135,216.08516,18.359999,10.6455,10.945499,11.1455
1175,2025-12-09 23:00:00+00:00,11.1455,92.0,9.894028,10.068701,5.0,0.0,0.0,0.0,0.0,0.0,3.0,1013.2,1008.5858,98.0,0.0,98.0,22.0,6460.0,7.289444,15.617529,22.065973,27.026386,200.22495,205.97433,213.6901,221.76021,15.119999,10.6455,10.7455,10.945499
1176,2025-12-10 00:00:00+00:00,10.8455,92.0,9.596972,9.451572,8.0,0.0,0.0,0.0,0.0,0.0,3.0,1013.1,1008.48157,90.0,0.0,87.0,24.0,6660.0,8.891344,18.514643,26.064596,31.667723,201.37068,206.56499,212.59258,220.38927,18.0,10.2455,10.3455,10.6455
1177,2025-12-10 01:00:00+00:00,10.7455,90.0,9.171146,9.278712,3.0,0.0,0.0,0.0,0.0,0.0,3.0,1012.8,1008.1813,95.0,3.0,92.0,31.0,9180.0,8.587338,17.786331,26.009844,33.1552,213.02386,215.9422,221.63345,228.52155,19.44,10.2455,10.1455,10.5455
1178,2025-12-10 02:00:00+00:00,10.5955,88.0,8.690115,9.086473,0.0,0.0,0.0,0.0,0.0,0.0,3.0,1012.9,1008.2784,87.0,0.0,81.0,39.0,12780.0,7.9932966,17.072504,23.708124,32.151043,215.83774,222.43619,228.07755,235.95401,18.359999,10.1455,9.945499,10.7455
1179,2025-12-10 03:00:00+00:00,10.2955,91.0,8.890326,8.869602,0.0,0.0,0.0,0.0,0.0,0.0,3.0,1012.6,1007.97504,100.0,11.0,91.0,100.0,9040.0,7.7879906,16.870138,24.195107,32.058197,213.6901,219.80553,226.80872,235.06062,18.0,9.8455,9.7455,10.5455
1180,2025-12-10 04:00:00+00:00,10.1455,89.0,8.413526,8.504092,3.0,0.0,0.0,0.0,0.0,0.0,2.0,1013.2,1008.5698,75.0,0.0,75.0,0.0,12700.0,8.404285,19.174856,27.459293,36.386723,226.73567,230.3322,235.68486,242.928,17.64,9.8455,9.945499,10.8455
1181,2025-12-10 05:00:00+00:00,10.0955,88.0,8.197592,8.342298,0.0,0.0,0.0,0.0,0.0,0.0,2.0,1013.6,1008.967,52.0,0.0,28.0,28.0,14800.0,8.78872,20.68356,29.142216,38.976547,235.0079,238.52321,242.80196,248.88643,18.72,9.8455,9.7455,10.6455
1182,2025-12-10 06:00:00+00:00,10.2955,88.0,8.394604,8.505773,5.0,0.0,0.0,0.0,0.0,0.0,3.0,1014.3,1009.66724,100.0,82.0,100.0,0.0,15100.0,9.387651,20.94507,29.827904,38.8283,237.52882,241.23244,246.52899,252.74095,19.08,9.945499,10.0455,10.7455
1183,2025-12-10 07:00:00+00:00,10.695499,85.0,8.276149,8.974375,10.0,0.0,0.0,0.0,0.0,0.0,3.0,1014.5,1009.8726,98.0,85.0,90.0,1.0,19220.0,8.707237,18.532133,22.884789,33.39473,240.2552,245.9245,250.70985,258.81125,20.16,10.2455,9.945499,10.3455
1184,2025-12-10 08:00:00+00:00,10.945499,85.0,8.521402,9.216251,5.0,0.0,0.0,0.0,0.0,0.0,3.0,1015.5,1010.87225,100.0,100.0,89.0,0.0,19760.0,9.19939,18.837322,24.735432,33.353954,239.42085,243.9247,248.66307,256.2637,19.8,10.445499,10.1455,10.445499
1185,2025-12-10 09:00:00+00:00,11.0955,86.0,8.841662,9.668812,0.0,0.0,0.0,0.0,0.0,0.0,3.0,1016.0,1011.3725,87.0,71.0,51.0,0.0,16620.0,7.7043357,15.876775,22.73707,29.775719,232.59457,237.0306,246.68227,255.29166,17.64,10.445499,10.3455,10.5455
1186,2025-12-10 10:00:00+00:00,11.6455,85.0,9.208087,10.055017,0.0,0.0,0.0,0.0,0.0,0.0,3.0,1016.6,1011.9786,99.0,34.0,97.0,0.0,16740.0,9.504272,17.974781,21.611996,31.559086,232.69597,237.26477,240.01845,249.29088,21.599998,10.8455,10.445499,10.445499
1187,2025-12-10 11:00:00+00:00,12.0955,84.0,9.473224,10.667155,13.0,0.0,0.0,0.0,0.0,0.0,3.0,1016.6,1011.9859,100.0,16.0,100.0,0.0,19840.0,8.891344,17.418196,20.966715,26.552288,248.6293,251.93944,254.05453,257.4712,20.16,11.3455,10.945499,10.445499
1188,2025-12-10 12:00:00+00:00,12.3955,85.0,9.943779,10.939936,8.0,0.0,0.0,0.0,0.0,0.0,3.0,1016.5,1011.8911,92.0,52.0,79.0,0.0,17220.0,9.983106,18.204042,20.326454,22.461807,244.35904,245.46228,247.06787,248.36905,23.759998,11.5455,11.0455,10.5455
1189,2025-12-10 13:00:00+00:00,12.5455,84.0,9.914013,11.033043,0.0,0.0,0.0,0.0,0.0,0.0,3.0,1016.9,1012.2918,98.0,63.0,92.0,0.0,18480.0,10.315115,19.319628,22.077717,25.20257,240.75127,243.43501,245.94266,248.19853,23.759998,11.7455,11.2455,10.7455
1190,2025-12-10 14:00:00+00:00,12.5455,84.0,9.914013,11.182465,15.0,0.0,0.0,0.0,0.0,0.0,3.0,1017.4,1012.78955,98.0,51.0,95.0,0.0,19140.0,9.290511,17.477621,20.316889,23.18579,234.46223,237.61934,240.25522,244.23071,21.599998,11.8455,11.445499,10.945499
1191,2025-12-10 15:00:00+00:00,12.0455,89.0,10.287523,10.808184,30.0,0.0,0.0,0.0,0.0,0.0,3.0,1018.0,1013.37866,98.0,79.0,91.0,0.0,9900.0,9.1641035,17.84816,20.746122,26.064596,224.9999,228.27058,231.34018,237.40742,21.24,11.3455,10.945499,10.5455
1192,2025-12-10 16:00:00+00:00,11.5955,90.0,10.010615,10.053972,68.0,0.0,0.0,0.0,0.0,0.0,3.0,1018.3,1013.6699,98.0,59.0,94.0,0.0,8020.0,10.703569,20.364674,23.441502,29.882166,222.27362,224.9999,227.4896,233.82028,22.68,10.945499,10.5455,10.0455
1193,2025-12-10 17:00:00+00:00,11.2955,91.0,9.879241,9.785215,48.0,0.0,0.0,0.0,0.0,0.0,3.0,1018.5,1013.8642,100.0,44.0,100.0,100.0,7620.0,10.233123,19.734436,22.89611,31.749468,230.71062,231.66663,233.31018,240.81929,23.039999,10.6455,10.2455,10.1455
1194,2025-12-10 18:00:00+00:00,11.3455,91.0,9.928685,9.741404,38.0,0.0,0.0,0.0,0.0,0.0,61.0,1018.8,1014.1638,100.0,33.0,100.0,100.0,8260.0,10.97262,21.533897,25.77962,34.776817,228.99101,231.78893,234.09018,242.90453,23.4,10.7455,10.3455,10.945499
1195,2025-12-10 19:00:00+00:00,11.2455,91.0,9.829796,9.721225,30.0,0.1,0.1,0.0,0.0,0.0,61.0,1019.1,1014.4605,100.0,55.0,100.0,100.0,7460.0,10.233123,20.304129,24.363249,33.971867,230.71062,232.92683,235.84026,242.89195,23.039999,10.6455,10.2455,10.445499
1196,2025-12-10 20:00:00+00:00,11.2455,90.0,9.664955,9.644703,20.0,0.5,0.5,0.0,0.0,0.0,61.0,1019.8,1015.15735,100.0,79.0,100.0,67.0,8400.0,10.44,20.696087,24.627789,34.82895,226.39711,229.93927,232.12495,240.2552,23.039999,10.6455,10.2455,10.1455
1197,2025-12-10 21:00:00+00:00,11.0955,91.0,9.681461,9.536904,13.0,0.6,0.6,0.0,0.0,0.0,61.0,1020.2,1015.55334,100.0,81.0,100.0,0.0,7760.0,10.182337,20.65848,25.076267,34.882866,224.9999,228.5324,230.82635,238.9349,24.119999,10.445499,10.1455,9.945499
1198,2025-12-10 22:00:00+00:00,11.195499,90.0,9.615575,9.454874,18.0,0.0,0.0,0.0,0.0,0.0,61.0,1020.3,1015.6544,100.0,77.0,98.0,100.0,9920.0,11.304229,22.473343,26.865265,32.06426,232.76509,234.78232,237.5877,241.13293,24.48,10.6455,10.2455,9.8455
1199,2025-12-10 23:00:00+00:00,11.2955,87.0,9.209744,9.443825,23.0,0.0,0.0,0.0,0.0,0.0,61.0,1020.2,1015.5565,100.0,72.0,100.0,64.0,15200.0,11.298495,22.862123,27.56058,32.35997,239.34941,243.8385,246.1135,249.14546,25.199999,10.7455,10.445499,10.0455
1200,2025-12-11 00:00:00+00:00,11.195499,86.0,8.939897,9.287727,8.0,0.0,0.0,0.0,0.0,0.0,3.0,1020.2,1015.55493,100.0,52.0,100.0,89.0,17100.0,11.183201,22.728518,27.047956,33.626774,236.82147,240.5929,243.09398,248.65414,25.56,10.6455,10.3455,9.945499
1201,2025-12-11 01:00:00+00:00,10.695499,89.0,8.9560175,8.732312,0.0,0.0,0.0,0.0,0.0,0.0,3.0,1020.6,1015.94476,100.0,51.0,100.0,100.0,11360.0,11.592894,23.166218,27.729347,34.838253,233.84172,237.05078,240.43974,246.87912,24.48,10.1455,9.8455,9.5455
1202,2025-12-11 02:00:00+00:00,10.4955,88.0,8.591612,8.5295,0.0,0.0,0.0,0.0,0.0,0.0,3.0,1020.7,1016.0412,100.0,23.0,100.0,100.0,12580.0,10.948973,22.406927,26.882141,36.23861,242.5925,246.3179,249.62347,256.79205,25.199999,9.945499,9.6455,9.445499
1203,2025-12-11 03:00:00+00:00,10.4955,86.0,8.252247,8.343327,0.0,0.0,0.0,0.0,0.0,0.0,2.0,1021.0,1016.3398,61.0,61.0,0.0,0.0,18500.0,11.620809,23.510508,28.054604,34.292713,253.81071,258.51804,261.14212,265.7859,26.64,10.0455,9.6455,9.3455
1204,2025-12-11 04:00:00+00:00,9.9955,87.0,7.9309254,7.660371,0.0,0.0,0.0,0.0,0.0,0.0,2.0,1021.4,1016.7297,68.0,68.0,0.0,0.0,15600.0,12.313893,25.068514,30.302078,38.65602,254.74483,257.56046,260.42584,265.19214,26.28,9.445499,9.1455,8.8455
1205,2025-12-11 05:00:00+00:00,9.695499,86.0,7.466318,7.4893208,0.0,0.0,0.0,0.0,0.0,0.0,2.0,1021.5,1016.8245,59.0,59.0,0.0,0.0,16520.0,10.636766,21.746502,26.654589,35.870163,246.0375,250.6651,253.52304,259.59235,26.64,9.2455,8.945499,8.7455
1206,2025-12-11 06:00:00+00:00,9.945499,85.0,7.540363,7.5698833,0.0,0.0,0.0,0.0,0.0,0.0,1.0,1021.1,1016.4304,17.0,17.0,0.0,0.0,19900.0,11.923557,23.18579,26.099379,35.52162,241.11351,244.23071,245.55606,252.29948,23.4,9.445499,8.945499,8.6455
1207,2025-12-11 07:00:00+00:00,9.5455,83.0,6.8004756,6.710641,0.0,0.0,0.0,0.0,0.0,0.0,2.0,1021.1,1016.42377,80.0,80.0,0.0,0.0,22800.0,13.849477,27.231804,32.489872,37.56786,242.10283,245.8068,248.5522,251.56496,28.8,8.945499,8.6455,8.2455
1208,2025-12-11 08:00:00+00:00,9.2955,83.0,6.5558777,6.410919,0.0,0.0,0.0,0.0,0.0,0.0,2.0,1021.8,1017.11633,54.0,54.0,0.0,0.0,22860.0,13.797913,26.282465,30.926489,37.226505,254.87593,256.5348,257.90524,260.53775,30.960001,8.6455,8.3455,7.9455
1209,2025-12-11 09:00:00+00:00,9.945499,78.0,6.286884,7.3676643,0.0,0.0,0.0,0.0,0.0,0.0,3.0,1022.1,1017.42584,65.0,65.0,0.0,0.0,31420.0,11.269782,21.096123,23.686249,26.807312,243.43501,244.74687,245.77226,247.91277,28.08,9.1455,8.7455,8.2455
1210,2025-12-11 10:00:00+00:00,10.195499,75.0,5.960717,7.160866,0.0,0.0,0.0,0.0,0.0,0.0,3.0,1022.5,1017.8281,100.0,89.0,86.0,100.0,36440.0,13.896187,25.417631,28.291512,30.735231,253.44284,254.38895,255.2564,256.45206,29.16,9.2455,8.7455,8.2455
1211,2025-12-11 11:00:00+00:00,10.1455,74.0,5.7183156,7.0245905,0.0,0.0,0.0,0.0,0.0,0.0,3.0,1022.2,1017.5287,100.0,64.0,99.0,13.0,38260.0,14.118243,25.842384,28.802248,31.205997,250.64091,251.31255,251.79141,253.23737,30.960001,9.2455,8.7455,8.2455
1212,2025-12-11 12:00:00+00:00,10.5455,74.0,6.1044383,7.3659782,0.0,0.0,0.0,0.0,0.0,0.0,3.0,1021.5,1016.8385,100.0,85.0,92.0,100.0,39140.0,15.111424,27.047956,29.478264,31.212229,257.61926,260.03625,261.57312,262.71115,31.319998,9.5455,9.0455,8.445499
1213,2025-12-11 13:00:00+00:00,10.2955,75.0,6.0574007,7.2005997,0.0,0.0,0.0,0.0,0.0,0.0,3.0,1021.3,1016.6353,100.0,62.0,95.0,100.0,36180.0,14.458382,25.729298,27.897097,29.275326,251.11382,252.07199,252.7341,253.57062,32.039997,9.3455,8.8455,8.2455
1214,2025-12-11 14:00:00+00:00,10.2955,75.0,6.0574007,7.5639324,0.0,0.0,0.0,0.0,0.0,0.0,3.0,1021.6,1016.9339,100.0,49.0,94.0,84.0,36920.0,11.966953,22.206486,24.703976,27.210379,248.83867,250.09616,251.30092,252.28412,30.960001,9.445499,8.945499,8.445499
1215,2025-12-11 15:00:00+00:00,10.4955,72.0,5.6599236,7.5511675,0.0,0.0,0.0,0.0,0.0,0.0,3.0,1020.1,1015.4439,89.0,0.0,89.0,0.0,44400.0,12.819235,24.344624,28.227304,31.682043,231.84273,231.6048,232.25313,233.78107,26.64,9.8455,9.3455,8.8455
1216,2025-12-11 16:00:00+00:00,10.0955,74.0,5.6700478,7.6014795,0.0,0.0,0.0,0.0,0.0,0.0,2.0,1021.2,1016.5323,79.0,0.0,79.0,1.0,42520.0,9.746631,19.44,22.7057,26.368616,274.23633,270.0,267.27374,265.3014,28.44,9.5455,9.0455,8.6455
1217,2025-12-11 17:00:00+00:00,9.5455,76.0,5.523142,6.636471,0.0,0.0,0.0,0.0,0.0,0.0,2.0,1021.2,1016.5234,63.0,0.0,63.0,0.0,36880.0,12.371645,24.216522,28.880886,34.966362,261.6342,264.88278,265.71094,267.0493,26.28,8.945499,8.6455,8.2455
1218,2025-12-11 18:00:00+00:00,8.7955,77.0,4.9843903,5.946727,0.0,0.0,0.0,0.0,0.0,0.0,3.0,1021.1,1016.4114,35.0,0.0,36.0,7.0,36640.0,11.165805,22.768398,28.038431,38.351406,249.22766,251.56496,254.3577,260.2725,25.199999,8.3455,8.0455,8.0455
1219,2025-12-11 19:00:00+00:00,8.195499,79.0,4.7694583,5.3016415,0.0,0.0,0.0,0.0,0.0,0.0,3.0,1021.0,1016.30194,89.0,0.0,68.0,70.0,32140.0,11.165805,22.314194,27.852928,37.114933,249.22766,252.1496,255.78412,261.6342,23.759998,7.7454996,7.4455,7.5455
1220,2025-12-11 20:00:00+00:00,7.5955,82.0,4.7186465,4.7226458,0.0,0.0,0.0,0.0,0.0,0.0,2.0,1022.0,1017.2871,90.0,0.0,87.0,22.0,26060.0,10.948973,22.461807,29.598919,38.881668,260.53775,263.5585,265.81516,270.5305,24.48,7.0455,6.8455,7.1454997
1221,2025-12-11 21:00:00+00:00,7.1454997,84.0,4.6234846,4.3563766,0.0,0.0,0.0,0.0,0.0,0.0,3.0,1021.7,1016.98114,92.0,0.0,92.0,6.0,20620.0,10.239453,20.275383,28.820242,37.483242,259.8754,263.88458,267.85245,272.75244,23.759998,6.6454997,6.5455,6.9455
1222,2025-12-11 22:00:00+00:00,6.8954997,85.0,4.547737,4.424246,0.0,0.0,0.0,0.0,0.0,0.0,3.0,1021.8,1017.07654,100.0,0.0,100.0,99.0,18560.0,7.9526596,17.015474,21.38897,31.1374,275.19434,276.07236,276.76608,280.6603,21.96,6.3455,5.9455,6.1454997
1223,2025-12-11 23:00:00+00:00,6.3455,87.0,4.3398213,3.9402037,0.0,0.0,0.0,0.0,0.0,0.0,2.0,1022.5,1017.76373,65.0,0.0,62.0,50.0,13880.0,7.208994,15.226764,20.833395,28.385262,272.86234,276.78888,279.95056,285.44638,19.08,5.8455,5.5455,5.8455
1224,2025-12-12 00:00:00+00:00,6.0455,90.0,4.528745,3.5122623,0.0,0.0,0.0,0.0,0.0,0.0,3.0,1022.9,1018.1571,100.0,2.0,0.0,100.0,9600.0,8.350138,16.923828,22.725668,30.222849,262.5687,268.78116,273.63287,282.38074,17.64,5.5455,5.3455,5.6454997
1225,2025-12-12 01:00:00+00:00,5.4455,91.0,4.0934696,2.995758,0.0,0.0,0.0,0.0,0.0,0.0,1.0,1022.6,1017.8482,0.0,0.0,0.0,0.0,7520.0,7.172949,15.463244,22.007162,28.162956,252.47433,257.90524,266.24835,274.39862,18.0,4.9455,5.0455,5.5455
1226,2025-12-12 02:00:00+00:00,5.1454997,91.0,3.796723,2.7366056,0.0,0.0,0.0,0.0,0.0,0.0,3.0,1022.7,1017.9427,100.0,0.0,8.0,100.0,7460.0,6.489992,15.463244,21.288757,26.437336,250.55988,257.90524,266.12155,276.25394,16.199999,4.7454996,5.1454997,5.8455
1227,2025-12-12 03:00:00+00:00,5.0955,89.0,3.4317002,2.5429583,0.0,0.0,0.0,0.0,0.0,0.0,3.0,1022.9,1018.1408,100.0,0.0,62.0,100.0,9880.0,6.9899354,14.685176,21.791153,28.08,258.11136,258.6901,262.40546,270.0,16.56,4.5455,4.8455,5.4455
1228,2025-12-12 04:00:00+00:00,4.8455,89.0,3.1850402,2.335085,0.0,0.0,0.0,0.0,0.0,0.0,3.0,1022.8,1018.0371,100.0,0.0,6.0,100.0,12080.0,6.379216,14.618837,20.570463,26.319422,253.61038,260.07382,265.9859,273.1363,14.04,4.3455,4.5455,5.0455
1229,2025-12-12 05:00:00+00:00,4.5955,88.0,2.7788742,2.2551718,0.0,0.0,0.0,0.0,0.0,0.0,3.0,1023.0,1018.23175,100.0,0.0,0.0,100.0,13420.0,4.6938252,11.525623,16.923828,22.461807,265.60138,268.2101,271.21884,276.4415,13.32,4.1454997,4.2454996,4.6454997
1230,2025-12-12 06:00:00+00:00,3.9955,91.0,2.6591606,1.588284,0.0,0.0,0.0,0.0,0.0,0.0,3.0,1023.3,1018.52,9.0,0.0,8.0,1.0,8520.0,5.00128,12.641076,17.581125,21.24305,239.74365,250.0168,259.3804,270.971,13.679999,3.6455,4.1454997,4.7454996
1231,2025-12-12 07:00:00+00:00,3.7955,90.0,2.3059416,1.4957576,0.0,0.0,0.0,0.0,0.0,0.0,2.0,1023.0,1018.21796,62.0,0.0,62.0,0.0,9380.0,3.8268526,11.435313,16.055353,19.296133,228.81418,241.8215,250.34608,261.41647,12.959999,3.6455,4.1454997,4.6454997
1232,2025-12-12 08:00:00+00:00,3.7455,89.0,2.0996957,1.3264093,0.0,0.0,0.0,0.0,0.0,0.0,1.0,1024.0,1019.21265,40.0,0.0,40.0,0.0,12700.0,4.39436,11.770403,15.725037,19.35314,235.0079,246.57129,254.05453,260.36252,10.08,3.7455,4.2454996,4.6454997
1233,2025-12-12 09:00:00+00:00,4.5955,89.0,2.9383764,2.328323,0.0,0.0,0.0,0.0,0.0,0.0,3.0,1024.4,1019.62524,84.0,0.0,84.0,0.0,9780.0,4.39436,9.511088,12.303366,15.629971,235.0079,240.5242,249.44386,255.32356,10.799999,4.0455,4.1454997,4.4455
1234,2025-12-12 10:00:00+00:00,5.2454996,84.0,2.7614548,3.1867728,0.0,0.0,0.0,0.0,0.0,0.0,0.0,1024.2,1019.4372,0.0,0.0,0.0,0.0,17160.0,2.7416782,3.396233,6.6087217,10.703569,203.19862,212.00534,240.64233,250.34608,10.440001,4.2454996,4.3455,4.8455
1235,2025-12-12 11:00:00+00:00,5.9455,80.0,2.7574232,3.5816073,0.0,0.0,0.0,0.0,0.0,0.0,1.0,1023.9,1019.1505,13.0,0.0,13.0,0.0,25300.0,4.829907,6.297428,6.297428,11.019764,206.56499,210.96368,210.96368,231.63248,11.5199995,4.8455,4.3455,4.7454996
1236,2025-12-12 12:00:00+00:00,6.5455,78.0,2.9838712,4.4554377,0.0,0.0,0.0,0.0,0.0,0.0,2.0,1023.8,1019.0612,0.0,0.0,0.0,0.0,28360.0,3.2399998,3.6179552,3.6179552,5.00128,180.0,185.7105,185.7105,210.25635,11.879999,5.4455,4.9455,4.4455
1237,2025-12-12 13:00:00+00:00,6.8455,76.0,2.9080055,4.5993757,0.0,0.0,0.0,0.0,0.0,0.0,0.0,1023.8,1019.0663,0.0,0.0,0.0,0.0,33640.0,4.2136917,4.896529,5.2416787,5.2416787,160.0168,162.89719,164.05453,164.05453,10.08,5.7454996,5.3455,4.7454996
1238,2025-12-12 14:00:00+00:00,6.5955,80.0,3.3908634,4.279587,0.0,0.0,0.0,0.0,0.0,0.0,0.0,1024.4,1019.6595,0.0,0.0,0.0,0.0,25580.0,5.315336,6.9247384,7.10031,7.10031,151.69934,152.10283,149.53453,149.53453,12.24,5.6454997,5.1454997,4.6454997
1239,2025-12-12 15:00:00+00:00,6.0955,85.0,3.762673,3.6918178,0.0,0.0,0.0,0.0,0.0,0.0,1.0,1024.2,1019.4516,17.0,17.0,0.0,0.0,16860.0,6.4096174,11.090103,11.592894,11.885453,128.15727,125.753975,126.15828,125.13428,12.959999,5.3455,4.8455,4.2454996
1240,2025-12-12 16:00:00+00:00,5.4954996,90.0,3.9854155,3.176279,0.0,0.0,0.0,0.0,0.0,0.0,2.0,1023.8,1019.04333,37.0,37.0,0.0,0.0,8240.0,6.1305785,12.738099,15.273505,16.870138,130.23628,132.70937,135.0001,140.19447,14.04,4.8455,4.5455,4.1454997
1241,2025-12-12 17:00:00+00:00,4.9954996,94.0,4.1100054,2.8378668,0.0,0.0,0.0,0.0,0.0,0.0,2.0,1024.6,1019.83124,76.0,76.0,0.0,21.0,3540.0,5.1919937,10.97262,13.830749,14.986553,123.690094,131.00899,141.34016,155.89777,13.32,4.4455,4.4455,4.3455
1242,2025-12-12 18:00:00+00:00,5.2454996,97.0,4.8079295,3.281289,0.0,0.0,0.0,0.0,0.0,0.0,3.0,1025.2,1020.43256,100.0,100.0,0.0,19.0,640.0,4.8433046,6.989936,10.308831,12.964998,138.01286,145.49142,167.90526,178.40889,12.24,4.4455,4.3455,4.0455
1243,2025-12-12 19:00:00+00:00,5.1454997,95.0,4.4101095,2.7131395,0.0,0.0,0.0,0.0,0.0,0.0,3.0,1025.3,1020.53064,100.0,100.0,0.0,100.0,1540.0,7.491114,11.808878,12.313894,13.324863,144.78232,142.43134,142.12495,141.58191,16.919998,4.2454996,3.9455001,3.5455
1244,2025-12-12 20:00:00+00:00,4.4455,96.0,3.8631766,1.913662,0.0,0.0,0.0,0.0,0.0,0.0,3.0,1026.5,1021.7129,100.0,100.0,64.0,0.0,460.0,7.42159,10.739833,11.090103,14.404499,194.03627,193.57045,193.13403,178.56793,17.28,3.5455,3.2455,3.0455
1245,2025-12-12 21:00:00+00:00,4.8455,96.0,4.2612953,2.6757221,0.0,0.0,0.0,0.0,0.0,0.0,3.0,1025.5,1020.72455,100.0,100.0,87.0,0.0,600.0,5.4833565,8.557102,8.891344,15.273505,156.80138,157.75093,158.62932,171.86998,17.28,3.9455001,3.6455,3.6455
1246,2025-12-12 22:00:00+00:00,5.1454997,95.0,4.4101095,3.1755934,0.0,0.0,0.0,0.0,0.0,0.0,3.0,1025.5,1020.7296,100.0,100.0,0.0,0.0,1660.0,4.32,6.489992,8.64,13.138765,180.0,176.82024,180.0,189.46225,13.679999,4.2454996,3.8455,3.5455
1247,2025-12-12 23:00:00+00:00,4.8954997,95.0,4.161588,2.7178378,0.0,0.0,0.0,0.0,0.0,0.0,45.0,1025.3,1020.5261,99.0,99.0,0.0,0.0,1180.0,5.3999996,8.287822,8.669949,10.308831,180.0,182.4895,184.76355,192.09474,15.4800005,3.9455001,3.6455,3.3455
1248,2025-12-13 00:00:00+00:00,5.0455,93.0,4.0071692,2.6898227,0.0,0.0,0.0,0.0,0.0,0.0,45.0,1025.6,1020.8272,100.0,100.0,0.0,0.0,2380.0,6.4096174,9.726664,10.009036,10.233123,231.84273,231.009,232.3057,230.71062,12.599999,4.0455,3.6455,3.3455
1249,2025-12-13 01:00:00+00:00,4.7955,93.0,3.7592568,2.477499,0.0,0.0,0.0,0.0,0.0,0.0,45.0,1026.2,1021.4203,100.0,100.0,0.0,17.0,2720.0,5.815978,8.557102,8.891344,9.227524,248.19853,247.75093,248.6293,249.44388,16.199999,3.8455,3.4455001,3.0455
1250,2025-12-13 02:00:00+00:00,5.1454997,91.0,3.796723,2.9985466,0.0,0.0,0.0,0.0,0.0,0.0,3.0,1026.4,1021.6255,100.0,100.0,0.0,47.0,5340.0,4.6938252,6.5693827,6.638072,7.289444,184.39862,189.46225,192.5288,200.22495,12.24,4.2454996,3.7455,3.3455
1251,2025-12-13 03:00:00+00:00,5.4954996,92.0,4.2989125,3.1467113,0.0,0.0,0.0,0.0,0.0,0.0,3.0,1025.9,1021.1336,97.0,94.0,0.0,76.0,4680.0,6.763786,10.144082,10.630672,10.805998,205.2011,207.47435,208.30066,209.98155,15.84,4.6454997,4.1454997,3.7455
1252,2025-12-13 04:00:00+00:00,5.3455,93.0,4.3046618,3.0161805,0.0,0.0,0.0,0.0,0.0,0.0,3.0,1025.5,1020.7329,100.0,100.0,0.0,100.0,3520.0,6.638072,10.182337,10.691453,11.212135,220.60121,224.9999,224.9999,227.60262,15.4800005,4.3455,3.9455001,3.6455
1253,2025-12-13 05:00:00+00:00,4.9954996,95.0,4.260997,2.5291147,0.0,0.0,0.0,0.0,0.0,0.0,3.0,1025.1,1020.3289,100.0,100.0,0.0,0.0,800.0,7.5170207,11.841756,12.303366,15.683774,196.69933,199.53674,200.55612,211.86594,17.64,4.1454997,3.8455,3.6455
1254,2025-12-13 06:00:00+00:00,4.9455,97.0,4.508986,2.47433,0.0,0.0,0.0,0.0,0.0,0.0,3.0,1024.8,1020.0294,100.0,100.0,0.0,0.0,460.0,7.8954163,12.72283,13.202726,13.527572,204.22774,205.1148,205.8663,205.2011,18.359999,4.1454997,3.7455,3.4455001
1255,2025-12-13 07:00:00+00:00,4.1454997,100.0,4.1454997,1.7019577,0.0,0.0,0.0,0.0,0.0,0.0,45.0,1025.8,1021.0111,100.0,100.0,0.0,0.0,120.0,7.2,10.799999,11.304229,11.304229,216.86998,216.86998,217.23491,217.23491,17.28,3.4455001,3.1455,2.8455
1256,2025-12-13 08:00:00+00:00,4.2454996,99.0,4.10211,1.7358131,0.0,0.0,0.0,0.0,0.0,0.0,3.0,1026.2,1021.4107,100.0,100.0,0.0,0.0,120.0,7.5942082,11.983188,12.4811535,16.80857,211.42952,212.73521,213.23172,223.26433,17.64,3.5455,3.2455,3.0455
1257,2025-12-13 09:00:00+00:00,4.5955,98.0,4.3066177,2.0546913,0.0,0.0,0.0,0.0,0.0,0.0,3.0,1026.3,1021.5164,100.0,100.0,0.0,0.0,140.0,8.0899935,12.4811535,13.392774,16.800856,212.27562,213.23172,216.25392,224.9999,17.64,3.8455,3.5455,3.1455
1258,2025-12-13 10:00:00+00:00,5.2955,92.0,4.1008334,2.779564,0.0,0.0,0.0,0.0,0.0,0.0,3.0,1026.1,1021.32935,100.0,100.0,18.0,23.0,1760.0,7.6367526,11.966954,13.513193,19.803272,224.9999,226.2188,228.23979,242.96922,18.359999,4.2454996,3.8455,3.7455
1259,2025-12-13 11:00:00+00:00,6.0955,88.0,4.256881,3.4990826,0.0,0.0,0.0,0.0,0.0,0.0,3.0,1026.4,1021.6415,100.0,100.0,43.0,18.0,8700.0,8.404285,14.05845,15.349684,23.540806,226.73567,230.19447,230.7106,246.57129,19.44,5.0455,4.5455,4.5455
1260,2025-12-13 12:00:00+00:00,6.8954997,86.0,4.715225,4.409939,0.0,0.0,0.0,0.0,0.0,0.0,3.0,1025.8,1021.0581,100.0,100.0,44.0,25.0,12020.0,8.287822,14.081477,15.807239,24.248613,235.6196,237.52882,239.9315,251.83395,19.8,5.9455,5.4455,5.2454996
1261,2025-12-13 13:00:00+00:00,7.7454996,84.0,5.211435,5.347596,0.0,0.0,0.0,0.0,0.0,0.0,3.0,1025.4,1020.67395,96.0,75.0,76.0,17.0,16840.0,8.404285,15.03835,17.429354,25.600533,223.26433,227.9109,231.7098,244.15567,21.599998,6.8455,6.4455,6.2454996
1262,2025-12-13 14:00:00+00:00,8.3955,83.0,5.67528,5.9988937,0.0,0.0,0.0,0.0,0.0,0.0,3.0,1025.8,1021.08307,96.0,79.0,64.0,36.0,19700.0,9.085988,17.10284,19.652176,21.734581,236.3099,239.65683,241.55717,243.43501,19.8,7.5455,7.1454997,6.6454997
1263,2025-12-13 15:00:00+00:00,8.8455,83.0,6.115587,6.409713,3.0,0.0,0.0,0.0,0.0,0.0,3.0,1024.9,1020.1948,100.0,100.0,100.0,100.0,20660.0,10.028439,20.150354,23.34455,25.764534,248.96242,251.24126,252.96214,254.60439,22.68,8.1455,7.6454997,7.1454997
1264,2025-12-13 16:00:00+00:00,8.8455,85.0,6.461135,6.384924,0.0,0.0,0.0,0.0,0.0,0.0,3.0,1024.9,1020.1948,100.0,100.0,98.0,100.0,16220.0,10.739833,20.898611,24.442911,28.623962,256.42953,259.07724,260.67648,263.50073,23.759998,8.1455,7.6454997,7.2454996
1265,2025-12-13 17:00:00+00:00,8.8455,86.0,6.6312227,6.4753857,3.0,0.0,0.0,0.0,0.0,0.0,3.0,1025.3,1020.59296,100.0,100.0,89.0,100.0,15240.0,10.390226,19.914217,23.087763,26.932714,255.96373,257.4712,259.21576,261.54504,24.119999,8.1455,7.6454997,7.1454997
1266,2025-12-13 18:00:00+00:00,8.7955,87.0,6.750381,6.300049,5.0,0.0,0.0,0.0,0.0,0.0,3.0,1025.1,1020.393,100.0,100.0,66.0,100.0,14000.0,11.440978,22.314192,25.567604,28.001427,257.27563,259.7779,260.2725,261.87,24.84,8.0455,7.5455,7.0455
1267,2025-12-13 19:00:00+00:00,8.695499,88.0,6.8184495,6.0508003,0.0,0.0,0.0,0.0,0.0,0.0,3.0,1026.0,1021.2872,95.0,95.0,0.0,0.0,12300.0,12.57426,23.83896,26.554728,29.035288,283.24054,284.87573,285.73206,287.31174,29.519999,7.9455,7.4455,6.9455
1268,2025-12-13 20:00:00+00:00,8.2955,84.0,5.750365,5.448554,0.0,0.0,0.0,0.0,0.0,0.0,2.0,1027.1,1022.3754,62.0,62.0,0.0,0.0,20240.0,12.287555,23.773632,26.486313,28.40124,301.8274,302.00534,301.09723,300.46545,27.0,7.5455,7.0455,6.5455
1269,2025-12-13 21:00:00+00:00,7.7454996,83.0,5.0392504,5.0249834,0.0,0.0,0.0,0.0,0.0,0.0,2.0,1027.0,1022.2666,86.0,86.0,0.0,0.0,21600.0,10.365251,20.326454,22.553934,24.795612,290.3232,292.93213,294.51962,295.82092,26.28,6.9455,6.5455,5.9455
1270,2025-12-13 22:00:00+00:00,7.4954996,82.0,4.6209292,4.877226,0.0,0.0,0.0,0.0,0.0,0.0,3.0,1027.0,1022.26245,100.0,100.0,0.0,0.0,23840.0,9.0645685,17.651016,19.9954,22.007162,276.84268,281.76825,283.53586,285.17297,21.24,6.7454996,6.2454996,5.7454996
1271,2025-12-13 23:00:00+00:00,7.1454997,86.0,4.9608803,4.702239,0.0,0.0,0.0,0.0,0.0,0.0,3.0,1027.0,1022.25665,100.0,100.0,0.0,0.0,15520.0,8.350138,15.496736,18.0,25.346148,262.5687,267.33704,270.0,281.46948,21.599998,6.3455,5.9455,5.6454997
1272,2025-12-14 00:00:00+00:00,7.2454996,89.0,5.552841,4.5194693,0.0,0.0,0.0,0.0,0.0,0.0,3.0,1026.9,1022.1588,100.0,100.0,0.0,57.0,8940.0,11.159999,19.813087,21.2522,23.084955,270.0,272.08252,271.94144,273.57626,20.519999,6.3455,5.8455,5.3455
1273,2025-12-14 01:00:00+00:00,6.9455,85.0,4.596803,4.1134806,0.0,0.0,0.0,0.0,0.0,0.0,3.0,1027.1,1022.3526,97.0,92.0,0.0,69.0,15880.0,10.495713,18.391735,19.829433,20.532627,264.09396,266.6336,266.87793,267.99048,23.039999,6.0455,5.5455,5.0455
1274,2025-12-14 02:00:00+00:00,6.7955,87.0,4.7826056,3.977831,0.0,0.0,0.0,0.0,0.0,0.0,3.0,1027.2,1022.4496,100.0,93.0,0.0,100.0,11820.0,10.661107,18.782204,20.265795,21.046917,258.31067,257.82855,257.692,257.15228,23.039999,5.8455,5.3455,4.8455
1275,2025-12-14 03:00:00+00:00,6.4954996,82.0,3.6436996,3.4991388,0.0,0.0,0.0,0.0,0.0,0.0,3.0,1026.1,1021.3496,100.0,98.0,0.0,77.0,20840.0,10.315115,18.043148,19.164717,19.969458,240.75127,241.38963,241.99092,242.04912,25.199999,5.5455,5.0455,4.4455
1276,2025-12-14 04:00:00+00:00,6.0955,87.0,4.0938244,3.1126208,0.0,0.0,0.0,0.0,0.0,0.0,3.0,1026.9,1022.13916,100.0,100.0,0.0,67.0,10340.0,10.829959,19.296133,20.780453,21.829777,254.57777,255.96373,255.96373,256.65128,25.199999,5.1454997,4.6454997,4.0455
1277,2025-12-14 05:00:00+00:00,5.9954996,83.0,3.3266861,2.6822963,0.0,0.0,0.0,0.0,0.0,0.0,3.0,1026.7,1021.9384,98.0,98.0,0.0,35.0,18360.0,12.0694,20.966715,22.450264,23.491207,252.64589,254.05453,254.18074,254.89885,26.64,5.0455,4.5455,4.0455
1278,2025-12-14 06:00:00+00:00,5.5455,85.0,3.2229137,2.2409568,0.0,0.0,0.0,0.0,0.0,0.0,3.0,1026.8,1022.03046,100.0,100.0,0.0,12.0,14920.0,11.874544,20.082708,21.218632,22.450264,255.96373,255.4655,255.2564,254.18074,26.28,4.5455,4.0455,3.5455
1279,2025-12-14 07:00:00+00:00,5.4954996,85.0,3.173843,2.6512027,0.0,0.0,0.0,0.0,0.0,0.0,2.0,1026.0,1021.23315,79.0,79.0,0.0,0.0,15080.0,8.654987,15.30741,17.377226,19.878391,224.9999,228.81418,230.04251,234.58286,25.56,4.6454997,4.2454996,3.7455
1280,2025-12-14 08:00:00+00:00,5.3455,90.0,3.8372324,2.3151727,0.0,0.0,0.0,0.0,0.0,0.0,3.0,1026.1,1021.3301,91.0,83.0,16.0,3.0,7280.0,10.805998,18.39878,19.694992,19.881649,209.98155,210.57915,210.78407,211.67543,22.68,4.4455,3.9455001,3.4455001
1281,2025-12-14 09:00:00+00:00,4.9455,88.0,3.123754,1.9257121,0.0,0.0,0.0,0.0,0.0,0.0,3.0,1026.1,1021.3233,93.0,92.0,0.0,45.0,8080.0,9.793059,15.192682,16.418526,17.429354,216.02747,216.32692,217.87505,218.2902,26.64,3.8455,3.3455,2.8455
1282,2025-12-14 10:00:00+00:00,5.0455,85.0,2.732204,1.7069507,0.0,0.0,0.0,0.0,0.0,0.0,3.0,1026.4,1021.62354,97.0,84.0,0.0,80.0,13200.0,11.480557,19.107151,20.371038,21.129883,221.18582,222.70937,223.56796,224.3098,25.199999,3.8455,3.3455,2.7455
1283,2025-12-14 11:00:00+00:00,5.4455,84.0,2.9574723,2.2055588,0.0,0.0,0.0,0.0,0.0,0.0,2.0,1025.8,1021.0334,65.0,60.0,5.0,5.0,13820.0,11.090103,18.0,19.008545,20.523157,215.75398,216.86998,217.30403,217.87505,26.28,4.2454996,3.7455,3.1455
1284,2025-12-14 12:00:00+00:00,6.0455,82.0,3.2039175,3.055542,0.0,0.0,0.0,0.0,0.0,0.0,2.0,1025.4,1020.6455,60.0,50.0,0.0,28.0,18400.0,9.693296,15.077082,15.876775,16.87398,211.32863,213.31064,212.9694,213.6901,24.84,4.8455,4.3455,3.8455
1285,2025-12-14 13:00:00+00:00,6.6454997,80.0,3.4395874,3.5557847,0.0,0.0,0.0,0.0,0.0,0.0,2.0,1024.7,1019.9586,78.0,73.0,0.0,19.0,23860.0,10.685391,17.974781,18.971008,19.969458,212.61923,212.73521,213.38853,213.9766,23.4,5.5455,5.0455,4.4455
1286,2025-12-14 14:00:00+00:00,6.5955,80.0,3.3908634,3.278253,0.0,0.0,0.0,0.0,0.0,0.0,3.0,1024.5,1019.759,93.0,85.0,0.0,52.0,25360.0,12.181624,20.969807,22.473343,22.97522,214.15974,214.50858,215.21768,215.4334,26.64,5.5455,5.0455,4.4455
1287,2025-12-14 15:00:00+00:00,5.8954997,80.0,2.708695,2.318161,0.0,0.0,0.0,0.0,0.0,0.0,3.0,1024.0,1019.24945,100.0,84.0,0.0,100.0,25240.0,13.089354,22.66857,24.464113,25.1614,211.50421,212.68054,212.98853,213.91747,27.72,4.9455,4.4455,3.8455
1288,2025-12-14 16:00:00+00:00,5.7955,79.0,2.4341643,2.3841,0.0,0.0,0.0,0.0,0.0,0.0,3.0,1024.2,1019.44653,100.0,72.0,0.0,100.0,28900.0,11.609651,20.68356,22.17144,23.664352,209.7448,211.47679,212.39983,213.20659,26.64,4.9455,4.4455,3.9455001
1289,2025-12-14 17:00:00+00:00,5.3455,81.0,2.3471723,2.0121808,0.0,0.0,0.0,0.0,0.0,0.0,3.0,1023.9,1019.1404,100.0,65.0,0.0,100.0,25340.0,10.966713,20.291357,23.023117,27.41678,203.19862,205.2011,206.96564,209.93143,25.919998,4.6454997,4.1454997,3.6455
1290,2025-12-14 18:00:00+00:00,5.3455,83.0,2.6905258,1.9284358,0.0,0.0,0.0,0.0,0.0,0.0,2.0,1022.6,1017.8464,92.0,82.0,0.0,56.0,19680.0,11.966953,21.794127,24.490585,28.01531,201.16133,202.3287,204.30453,205.90645,24.84,4.5455,4.1454997,3.6455
1291,2025-12-14 19:00:00+00:00,5.3954997,85.0,3.0757027,2.4168649,0.0,0.0,0.0,0.0,0.0,0.0,3.0,1022.4,1017.6483,100.0,83.0,0.0,100.0,15740.0,9.449572,18.25026,21.749481,30.070238,197.74477,202.01134,204.44394,211.78722,24.84,4.6454997,4.2454996,3.9455001
1292,2025-12-14 20:00:00+00:00,5.7955,86.0,3.634292,2.9364996,0.0,0.0,0.0,0.0,0.0,0.0,3.0,1022.7,1017.95355,100.0,86.0,0.0,100.0,14760.0,9.360001,17.87718,21.578989,28.056913,202.6199,205.01686,207.84749,213.48619,19.8,5.0455,4.6454997,4.3455
1293,2025-12-14 21:00:00+00:00,6.0455,84.0,3.5455022,2.7462726,0.0,0.0,0.0,0.0,0.0,0.0,3.0,1022.7,1017.958,100.0,100.0,0.0,100.0,18400.0,12.261157,22.66857,25.455843,27.238943,220.23628,223.06943,224.9999,225.53539,20.880001,5.1454997,4.7454996,4.1454997
1294,2025-12-14 22:00:00+00:00,6.1454997,82.0,3.3016484,2.980628,0.0,0.0,0.0,0.0,0.0,0.0,3.0,1022.8,1018.0591,100.0,100.0,0.0,0.0,21240.0,11.019764,19.734436,22.104116,24.408424,231.63248,231.66663,232.94339,232.79199,26.28,5.3455,4.8455,4.2454996
1295,2025-12-14 23:00:00+00:00,6.0955,85.0,3.762673,3.1040535,0.0,0.0,0.0,0.0,0.0,0.0,3.0,1022.3,1017.5604,96.0,96.0,0.0,6.0,16140.0,10.44,18.837324,21.129883,23.419376,223.60289,224.9999,224.3098,224.9999,23.759998,5.2454996,4.7454996,4.2454996
1296,2025-12-15 00:00:00+00:00,6.3455,86.0,4.174769,3.1005874,0.0,0.0,0.0,0.0,0.0,0.0,3.0,1021.8,1017.067,100.0,100.0,0.0,25.0,15000.0,12.738099,23.441502,26.230639,27.757376,222.70937,222.5104,223.3317,223.4235,27.0,5.5455,5.0455,4.4455
1297,2025-12-15 01:00:00+00:00,6.4954996,85.0,4.155211,3.3402948,0.0,0.0,0.0,0.0,0.0,0.0,3.0,1021.0,1016.27325,100.0,100.0,0.0,23.0,15560.0,12.096214,22.039528,24.798225,27.534704,216.52895,218.36752,219.69904,221.82008,27.359999,5.6454997,5.2454996,4.6454997
1298,2025-12-15 02:00:00+00:00,6.4954996,85.0,4.155211,3.2758484,0.0,0.0,0.0,0.0,0.0,0.0,3.0,1021.2,1016.47235,100.0,100.0,0.0,13.0,15000.0,12.538134,22.828087,25.133053,26.932714,230.82635,232.04572,231.981,232.05779,26.64,5.6454997,5.1454997,4.5455
1299,2025-12-15 03:00:00+00:00,6.1955,86.0,4.027368,2.9906793,0.0,0.0,0.0,0.0,0.0,0.0,3.0,1021.0,1016.26843,100.0,100.0,0.0,15.0,13120.0,12.261157,21.94524,23.199759,23.950148,229.76372,228.99101,228.14505,227.43669,25.919998,5.2454996,4.7454996,4.1454997
1300,2025-12-15 04:00:00+00:00,6.1454997,86.0,3.9782338,3.0906563,0.0,0.0,0.0,0.0,0.0,0.0,3.0,1020.6,1015.86926,94.0,85.0,0.0,59.0,14260.0,11.165805,19.33639,21.096123,23.188583,200.77234,204.17911,205.25313,207.75845,26.64,5.2454996,4.7454996,4.2454996
1301,2025-12-15 05:00:00+00:00,6.0955,86.0,3.9291003,3.024168,0.0,0.0,0.0,0.0,0.0,0.0,3.0,1020.2,1015.4702,86.0,79.0,0.0,42.0,14780.0,11.212135,20.008356,22.314192,26.459389,185.52745,188.2758,190.2221,194.98167,23.039999,5.2454996,4.8455,4.3455
1302,2025-12-15 06:00:00+00:00,5.9954996,85.0,3.6645362,2.430499,0.0,0.0,0.0,0.0,0.0,0.0,2.0,1019.2,1014.47327,100.0,100.0,0.0,5.0,15420.0,14.241629,26.758923,29.620802,31.018547,196.14441,199.65392,200.63763,201.80147,27.359999,4.9455,4.4455,3.7455
1303,2025-12-15 07:00:00+00:00,5.7955,85.0,3.468262,2.3333488,0.0,0.0,0.0,0.0,0.0,0.0,3.0,1019.0,1014.2707,87.0,88.0,0.0,5.0,16200.0,13.276144,24.18707,26.554728,28.483257,192.5288,194.6568,195.73207,196.14441,32.399998,4.9455,4.4455,3.8455
1304,2025-12-15 08:00:00+00:00,5.2454996,87.0,3.2574046,1.6669445,0.0,0.0,0.0,0.0,0.0,0.0,3.0,1018.6,1013.8633,94.0,94.0,0.0,3.0,12120.0,13.797912,24.798225,27.047956,28.594517,187.49576,189.18877,189.96375,190.88548,29.519999,4.3455,3.8455,3.2455
1305,2025-12-15 09:00:00+00:00,5.1955,88.0,3.3700926,1.9148827,0.0,0.0,0.0,0.0,0.0,0.0,3.0,1018.8,1014.0614,93.0,93.0,0.0,0.0,8500.0,11.901798,19.493261,20.240196,21.316135,183.46815,184.23631,185.10208,184.84392,28.8,4.1454997,3.6455,3.0455
1306,2025-12-15 10:00:00+00:00,4.9455,87.0,2.9621875,1.4854083,0.0,0.0,0.0,0.0,0.0,0.0,3.0,1019.6,1014.8536,92.0,92.0,0.0,3.0,9000.0,12.605142,20.523155,21.602999,21.96,178.36346,178.99493,179.04518,180.0,27.359999,3.7455,3.2455,2.6455
1307,2025-12-15 11:00:00+00:00,5.4954996,80.0,2.3188624,2.1391468,0.0,0.0,0.0,0.0,0.0,0.0,2.0,1018.9,1014.16614,66.0,58.0,0.0,18.0,23180.0,11.090103,17.581125,18.64369,20.008356,166.86597,169.3804,169.99208,171.7242,27.72,4.3455,3.8455,3.2455
1308,2025-12-15 12:00:00+00:00,7.1955,70.0,2.0880094,3.8494911,0.0,0.0,0.0,0.0,0.0,0.0,1.0,1018.1,1013.39844,0.0,0.0,0.0,0.0,43960.0,10.739833,16.87398,17.581125,18.584509,166.42955,168.92984,169.3804,171.08516,24.48,6.0455,5.5455,4.9455
1309,2025-12-15 13:00:00+00:00,7.7955,68.0,2.2558835,4.305846,0.0,0.0,0.0,0.0,0.0,0.0,1.0,1017.5,1012.81134,14.0,0.0,0.0,14.0,49220.0,11.928989,19.829433,20.907913,21.986542,174.80566,176.87793,177.03912,177.18451,25.56,6.6454997,6.1454997,5.6454997
1310,2025-12-15 14:00:00+00:00,7.7955,67.0,2.0479572,4.325448,0.0,0.0,0.0,0.0,0.0,0.0,0.0,1017.3,1012.61224,0.0,0.0,0.0,0.0,51360.0,11.542478,20.163212,22.319998,23.762726,176.42374,178.97699,180.0,180.86803,25.56,6.9455,6.4455,5.8455
1311,2025-12-15 15:00:00+00:00,7.3954997,70.0,2.279925,4.021391,0.0,0.0,0.0,0.0,0.0,0.0,0.0,1017.4,1012.7052,0.0,0.0,0.0,0.0,48880.0,11.165805,21.626984,24.905132,30.096085,181.84756,182.86235,184.14455,186.8699,24.84,6.7454996,6.3455,5.8455
1312,2025-12-15 16:00:00+00:00,6.7955,72.0,2.0987234,3.596179,0.0,0.0,0.0,0.0,0.0,0.0,0.0,1017.5,1012.7945,0.0,0.0,0.0,0.0,44580.0,9.746631,19.803272,26.042212,33.11413,175.76369,181.04161,185.55287,191.92072,23.4,6.2454996,5.9455,5.9455
1313,2025-12-15 17:00:00+00:00,6.0955,77.0,2.3650665,3.103714,0.0,0.0,0.0,0.0,0.0,0.0,0.0,1017.4,1012.6832,0.0,0.0,0.0,0.0,35360.0,8.647496,18.03237,25.630886,32.110706,177.6141,183.43356,190.52074,199.65392,20.519999,5.6454997,5.7454996,6.1454997
1314,2025-12-15 18:00:00+00:00,4.9954996,82.0,2.1776881,2.0056381,0.0,0.0,0.0,0.0,0.0,0.0,0.0,1017.3,1012.56525,0.0,0.0,0.0,0.0,23380.0,8.4042845,17.643673,25.153671,32.33193,170.13426,178.83089,189.05782,198.83853,18.0,4.4455,4.7454996,5.4455
1315,2025-12-15 19:00:00+00:00,4.5455,85.0,2.2414763,1.4633083,0.0,0.0,0.0,0.0,0.0,0.0,0.0,1017.2,1012.4582,0.0,0.0,0.0,0.0,18300.0,9.114471,19.08,27.402597,35.632725,170.9098,180.0,189.8335,198.25198,19.08,4.0455,4.3455,5.0455
1316,2025-12-15 20:00:00+00:00,4.3455,85.0,2.0451796,1.1837258,0.0,0.0,0.0,0.0,0.0,0.0,0.0,1017.7,1012.95233,0.0,0.0,0.0,0.0,17900.0,9.422101,19.803272,28.174456,36.324337,173.41815,181.04161,190.3048,199.69211,20.16,3.8455,3.9455001,4.7454996
1317,2025-12-15 21:00:00+00:00,3.6955001,86.0,1.5704602,0.5130396,0.0,0.0,0.0,0.0,0.0,0.0,0.0,1018.3,1013.5383,0.0,0.0,0.0,0.0,15900.0,9.0,18.888851,25.417631,34.776817,180.0,187.66672,195.61105,207.09547,20.16,3.1455,2.9455001,3.7455
1318,2025-12-15 22:00:00+00:00,3.3955,86.0,1.2756029,0.14651203,0.0,0.0,0.0,0.0,0.0,0.0,0.0,1018.1,1013.3342,0.0,0.0,0.0,0.0,15020.0,9.114471,19.083395,25.849905,32.361977,170.9098,181.0809,192.875,207.13506,19.44,2.8455,3.1455,4.3455
1319,2025-12-15 23:00:00+00:00,3.1455,86.0,1.0298833,-0.29352927,0.0,0.0,0.0,0.0,0.0,0.0,2.0,1018.2,1013.4293,67.0,0.0,0.0,67.0,15440.0,10.1376915,20.16,29.17777,36.573235,173.8846,180.0,189.22981,200.75415,21.599998,2.6455,3.2455,4.6454997
1320,2025-12-16 00:00:00+00:00,2.6955001,85.0,0.42562205,-0.58052063,0.0,0.0,0.0,0.0,0.0,0.0,3.0,1018.3,1013.5212,100.0,0.0,100.0,100.0,16520.0,8.350138,18.72,27.112564,33.425762,172.56868,180.0,190.71307,202.14523,20.880001,2.1455,2.9455001,4.4455
1321,2025-12-16 01:00:00+00:00,2.5955,86.0,0.489285,-0.73116875,0.0,0.0,0.0,0.0,0.0,0.0,3.0,1017.8,1013.02167,100.0,0.0,76.0,100.0,15800.0,8.766573,17.581125,25.210283,31.353085,160.82089,169.3804,181.63654,195.31288,19.08,1.9455,2.4455001,3.8455
1322,2025-12-16 02:00:00+00:00,2.4955,86.0,0.3909924,-0.5997758,0.0,0.0,0.0,0.0,0.0,0.0,2.0,1017.2,1012.42285,52.0,0.0,0.0,52.0,15580.0,7.072878,16.56,23.584808,30.77737,165.2564,180.0,192.33908,204.16663,18.359999,2.1455,2.8455,4.2454996
1323,2025-12-16 03:00:00+00:00,1.8455,86.0,-0.24792758,-1.5430083,0.0,0.0,0.0,0.0,0.0,0.0,3.0,1017.4,1012.61053,100.0,0.0,0.0,100.0,13120.0,8.4042845,17.64,25.346148,33.190357,170.13426,180.0,191.4695,204.34108,16.919998,1.2455001,1.9455,4.0455
1324,2025-12-16 04:00:00+00:00,1.9455,87.0,0.0096959425,-1.3518982,0.0,0.0,0.0,0.0,0.0,0.0,1.0,1017.7,1012.911,0.0,0.0,0.0,0.0,13700.0,8.049845,17.643673,25.277023,31.079075,169.6952,178.83089,190.66974,205.3777,19.08,1.4455,2.3455,4.5455
1325,2025-12-16 05:00:00+00:00,2.0455,86.0,-0.051333573,-1.3230348,0.0,0.0,0.0,0.0,0.0,0.0,1.0,1018.0,1013.2111,47.0,0.0,47.0,0.0,15300.0,8.473393,20.519999,28.82249,34.171566,167.73524,180.0,189.3446,200.3442,19.8,1.8455,3.0455,5.3455
1326,2025-12-16 06:00:00+00:00,1.4955001,87.0,-0.43322694,-1.6122732,0.0,0.0,0.0,0.0,0.0,0.0,3.0,1017.7,1012.9031,77.0,0.0,0.0,77.0,12820.0,6.28713,14.973576,21.288757,26.758923,156.3706,170.31128,183.87845,197.21616,16.919998,1.1455001,2.2455,4.8455
1327,2025-12-16 07:00:00+00:00,1.3955001,87.0,-0.5316561,-1.9138765,0.0,0.0,0.0,0.0,0.0,0.0,0.0,1018.5,1013.69775,0.0,0.0,0.0,0.0,12400.0,7.5685663,18.25026,23.0653,28.467329,154.65387,165.14134,177.31628,189.46225,15.84,1.3455,2.3455,4.0455
1328,2025-12-16 08:00:00+00:00,1.4955001,87.0,-0.43322694,-1.6137753,0.0,0.0,0.0,0.0,0.0,0.0,0.0,1018.6,1013.7988,0.0,0.0,0.0,0.0,12920.0,6.297428,15.379206,20.519999,26.476522,149.03632,163.68607,180.0,191.76826,16.919998,1.6455001,3.1455,5.1454997
1329,2025-12-16 09:00:00+00:00,1.9455,85.0,-0.31060722,-0.95620155,0.0,0.0,0.0,0.0,0.0,0.0,0.0,1018.9,1014.10535,0.0,0.0,0.0,0.0,16080.0,5.00128,12.57426,18.057508,24.1388,149.74365,166.75948,184.57384,197.35411,15.119999,1.5455,2.7455,5.0455
1330,2025-12-16 10:00:00+00:00,2.9955,79.0,-0.2911147,-0.120138645,0.0,0.0,0.0,0.0,0.0,0.0,0.0,1018.8,1014.024,0.0,0.0,0.0,0.0,25860.0,6.489992,10.630672,16.454008,20.598795,146.3099,151.69934,169.91946,185.01303,14.759999,1.9455,3.1455,5.6454997
1331,2025-12-16 11:00:00+00:00,4.3455,74.0,0.117135,1.0304937,0.0,0.0,0.0,0.0,0.0,0.0,0.0,1018.7,1013.9477,0.0,0.0,0.0,0.0,36080.0,8.287822,12.4811535,18.919704,23.319553,145.6196,146.76828,158.80588,171.11942,18.359999,3.2455,3.7455,6.0455
1332,2025-12-16 12:00:00+00:00,5.3954997,71.0,0.5568219,2.644474,0.0,0.0,0.0,0.0,0.0,0.0,0.0,1017.6,1012.87054,74.0,0.0,0.0,74.0,42680.0,4.8965297,6.638072,10.233123,15.379206,126.027466,130.60121,140.71062,159.44388,19.44,4.3455,3.9455001,5.5455
1333,2025-12-16 13:00:00+00:00,5.9954996,70.0,0.93638176,2.720169,0.0,0.0,0.0,0.0,0.0,0.0,2.0,1017.1,1012.383,78.0,0.0,0.0,78.0,44260.0,8.913181,14.264361,15.273505,20.696087,133.36346,132.95459,135.0001,139.93929,20.16,4.9455,4.4455,4.7454996
1334,2025-12-16 14:00:00+00:00,6.0455,72.0,1.3766167,2.8787255,0.0,0.0,0.0,0.0,0.0,0.0,2.0,1017.7,1012.9812,48.0,0.0,0.0,48.0,42760.0,8.669949,14.264361,15.281989,20.696087,138.36655,137.04541,136.90913,139.93929,20.16,5.1454997,4.6454997,4.4455
1335,2025-12-16 15:00:00+00:00,5.1454997,76.0,1.2609814,2.1735744,0.0,0.0,0.0,0.0,0.0,0.0,2.0,1017.4,1012.66736,64.0,0.0,0.0,64.0,34720.0,7.2,13.324863,17.31746,22.104116,126.86999,128.41809,133.31535,142.94339,18.72,4.4455,4.1454997,4.9455
1336,2025-12-16 16:00:00+00:00,4.4954996,79.0,1.1689585,1.1602182,0.0,0.0,0.0,0.0,0.0,0.0,3.0,1018.0,1013.2535,100.0,0.0,0.0,100.0,30060.0,9.585739,18.39878,24.312662,29.317352,145.71307,149.42085,152.6762,155.32315,19.8,3.8455,3.6455,3.7455
1337,2025-12-16 17:00:00+00:00,3.8955,81.0,0.9318684,0.53290653,0.0,0.0,0.0,0.0,0.0,0.0,2.0,1017.6,1012.8451,64.0,0.0,0.0,64.0,26060.0,9.504272,18.875126,25.49908,32.058197,142.69597,145.09743,149.4525,155.44957,23.4,3.2455,3.1455,3.4455001
1338,2025-12-16 18:00:00+00:00,3.2455,84.0,0.8011165,0.46704865,0.0,0.0,0.0,0.0,0.0,0.0,1.0,1018.0,1013.2318,100.0,0.0,0.0,100.0,19940.0,5.3517847,13.246826,18.089775,22.545315,132.27362,137.20262,148.84076,160.40762,18.72,2.7455,3.1455,3.9455001
1339,2025-12-16 19:00:00+00:00,2.7955,86.0,0.6858688,-0.075844765,0.0,0.0,0.0,0.0,0.0,0.0,1.0,1017.5,1012.7266,0.0,0.0,0.0,0.0,16620.0,5.8603754,14.76439,19.083395,22.057161,132.5104,135.0001,144.21094,153.85323,16.56,2.5455,3.0455,3.8455
1340,2025-12-16 20:00:00+00:00,2.5455,85.0,0.27837923,-0.8610754,0.0,0.0,0.0,0.0,0.0,0.0,1.0,1018.1,1013.31934,25.0,0.0,0.0,25.0,17640.0,9.085988,20.456745,25.294964,28.460497,146.3099,151.63104,155.62355,161.56496,18.72,2.1455,2.3455,2.7455
1341,2025-12-16 21:00:00+00:00,1.8955001,86.0,-0.19877854,-1.4501636,0.0,0.0,0.0,0.0,0.0,0.0,3.0,1018.0,1013.2086,100.0,0.0,0.0,100.0,14740.0,8.161764,15.546833,21.068459,24.675106,131.42357,137.81563,146.853,156.80139,20.519999,1.2455001,1.3455,2.0455
1342,2025-12-16 22:00:00+00:00,1.4455,86.0,-0.6411232,-1.9277735,0.0,0.0,0.0,0.0,0.0,0.0,2.0,1017.1,1012.30493,55.0,0.0,0.0,55.0,15700.0,7.8954163,16.800856,22.104116,24.95452,133.1524,135.0001,142.94339,153.43501,17.28,0.8455,1.2455001,2.3455
1343,2025-12-16 23:00:00+00:00,1.0455,86.0,-1.0343299,-2.4310408,0.0,0.0,0.0,0.0,0.0,0.0,1.0,1017.1,1012.2979,22.0,0.0,0.0,22.0,14780.0,8.209263,15.782622,21.889065,26.242987,127.875046,135.0001,143.69542,153.08353,17.64,0.34550002,0.5455,1.2455001
1344,2025-12-17 00:00:00+00:00,0.44550002,89.0,-1.1567271,-2.8600664,0.0,0.0,0.0,0.0,0.0,0.0,1.0,1017.7,1012.8847,32.0,0.0,0.0,32.0,8880.0,6.9153743,14.003028,19.969458,23.73271,128.65984,136.04153,146.0234,157.71437,18.72,-0.2545,0.2455,1.1455001
1345,2025-12-17 01:00:00+00:00,0.19550002,89.0,-1.4034494,-3.4183211,0.0,0.0,0.0,0.0,0.0,0.0,3.0,1017.1,1012.283,85.0,0.0,0.0,85.0,9020.0,8.78872,16.870138,23.233252,27.598173,124.992096,129.80553,139.39879,149.42085,18.359999,-0.4545,-0.0545,0.6455
1346,2025-12-17 02:00:00+00:00,0.09550001,89.0,-1.5021393,-3.2535107,0.0,0.0,0.0,0.0,0.0,0.0,3.0,1016.7,1011.8833,100.0,0.0,0.0,100.0,9600.0,6.8777895,14.480773,20.774214,26.081993,137.12111,145.1246,152.10281,159.81412,19.44,-0.55450004,-0.2545,0.2455
1347,2025-12-17 03:00:00+00:00,-0.3545,91.0,-1.6443143,-3.9083397,0.0,0.0,0.0,0.0,0.0,0.0,3.0,1016.2,1011.37775,82.0,4.0,75.0,48.0,6100.0,8.14587,16.055355,23.363974,28.33957,135.0001,137.72638,146.3099,154.41153,18.72,-1.0545,-0.6545,-0.15450001
1348,2025-12-17 04:00:00+00:00,-0.40449998,90.0,-1.8439469,-3.9214325,0.0,0.0,0.0,0.0,0.0,0.0,2.0,1016.2,1011.3768,31.0,0.0,0.0,31.0,8060.0,7.7043357,14.77755,21.413193,26.980793,142.59457,145.92276,153.00424,161.3232,18.359999,-1.0545,-0.9545,-0.4545
1349,2025-12-17 05:00:00+00:00,-0.50450003,90.0,-1.9427644,-3.9019432,0.0,0.0,0.0,0.0,0.0,0.0,2.0,1016.3,1011.47473,69.0,0.0,0.0,69.0,8060.0,6.792466,13.70839,19.191748,22.734219,147.99466,150.06857,156.80139,169.04597,15.84,-1.2544999,-1.0545,-0.2545
1350,2025-12-17 06:00:00+00:00,-1.0545,94.0,-1.8973967,-4.43191,0.0,0.0,0.0,0.0,0.0,0.0,3.0,1016.2,1011.3654,100.0,76.0,37.0,100.0,2980.0,6.696387,10.883676,15.175612,19.134262,143.74608,145.78424,157.69374,175.68405,13.679999,-1.8544999,-1.9545,-0.15450001
1351,2025-12-17 07:00:00+00:00,-1.1545,94.0,-1.9967014,-4.4872394,0.0,0.0,0.0,0.0,0.0,0.0,48.0,1016.1,1011.2639,71.0,59.0,21.0,0.0,3120.0,6.297428,10.00256,14.332341,18.775301,149.03632,149.74365,168.40785,184.39862,13.679999,-1.9545,-1.5545,-0.6545
1352,2025-12-17 08:00:00+00:00,-1.2544999,92.0,-2.387121,-4.522436,0.0,0.0,0.0,0.0,0.0,0.0,2.0,1016.8,1011.95905,55.0,37.0,26.0,8.0,4520.0,5.495161,10.365251,15.137133,19.06301,148.39255,159.67677,177.27374,190.88548,14.4,-2.0544999,-1.4545,-1.1545
1353,2025-12-17 09:00:00+00:00,-0.7045,89.0,-2.2916772,-3.922692,0.0,0.0,0.0,0.0,0.0,0.0,1.0,1017.5,1012.66534,9.0,9.0,0.0,0.0,8760.0,5.2416787,9.904906,14.81259,19.083395,195.94547,199.09358,205.94225,215.78906,14.759999,-1.5545,-1.3544999,-1.0545
1354,2025-12-17 10:00:00+00:00,-0.15450001,85.0,-2.3722696,-3.4878416,0.0,0.0,0.0,0.0,0.0,0.0,2.0,1017.5,1012.67505,63.0,41.0,38.0,0.0,13080.0,5.95906,9.021574,13.551501,17.49615,205.01686,208.61037,219.61066,233.3658,15.119999,-1.1545,-1.3544999,-1.1545
1355,2025-12-17 11:00:00+00:00,0.69549996,83.0,-1.8615094,-2.594053,0.0,0.0,0.0,0.0,0.0,0.0,1.0,1017.6,1012.78955,15.0,0.0,15.0,0.0,17820.0,6.1305785,8.913181,11.212135,16.904673,220.23628,223.36346,227.60262,243.43501,14.04,-0.3545,-0.8545,-0.4545
1356,2025-12-17 12:00:00+00:00,2.3955,75.0,-1.584476,-0.9380224,0.0,0.0,0.0,0.0,0.0,0.0,0.0,1017.5,1012.7195,23.0,0.0,23.0,0.0,34900.0,6.696387,9.585739,10.1887,14.799459,233.74606,235.71307,237.99466,251.56496,15.84,1.2455001,0.74549997,0.5455
1357,2025-12-17 13:00:00+00:00,3.4455001,73.0,-0.93872726,0.25164127,0.0,0.0,0.0,0.0,0.0,0.0,1.0,1017.2,1012.4391,7.0,0.0,7.0,0.0,38880.0,6.3690495,9.726664,10.587918,16.055353,227.29063,231.009,234.6887,250.34608,16.56,2.4455001,1.9455,1.5455
1358,2025-12-17 14:00:00+00:00,4.1454997,72.0,-0.45308492,1.0174136,0.0,0.0,0.0,0.0,0.0,0.0,0.0,1017.7,1012.94885,0.0,0.0,0.0,0.0,43800.0,6.4096174,11.983188,14.336861,20.620806,231.84273,237.26477,241.50446,253.77974,15.4800005,3.3455,2.8455,2.8455
1359,2025-12-17 15:00:00+00:00,3.9455001,76.0,0.098163955,0.917748,0.0,0.0,0.0,0.0,0.0,0.0,0.0,1017.7,1012.94525,0.0,0.0,0.0,0.0,37200.0,6.297428,14.182355,19.694992,25.630886,239.03632,246.0375,251.89613,259.47928,14.759999,3.5455,3.5455,3.8455
1360,2025-12-17 16:00:00+00:00,3.7955,79.0,0.48762116,0.81844616,0.0,0.0,0.0,0.0,0.0,0.0,1.0,1018.1,1013.3408,32.0,0.0,0.0,32.0,32060.0,6.3690495,16.610792,22.79684,29.09103,227.29063,240.10118,248.70258,257.85574,13.32,3.7455,4.2454996,4.7454996
1361,2025-12-17 17:00:00+00:00,3.8955,81.0,0.9318684,1.0157022,0.0,0.0,0.0,0.0,0.0,0.0,3.0,1018.7,1013.94,100.0,100.0,0.0,19.0,27480.0,6.193674,17.87718,25.045238,31.559088,234.46223,244.98314,251.56496,258.81827,12.599999,4.2454996,5.0455,5.5455
1362,2025-12-17 18:00:00+00:00,3.6455,84.0,1.1932095,0.8210597,0.0,0.0,0.0,0.0,0.0,0.0,3.0,1019.6,1014.8313,100.0,64.0,0.0,100.0,21340.0,6.1094027,18.218275,24.94413,31.63087,224.9999,240.39565,249.73422,258.17853,12.599999,3.9455001,5.0455,5.8455
1363,2025-12-17 19:00:00+00:00,4.1454997,83.0,1.515981,1.3754048,0.0,0.0,0.0,0.0,0.0,0.0,3.0,1019.6,1014.83997,100.0,93.0,0.0,100.0,22740.0,6.1094027,16.676977,23.469128,29.301876,224.9999,237.3391,249.341,259.3804,14.04,4.2454996,5.6454997,6.4455
1364,2025-12-17 20:00:00+00:00,4.4455,83.0,1.8096288,1.8000374,0.0,0.0,0.0,0.0,0.0,0.0,3.0,1020.4,1015.64136,97.0,83.0,0.0,82.0,22300.0,5.6002855,15.0038395,20.275385,25.050413,224.9999,239.74365,253.49556,262.5687,11.879999,4.8455,6.0455,6.6454997
1365,2025-12-17 21:00:00+00:00,4.3455,85.0,2.0451796,1.6545382,0.0,0.0,0.0,0.0,0.0,0.0,3.0,1020.9,1016.13745,89.0,88.0,0.0,44.0,18100.0,6.193674,16.418526,22.077717,28.1169,215.53777,232.12495,245.94266,256.67545,14.04,4.5455,5.6454997,6.2454996
1366,2025-12-17 22:00:00+00:00,4.4954996,87.0,2.5193496,2.0461645,0.0,0.0,0.0,0.0,0.0,0.0,2.0,1021.1,1016.339,75.0,75.0,0.0,12.0,14400.0,5.1165614,14.982228,21.129885,25.849905,219.28938,234.78232,246.92957,257.125,13.32,4.6454997,6.0455,6.6454997
1367,2025-12-17 23:00:00+00:00,4.4455,87.0,2.470145,1.8675799,0.0,0.0,0.0,0.0,0.0,0.0,3.0,1021.4,1016.63666,93.0,93.0,0.0,0.0,12800.0,5.937272,14.654254,18.844202,21.611996,194.03627,207.824,223.45189,240.01845,12.959999,4.3455,5.8455,7.0455
1368,2025-12-18 00:00:00+00:00,4.6454997,88.0,2.8281426,2.0523143,0.0,0.0,0.0,0.0,0.0,0.0,3.0,1021.6,1016.8392,100.0,100.0,0.0,0.0,11040.0,6.489992,13.797913,18.374111,20.380579,176.82024,195.12405,214.62422,234.34457,13.32,4.0455,5.3455,6.8455
1369,2025-12-18 01:00:00+00:00,4.3954997,89.0,2.7410429,1.6289511,0.0,0.0,0.0,0.0,0.0,0.0,3.0,1021.8,1017.0338,100.0,100.0,0.0,0.0,9200.0,7.5685663,14.561099,22.73707,26.785547,182.72626,188.53069,203.31773,216.25392,19.08,3.6455,4.9455,6.5455
1370,2025-12-18 02:00:00+00:00,4.2454996,91.0,2.9064612,1.645124,0.0,0.0,0.0,0.0,0.0,0.0,2.0,1021.7,1016.93176,65.0,65.0,0.0,0.0,6280.0,6.638072,14.044615,20.545246,26.141552,167.4712,178.53123,191.113,202.6806,17.28,3.6455,4.4455,6.1454997
1371,2025-12-18 03:00:00+00:00,4.1955,90.0,2.7011244,1.1961536,0.0,0.0,0.0,0.0,0.0,0.0,2.0,1021.6,1016.8315,54.0,54.0,0.0,0.0,8460.0,9.114471,18.59845,28.079998,36.61573,189.0902,194.57425,202.6199,210.09415,19.44,3.6455,4.0455,5.2454996
1372,2025-12-18 04:00:00+00:00,3.9955,88.0,2.1876345,0.86683226,0.0,0.0,0.0,0.0,0.0,0.0,3.0,1021.0,1016.2308,100.0,100.0,43.0,0.0,10460.0,9.3669195,18.391735,28.639803,37.038036,177.79745,183.3664,194.56032,205.31964,20.519999,3.3455,4.3455,5.6454997
1373,2025-12-18 05:00:00+00:00,4.2955,88.0,2.4832563,1.2638526,0.0,0.0,0.0,0.0,0.0,0.0,3.0,1021.3,1016.53455,84.0,63.0,67.0,0.0,12340.0,9.0645685,18.0036,27.438046,37.06427,186.84268,191.53459,199.14822,209.0545,20.880001,3.7455,4.0455,5.5455
1374,2025-12-18 06:00:00+00:00,4.7454996,85.0,2.437769,1.7578478,0.0,0.0,0.0,0.0,0.0,0.0,3.0,1021.0,1016.2436,100.0,100.0,91.0,0.0,17320.0,8.707238,18.59845,28.84047,38.141315,187.12492,194.57425,204.32556,213.84009,20.16,4.1454997,4.4455,5.8455
1375,2025-12-18 07:00:00+00:00,5.0455,85.0,2.732204,2.012166,0.0,0.0,0.0,0.0,0.0,0.0,3.0,1021.3,1016.54724,80.0,64.0,52.0,0.0,17480.0,9.3876505,18.782204,27.609911,36.25291,184.39862,192.17145,202.21765,212.42754,20.16,4.4455,4.5455,5.7454996
1376,2025-12-18 08:00:00+00:00,5.2454996,85.0,2.9284897,2.278955,0.0,0.0,0.0,0.0,0.0,0.0,3.0,1021.9,1017.14795,97.0,96.0,0.0,24.0,16900.0,9.178235,19.483284,27.14123,36.79756,191.30989,196.09088,201.80147,210.57915,20.880001,4.7454996,4.5455,5.5455
1377,2025-12-18 09:00:00+00:00,6.3455,84.0,3.8395073,3.3466892,0.0,0.0,0.0,0.0,0.0,0.0,3.0,1021.8,1017.067,100.0,100.0,0.0,18.0,20040.0,10.594036,20.617662,23.313995,34.651752,189.78233,192.09474,193.39252,203.90205,24.48,5.6454997,5.2454996,5.4455
1378,2025-12-18 10:00:00+00:00,7.0455,82.0,4.1811867,4.1289816,0.0,0.0,0.0,0.0,0.0,0.0,3.0,1021.2,1016.4815,89.0,72.0,0.0,62.0,21120.0,10.495713,19.296133,22.380884,32.489872,185.90605,188.58354,191.12915,201.4478,23.4,6.1454997,5.7454996,5.7454996
1379,2025-12-18 11:00:00+00:00,7.8954997,80.0,4.657616,5.1442776,0.0,0.0,0.0,0.0,0.0,0.0,3.0,1021.7,1016.9935,100.0,44.0,0.0,100.0,26200.0,10.028439,19.008547,22.702845,30.953718,201.03758,204.62355,207.37762,213.13562,23.4,7.0455,6.6454997,6.3455
1380,2025-12-18 12:00:00+00:00,9.3955,75.0,5.1872096,6.6572237,0.0,0.0,0.0,0.0,0.0,0.0,3.0,1020.9,1016.2221,100.0,5.0,0.0,100.0,36000.0,10.703569,19.721298,22.26477,24.490585,199.65392,201.41304,202.8337,204.30453,23.4,8.5455,8.0455,7.5455
1381,2025-12-18 13:00:00+00:00,9.8955,75.0,5.6706624,7.2682495,0.0,0.0,0.0,0.0,0.0,0.0,2.0,1020.7,1016.0313,83.0,3.0,0.0,81.0,37920.0,10.661107,19.93048,23.110205,26.339111,191.68935,196.79845,198.1528,201.65605,23.4,9.0455,8.6455,8.1455
1382,2025-12-18 14:00:00+00:00,9.8955,76.0,5.8620768,7.5155907,0.0,0.0,0.0,0.0,0.0,0.0,1.0,1020.5,1015.8322,9.0,3.0,0.0,6.0,37580.0,9.255571,18.792551,22.206486,27.381308,193.49574,196.69933,199.90384,204.88034,23.759998,9.3455,8.945499,8.5455
1383,2025-12-18 15:00:00+00:00,9.3955,78.0,5.7526608,7.042288,0.0,0.0,0.0,0.0,0.0,0.0,1.0,1020.4,1015.72437,17.0,17.0,0.0,0.0,34280.0,8.905908,20.268991,27.055143,32.417995,194.03627,199.72237,205.2011,209.98155,20.16,9.1455,9.0455,8.8455
1384,2025-12-18 16:00:00+00:00,8.5955,82.0,5.695778,6.2640963,0.0,0.0,0.0,0.0,0.0,0.0,3.0,1020.3,1015.61176,100.0,7.0,0.0,100.0,27520.0,8.669949,21.566975,30.29566,36.73588,184.76355,194.5002,200.1577,204.30453,18.359999,8.5455,8.945499,9.1455
1385,2025-12-18 17:00:00+00:00,7.9954996,84.0,5.4564056,5.5772676,0.0,0.0,0.0,0.0,0.0,0.0,3.0,1020.1,1015.4026,100.0,0.0,0.0,100.0,22260.0,8.905908,23.051247,31.129074,37.722775,165.96373,178.21013,185.97423,193.24052,18.359999,8.1455,8.945499,9.3455
1386,2025-12-18 18:00:00+00:00,7.5455,85.0,5.1855683,4.993614,0.0,0.0,0.0,0.0,0.0,0.0,0.0,1019.7,1014.9971,0.0,0.0,0.0,0.0,20580.0,9.422101,22.3229,31.810638,40.384235,173.41815,179.07597,185.19434,191.30989,20.16,7.4455,8.1455,8.8455
1387,2025-12-18 19:00:00+00:00,6.9954996,87.0,4.9793944,4.2369356,0.0,0.0,0.0,0.0,0.0,0.0,0.0,1019.7,1014.98785,0.0,0.0,0.0,0.0,15500.0,10.538843,23.759998,33.805515,42.9729,172.14677,180.0,187.95743,195.54987,22.319998,6.8455,7.3455,8.0455
1388,2025-12-18 20:00:00+00:00,6.2955,88.0,4.4539385,3.5003586,0.0,0.0,0.0,0.0,0.0,0.0,0.0,1020.0,1015.2746,0.0,0.0,0.0,0.0,13080.0,10.041354,20.674158,32.49785,43.22699,165.4655,172.99883,184.4473,192.99461,23.4,5.9455,6.4455,7.5455
1389,2025-12-18 21:00:00+00:00,5.4954996,88.0,3.6656935,2.5431852,0.0,0.0,0.0,0.0,0.0,0.0,0.0,1020.0,1015.261,9.0,0.0,0.0,9.0,12740.0,10.041354,22.033648,32.998474,44.309258,165.4655,175.3142,186.89233,196.52097,21.24,5.1454997,5.9455,7.2454996
1390,2025-12-18 22:00:00+00:00,5.3954997,88.0,3.5671608,2.3336916,0.0,0.0,0.0,0.0,0.0,0.0,0.0,1019.8,1015.06036,0.0,0.0,0.0,0.0,13720.0,10.661107,23.770906,35.39186,46.56263,168.31065,178.26433,189.36644,198.01479,22.68,5.2454996,5.7454996,6.9455
1391,2025-12-18 23:00:00+00:00,5.5955,88.0,3.7642267,2.5818148,0.0,0.0,0.0,0.0,0.0,0.0,0.0,1019.6,1014.86475,0.0,0.0,0.0,0.0,14860.0,10.594036,24.122683,34.32671,45.536797,170.21767,180.85507,189.65982,198.43504,22.319998,5.4455,5.6454997,6.7454996
1392,2025-12-19 00:00:00+00:00,5.3954997,88.0,3.5671608,2.3951826,0.0,0.0,0.0,0.0,0.0,0.0,0.0,1019.7,1014.9609,0.0,0.0,0.0,0.0,14980.0,10.239453,24.119999,35.09769,46.449764,169.8754,180.0,190.04196,198.99675,22.319998,5.3455,5.7454996,7.0455
1393,2025-12-19 01:00:00+00:00,5.2955,87.0,3.3066075,2.103384,0.0,0.0,0.0,0.0,0.0,0.0,0.0,1019.8,1015.05865,0.0,0.0,0.0,0.0,16220.0,11.212135,25.20257,37.705597,48.83941,174.47255,180.81844,190.45158,198.03438,24.119999,5.1454997,5.7454996,7.2454996
1394,2025-12-19 02:00:00+00:00,4.9954996,88.0,3.1730218,1.8164229,0.0,0.0,0.0,0.0,0.0,0.0,0.0,1019.2,1014.4564,0.0,0.0,0.0,0.0,14600.0,10.948973,24.130743,36.758804,48.860634,170.53775,178.29022,188.44745,196.69933,23.759998,4.8455,5.4455,7.1454997
1395,2025-12-19 03:00:00+00:00,4.2454996,89.0,2.5930412,1.0522738,0.0,0.0,0.0,0.0,0.0,0.0,0.0,1019.3,1014.54297,4.0,0.0,0.0,4.0,11160.0,10.308831,24.863468,37.52471,49.41582,167.90526,177.5105,188.82967,197.37901,24.119999,4.2454996,5.1454997,6.9455
1396,2025-12-19 04:00:00+00:00,4.5455,90.0,3.0469034,1.3846397,0.0,0.0,0.0,0.0,0.0,0.0,0.0,1018.7,1013.9512,0.0,0.0,0.0,0.0,11340.0,10.661107,24.490587,36.04677,46.56263,168.31065,178.31535,188.61557,198.01479,23.039999,4.4455,5.0455,6.5455
1397,2025-12-19 05:00:00+00:00,4.6955,90.0,3.1950927,1.6323314,0.0,0.0,0.0,0.0,0.0,0.0,0.0,1018.7,1013.9537,0.0,0.0,0.0,0.0,11280.0,10.182337,23.770906,34.32671,45.769577,171.86998,181.73567,189.65982,199.29015,23.039999,4.5455,4.7454996,6.1454997
1398,2025-12-19 06:00:00+00:00,4.8455,86.0,2.7006917,1.544508,0.0,0.0,0.0,0.0,0.0,0.0,0.0,1018.6,1013.8567,36.0,0.0,29.0,9.0,18840.0,11.183201,25.922499,34.57687,47.41215,183.69131,189.59306,194.47034,203.25574,22.68,4.7454996,4.7454996,5.7454996
1399,2025-12-19 07:00:00+00:00,5.1454997,84.0,2.6634457,1.7755604,0.0,0.0,0.0,0.0,0.0,0.0,1.0,1018.6,1013.8617,16.0,0.0,16.0,0.0,23820.0,11.609651,25.582806,32.559605,46.530605,187.12492,193.84071,198.03438,207.15971,25.199999,4.9455,4.7454996,5.9455
1400,2025-12-19 08:00:00+00:00,5.1955,83.0,2.5437145,1.91401,0.0,0.0,0.0,0.0,0.0,0.0,1.0,1018.7,1013.9619,11.0,0.0,11.0,0.0,23180.0,10.853866,23.795427,30.821548,43.86685,185.7105,190.45985,194.19858,203.19862,25.199999,4.8455,4.6454997,5.9455
1401,2025-12-19 09:00:00+00:00,6.0455,80.0,2.854878,2.8210812,0.0,0.0,0.0,0.0,0.0,0.0,1.0,1018.8,1014.07605,45.0,0.0,45.0,0.0,30000.0,10.853866,22.33161,27.908709,39.516457,174.2895,181.84756,186.66656,196.94931,24.48,5.6454997,5.3455,6.0455
1402,2025-12-19 10:00:00+00:00,6.8954997,77.0,3.1412506,3.8365068,0.0,0.0,0.0,0.0,0.0,0.0,2.0,1019.0,1014.2895,66.0,0.0,66.0,0.0,33700.0,10.086427,20.188908,25.40743,33.790176,177.95464,183.06642,187.32631,194.18433,23.759998,6.1454997,5.8455,5.6454997
1403,2025-12-19 11:00:00+00:00,8.195499,71.0,3.2482245,5.049265,0.0,0.0,0.0,0.0,0.0,0.0,2.0,1019.1,1014.41064,63.0,14.0,54.0,2.0,44400.0,10.823973,20.633371,23.675303,26.758923,183.814,186.00891,188.74608,190.85637,23.759998,7.3455,6.8455,6.4455
1404,2025-12-19 12:00:00+00:00,8.8955,70.0,3.7190948,5.873358,0.0,0.0,0.0,0.0,0.0,0.0,2.0,1018.3,1013.6258,55.0,27.0,45.0,0.0,47020.0,10.594036,20.265795,23.400002,27.103,189.78233,192.308,194.25006,196.9909,24.48,8.0455,7.5455,7.0455
1405,2025-12-19 13:00:00+00:00,9.3955,70.0,4.19874,6.4844933,0.0,0.0,0.0,0.0,0.0,0.0,3.0,1018.8,1014.13165,89.0,62.0,74.0,1.0,47720.0,10.483357,20.037485,23.34455,26.474077,195.94547,197.78398,199.83221,202.38017,24.119999,8.5455,8.1455,7.6454997
1406,2025-12-19 14:00:00+00:00,9.445499,71.0,4.449362,6.5531397,0.0,0.0,0.0,0.0,0.0,0.0,3.0,1018.8,1014.1326,89.0,21.0,80.0,0.0,45340.0,10.703569,21.129885,25.44566,29.47826,199.65392,203.07043,205.1148,208.44283,23.759998,8.7455,8.3455,7.9455
1407,2025-12-19 15:00:00+00:00,9.1455,75.0,4.9454713,6.516018,0.0,0.0,0.0,0.0,0.0,0.0,3.0,1018.8,1014.12756,99.0,35.0,97.0,38.0,38500.0,9.605998,19.137648,22.768398,30.432245,192.99461,196.38962,198.43504,207.47435,23.759998,8.5455,8.1455,7.9455
1408,2025-12-19 16:00:00+00:00,8.9955,78.0,5.364113,6.3619585,0.0,0.0,0.0,0.0,0.0,0.0,3.0,1018.9,1014.2246,96.0,37.0,91.0,0.0,32440.0,10.24578,21.325253,25.772078,34.746994,198.43504,201.80147,204.77512,214.0194,22.68,8.445499,8.0455,8.1455
1409,2025-12-19 17:00:00+00:00,8.7955,81.0,5.713819,6.441125,33.0,0.0,0.0,0.0,0.0,0.0,3.0,1018.9,1014.2215,96.0,27.0,92.0,1.0,26440.0,8.854829,19.694992,25.364037,34.37387,206.56499,210.78407,214.59235,223.72705,22.68,8.3455,8.0455,8.445499
1410,2025-12-19 18:00:00+00:00,9.0955,79.0,5.645036,6.726,20.0,0.0,0.0,0.0,0.0,0.0,3.0,1018.5,1013.82837,100.0,74.0,100.0,0.0,31280.0,8.854829,18.58451,27.438046,35.90086,206.56499,211.53474,218.07283,226.2188,19.44,8.6455,8.445499,9.0455
1411,2025-12-19 19:00:00+00:00,9.1455,79.0,5.693678,6.8785505,25.0,0.0,0.0,0.0,0.0,0.0,3.0,1018.9,1014.2272,95.0,88.0,79.0,19.0,30200.0,8.225035,17.414474,25.63847,32.862694,203.19861,209.7448,218.15727,227.21968,19.08,8.6455,8.6455,9.1455
1412,2025-12-19 20:00:00+00:00,9.195499,79.0,5.742318,7.046316,35.0,0.0,0.0,0.0,0.0,0.0,3.0,1019.3,1014.6262,97.0,85.0,93.0,19.0,29580.0,7.491114,16.363178,24.184391,31.973186,215.21768,219.64413,225.60301,234.16226,17.64,8.6455,8.6455,9.2455
1413,2025-12-19 21:00:00+00:00,9.195499,81.0,6.104081,7.0960636,33.0,0.0,0.0,0.0,0.0,0.0,80.0,1019.7,1015.0244,100.0,92.0,100.0,0.0,27480.0,7.7043357,15.815435,22.183128,28.467327,217.40543,221.30852,228.28934,237.91785,16.919998,8.6455,8.3455,8.7455
1414,2025-12-19 22:00:00+00:00,9.195499,83.0,6.458037,7.2232447,23.0,0.0,0.0,0.0,0.0,0.0,61.0,1019.6,1014.92487,100.0,79.0,100.0,0.0,22580.0,7.386582,16.135872,22.59699,28.576382,226.97493,231.34016,239.34941,250.88017,17.28,8.6455,8.6455,9.0455
1415,2025-12-19 23:00:00+00:00,9.0455,86.0,6.8277206,7.1973114,28.0,0.2,0.2,0.0,0.0,0.0,61.0,1019.6,1014.9223,99.0,80.0,96.0,7.0,15280.0,7.127636,14.84318,20.00512,24.1388,224.9999,230.90614,239.74365,252.64589,16.199999,8.445499,8.3455,8.6455
1416,2025-12-20 00:00:00+00:00,8.8955,86.0,6.680347,7.2507324,23.0,0.0,0.0,0.0,0.0,0.0,61.0,1019.6,1014.9198,100.0,70.0,100.0,100.0,17400.0,5.495161,13.708391,19.296133,23.857979,238.39255,246.80139,255.96373,264.80566,15.4800005,8.445499,8.7455,8.945499
1417,2025-12-20 01:00:00+00:00,8.8955,87.0,6.848763,7.269966,8.0,0.0,0.0,0.0,0.0,0.0,3.0,1019.8,1015.1189,100.0,81.0,100.0,100.0,15840.0,5.634891,12.641076,17.581125,21.626984,243.43501,250.0168,259.3804,267.13766,13.32,8.3455,8.445499,8.5455
1418,2025-12-20 02:00:00+00:00,8.8955,87.0,6.848763,7.250081,10.0,0.0,0.0,0.0,0.0,0.0,3.0,1020.0,1015.318,100.0,100.0,100.0,98.0,13600.0,5.771239,12.964998,18.416384,22.668568,266.42374,271.5911,274.48453,280.06064,12.599999,8.3455,8.3455,8.445499
1419,2025-12-20 03:00:00+00:00,8.7455,88.0,6.8677073,7.2149506,15.0,0.0,0.0,0.0,0.0,0.0,3.0,1020.0,1015.3154,100.0,63.0,96.0,100.0,12200.0,5.0142193,11.013882,15.496736,18.844202,248.96242,258.6901,267.33704,276.58185,12.959999,8.2455,8.2455,8.3455
1420,2025-12-20 04:00:00+00:00,8.6455,90.0,7.097015,7.2003965,18.0,0.0,0.0,0.0,0.0,0.0,3.0,1019.8,1015.1147,100.0,89.0,99.0,100.0,8720.0,4.802999,9.746631,13.339445,16.87398,257.00537,265.76367,273.094,281.07016,11.5199995,8.0455,7.7454996,7.6454997
1421,2025-12-20 05:00:00+00:00,8.3955,92.0,7.1708946,6.868927,13.0,0.0,0.0,0.0,0.0,0.0,3.0,1019.6,1014.9115,100.0,82.0,95.0,100.0,5320.0,5.4833565,10.966713,14.48972,17.595861,293.1986,293.1986,296.56497,300.76263,12.24,7.7454996,7.4455,7.1454997
1422,2025-12-20 06:00:00+00:00,8.0455,91.0,6.6651073,6.423321,3.0,0.0,0.0,0.0,0.0,0.0,3.0,1019.5,1014.8062,100.0,23.0,86.0,100.0,7520.0,5.315336,10.587918,13.551501,16.80857,298.30066,305.31128,309.61066,313.26434,12.959999,7.3455,6.9455,6.8455
1423,2025-12-20 07:00:00+00:00,7.7454996,92.0,6.5272026,6.4430695,0.0,0.0,0.0,0.0,0.0,0.0,3.0,1019.5,1014.80115,100.0,0.0,91.0,100.0,7300.0,2.9024127,5.4477882,7.342588,9.028754,240.2552,262.40546,281.3099,293.49857,10.799999,7.2454996,7.3455,7.4455
1424,2025-12-20 08:00:00+00:00,7.6454997,91.0,6.26949,6.179428,0.0,0.0,0.0,0.0,0.0,0.0,3.0,1020.0,1015.29724,100.0,0.0,75.0,100.0,7640.0,3.6179552,8.049845,10.041354,11.841756,275.7105,280.30478,284.5345,289.53674,8.28,7.1454997,6.9455,6.6454997
1425,2025-12-20 09:00:00+00:00,7.3954997,90.0,5.8623104,5.7666426,0.0,0.0,0.0,0.0,0.0,0.0,3.0,1020.2,1015.49225,100.0,0.0,96.0,100.0,8060.0,4.1046314,6.638072,9.449572,11.212135,307.87503,310.60123,310.36444,312.39737,10.08,6.5455,6.3455,6.1454997
1426,2025-12-20 10:00:00+00:00,7.4954996,87.0,5.471356,6.144456,0.0,0.0,0.0,0.0,0.0,0.0,3.0,1020.0,1015.29474,100.0,0.0,81.0,100.0,11840.0,1.609969,2.0991426,3.319036,5.8603754,296.56497,300.96368,310.60123,317.4896,9.36,6.5455,6.1454997,6.1454997
1427,2025-12-20 11:00:00+00:00,7.9455,83.0,5.2349553,6.5434895,0.0,0.0,0.0,0.0,0.0,0.0,3.0,1020.0,1015.3023,91.0,0.0,68.0,67.0,17920.0,1.609969,1.8,1.8,2.8116899,296.56497,306.86996,306.86996,309.8055,5.04,6.9455,6.4455,5.9455
1428,2025-12-20 12:00:00+00:00,8.5455,80.0,5.2909293,6.99051,0.0,0.0,0.0,0.0,0.0,0.0,3.0,1019.7,1015.0136,86.0,37.0,70.0,21.0,25100.0,2.7416782,3.219938,3.396233,3.396233,23.198618,26.564985,32.005356,32.005356,5.7599998,7.4455,6.9455,6.4455
1429,2025-12-20 13:00:00+00:00,8.445499,81.0,5.3723264,6.639656,0.0,0.0,0.0,0.0,0.0,0.0,3.0,1019.8,1015.1116,94.0,59.0,82.0,21.0,22180.0,4.5820518,5.6233797,5.6233797,5.6233797,44.999897,50.194473,50.194473,50.194473,11.159999,7.3455,6.9455,6.3455
1430,2025-12-20 14:00:00+00:00,8.2955,81.0,5.225969,6.5394154,0.0,0.0,0.0,0.0,0.0,0.0,3.0,1019.6,1014.9099,90.0,43.0,76.0,1.0,23220.0,4.0249224,5.5887027,5.6920996,5.6920996,100.30479,104.93147,108.43504,108.43504,10.799999,7.4455,6.9455,6.3455
1431,2025-12-20 15:00:00+00:00,7.7454996,86.0,5.5504355,6.121501,0.0,0.0,0.0,0.0,0.0,0.0,3.0,1019.0,1014.30347,100.0,71.0,17.0,100.0,14580.0,3.6,4.6938252,4.6938252,5.0911684,90.0,94.39862,94.39862,98.13002,9.72,6.9455,6.4455,5.9455
1432,2025-12-20 16:00:00+00:00,7.2955,91.0,5.923318,5.5475893,0.0,0.0,0.0,0.0,0.0,0.0,3.0,1019.4,1014.6943,100.0,98.0,87.0,67.0,5740.0,5.0142193,6.28713,6.28713,6.2145634,68.96242,76.75947,76.75947,79.99209,11.159999,6.4455,5.9455,5.4455
1433,2025-12-20 17:00:00+00:00,5.9954996,100.0,5.9954996,4.014017,0.0,0.0,0.0,0.0,0.0,0.0,3.0,1019.4,1014.67236,100.0,100.0,79.0,100.0,120.0,6.725354,9.531505,9.826088,9.779817,74.47583,79.11452,81.57312,83.659904,13.679999,5.3455,5.0455,4.7454996
1434,2025-12-20 18:00:00+00:00,5.5955,100.0,5.5955,3.4035444,0.0,0.0,0.0,0.0,0.0,0.0,3.0,1019.8,1015.06384,100.0,100.0,66.0,81.0,120.0,7.5599995,13.339445,15.158522,16.263872,90.0,93.093994,94.08554,95.07952,18.359999,5.0455,4.7454996,4.4455
1435,2025-12-20 19:00:00+00:00,5.3455,98.0,5.054866,2.661128,0.0,0.0,0.0,0.0,0.0,0.0,3.0,1019.8,1015.0594,100.0,100.0,89.0,96.0,280.0,10.1376915,15.941944,16.700275,16.700275,96.11541,96.48298,97.43131,97.43131,22.68,4.5455,4.2454996,3.8455
1436,2025-12-20 20:00:00+00:00,5.1955,98.0,4.9052167,3.1114182,0.0,0.0,0.0,0.0,0.0,0.0,3.0,1020.2,1015.4549,100.0,98.0,90.0,100.0,360.0,5.8048253,9.72,13.556282,18.25026,82.875084,90.0,100.71308,112.01134,21.24,4.4455,4.3455,4.3455
1437,2025-12-20 21:00:00+00:00,5.6454997,94.0,4.755367,3.484229,0.0,0.0,0.0,0.0,0.0,0.0,3.0,1019.9,1015.164,98.0,90.0,74.0,35.0,2660.0,6.12,11.609651,16.418526,20.46941,90.0,97.12492,105.25517,113.86018,17.64,4.7454996,4.5455,4.5455
1438,2025-12-20 22:00:00+00:00,5.8954997,94.0,5.003579,3.5131025,0.0,0.0,0.0,0.0,0.0,0.0,3.0,1019.2,1014.47174,100.0,96.0,38.0,100.0,3400.0,7.9932976,14.417988,19.559633,22.66857,82.234924,87.13766,96.340096,110.44964,18.359999,5.1454997,4.9455,5.1454997
1439,2025-12-20 23:00:00+00:00,6.1955,93.0,5.147541,4.010499,3.0,0.0,0.0,0.0,0.0,0.0,3.0,1018.9,1014.17816,100.0,100.0,63.0,100.0,4120.0,6.849467,12.605142,17.873556,22.427162,86.98728,91.63654,99.27253,108.72588,16.919998,5.3455,5.1454997,5.3455
1440,2025-12-21 00:00:00+00:00,6.2454996,97.0,5.804401,3.780818,5.0,0.0,0.0,0.0,0.0,0.0,3.0,1018.8,1014.0792,100.0,100.0,88.0,0.0,460.0,9.746631,16.65754,19.652176,26.415268,94.23632,96.203354,98.42689,107.44727,20.16,5.5455,5.2454996,5.4455
1441,2025-12-21 01:00:00+00:00,6.5455,97.0,6.10334,4.407035,3.0,0.0,0.0,0.0,0.0,0.0,3.0,1019.2,1014.48254,100.0,100.0,100.0,10.0,620.0,7.968939,14.118243,15.716793,22.862123,108.43504,109.359085,110.09532,116.16151,21.24,5.8455,5.5455,5.5455
1442,2025-12-21 02:00:00+00:00,6.6454997,97.0,6.202986,4.265544,8.0,0.0,0.0,0.0,0.0,0.0,3.0,1018.8,1014.08594,100.0,100.0,100.0,39.0,460.0,9.779817,17.518356,19.48661,23.452555,96.340096,99.46225,101.72509,107.87879,21.24,5.9455,5.6454997,5.4455
1443,2025-12-21 03:00:00+00:00,6.5455,98.0,6.2520523,4.0660067,8.0,0.0,0.0,0.0,0.0,0.0,3.0,1018.6,1013.8853,100.0,100.0,100.0,84.0,280.0,10.538843,18.94024,20.418695,21.96,97.853226,98.74608,99.1301,100.38881,22.319998,5.9455,5.6454997,5.2454996
1444,2025-12-21 04:00:00+00:00,6.5455,98.0,6.2520523,4.129176,8.0,0.0,0.0,0.0,0.0,0.0,3.0,1018.4,1013.6863,100.0,100.0,100.0,100.0,320.0,10.105681,18.532133,20.774214,22.380884,94.08554,97.81521,98.97255,101.12915,23.4,5.8455,5.5455,5.2454996
1445,2025-12-21 05:00:00+00:00,6.6454997,98.0,6.351817,4.2324953,8.0,0.0,0.0,0.0,0.0,0.0,3.0,1018.6,1013.88684,100.0,100.0,93.0,56.0,380.0,10.239453,18.35647,20.265795,21.829777,100.12462,101.3099,102.30801,103.34874,23.4,5.9455,5.6454997,5.3455
1446,2025-12-21 06:00:00+00:00,6.4455,99.0,6.299548,4.0353355,3.0,0.0,0.0,0.0,0.0,0.0,3.0,1018.3,1013.58514,100.0,100.0,97.0,80.0,180.0,10.1376915,17.81909,19.70815,20.478907,96.11541,98.13002,99.46225,100.12462,25.56,5.8455,5.5455,5.2454996
1447,2025-12-21 07:00:00+00:00,6.4954996,98.0,6.20217,3.9353676,5.0,0.0,0.0,0.0,0.0,0.0,3.0,1018.6,1013.88434,100.0,100.0,100.0,38.0,360.0,11.013882,19.914217,21.749481,22.881956,101.3099,102.5288,102.425934,102.72436,24.84,5.7454996,5.5455,5.1454997
1448,2025-12-21 08:00:00+00:00,6.4954996,97.0,6.0535164,3.824647,3.0,0.0,0.0,0.0,0.0,0.0,61.0,1018.8,1014.08344,100.0,100.0,100.0,21.0,460.0,11.542478,20.957443,22.782625,24.29133,93.57626,94.92702,95.44024,96.80896,25.56,5.7454996,5.4455,5.0455
1449,2025-12-21 09:00:00+00:00,6.4455,92.0,5.2397704,3.474927,3.0,0.0,0.0,0.0,0.0,0.0,61.0,1019.7,1014.9787,100.0,93.0,100.0,100.0,5240.0,12.371645,22.668568,24.923338,27.25559,98.3658,100.06063,100.82296,102.200455,26.28,5.5455,5.0455,4.5455
1450,2025-12-21 10:00:00+00:00,6.4455,91.0,5.0825953,3.3607187,3.0,0.0,0.0,0.0,0.0,0.0,61.0,1019.1,1014.3814,100.0,100.0,92.0,85.0,4980.0,12.9249525,23.584808,26.200977,27.766712,102.87501,102.33907,102.699585,103.49575,29.16,5.5455,5.0455,4.6454997
1451,2025-12-21 11:00:00+00:00,6.5955,92.0,5.388324,3.7159443,0.0,0.0,0.0,0.0,0.0,0.0,3.0,1019.1,1014.3839,100.0,100.0,100.0,100.0,4560.0,11.966954,21.518847,23.795427,25.501621,105.7087,107.52566,107.61267,108.946594,28.44,5.6454997,5.1454997,4.7454996
1452,2025-12-21 12:00:00+00:00,6.5455,93.0,5.4946017,3.8041372,0.0,0.0,0.0,0.0,0.0,0.0,3.0,1018.5,1013.78577,100.0,100.0,90.0,100.0,1040.0,11.177405,18.792551,19.483284,20.275385,104.93147,106.699326,106.09089,106.50443,25.56,5.4455,5.1454997,4.7454996
1453,2025-12-21 13:00:00+00:00,6.6454997,93.0,5.5937614,3.7949352,0.0,0.0,0.0,0.0,0.0,0.0,3.0,1018.4,1013.6878,100.0,100.0,81.0,55.0,1580.0,12.074766,21.749481,23.664352,24.798223,100.30479,102.425934,103.19062,103.431046,27.359999,5.6454997,5.1454997,4.8455
1454,2025-12-21 14:00:00+00:00,6.4954996,93.0,5.445022,3.5090876,0.0,0.0,0.0,0.0,0.0,0.0,3.0,1019.0,1014.28253,100.0,100.0,87.0,19.0,2720.0,12.783802,23.087763,25.277023,25.984917,99.72751,100.78425,100.66973,100.37579,28.44,5.5455,5.0455,4.7454996
1455,2025-12-21 15:00:00+00:00,6.6454997,91.0,5.280415,3.5624766,3.0,0.0,0.0,0.0,0.0,0.0,3.0,1018.3,1013.58826,100.0,100.0,77.0,38.0,5940.0,13.202726,24.717085,27.684914,30.385365,101.003494,102.619316,102.77125,103.706985,29.88,5.8455,5.3455,4.8455
1456,2025-12-21 16:00:00+00:00,6.4954996,92.0,5.2892876,3.4548702,3.0,0.0,0.0,0.0,0.0,0.0,3.0,1018.6,1013.88434,100.0,100.0,95.0,98.0,4740.0,12.9249525,24.098497,27.155552,28.73242,102.87501,103.828674,104.58897,105.25517,29.88,5.6454997,5.1454997,4.7454996
1457,2025-12-21 17:00:00+00:00,6.0955,93.0,5.0483804,2.9009132,0.0,0.0,0.0,0.0,0.0,0.0,3.0,1018.6,1013.87756,100.0,100.0,47.0,71.0,3260.0,13.627795,24.884306,27.504095,28.988384,102.200455,104.23732,104.40006,104.38144,29.88,5.1454997,4.7454996,4.3455
1458,2025-12-21 18:00:00+00:00,6.0455,92.0,4.8436236,2.8463278,0.0,0.0,0.0,0.0,0.0,0.0,3.0,1018.7,1013.97656,100.0,100.0,63.0,64.0,4340.0,13.363711,24.29133,27.238941,29.122198,94.635376,96.80896,97.59455,98.530685,30.239998,5.1454997,4.6454997,4.2454996
1459,2025-12-21 19:00:00+00:00,5.7454996,92.0,4.5465107,2.4358258,0.0,0.0,0.0,0.0,0.0,0.0,3.0,1018.6,1013.87195,100.0,100.0,24.0,52.0,4640.0,13.698934,25.2924,27.834309,29.301878,93.012726,94.89901,95.19434,95.640465,30.599998,4.8455,4.3455,3.9455001
1460,2025-12-21 20:00:00+00:00,5.4954996,92.0,4.2989125,2.1045303,0.0,0.0,0.0,0.0,0.0,0.0,3.0,1019.1,1014.3652,100.0,100.0,0.0,21.0,4260.0,13.910169,25.346148,28.387545,29.871325,100.43742,101.4695,102.44999,102.5288,30.599998,4.5455,4.0455,3.7455
1461,2025-12-21 21:00:00+00:00,5.1955,94.0,4.3085794,1.7962661,0.0,0.0,0.0,0.0,0.0,0.0,3.0,1019.2,1014.45953,100.0,100.0,0.0,94.0,2040.0,13.979871,25.49908,27.416782,29.337238,101.88863,103.05525,103.671326,104.2068,31.319998,4.2454996,3.9455001,3.5455
1462,2025-12-21 22:00:00+00:00,5.0455,93.0,4.0071692,1.561636,0.0,0.0,0.0,0.0,0.0,0.0,3.0,1019.2,1014.45703,100.0,100.0,0.0,86.0,3360.0,14.145756,26.309572,29.487053,31.65135,104.743614,106.699326,107.77141,109.259384,31.319998,4.1454997,3.6455,3.3455
1463,2025-12-21 23:00:00+00:00,4.9954996,93.0,3.9575868,1.704114,0.0,0.0,0.0,0.0,0.0,0.0,3.0,1019.1,1014.3569,100.0,100.0,0.0,100.0,3600.0,12.758432,23.795427,26.183659,28.357857,106.38962,107.61267,108.43504,110.045334,31.68,4.0455,3.6455,3.2455
1464,2025-12-22 00:00:00+00:00,4.5955,94.0,3.7128546,1.2084222,0.0,0.0,0.0,0.0,0.0,0.0,3.0,1019.5,1014.74805,100.0,100.0,0.0,100.0,1980.0,13.084402,24.031178,26.27753,27.820337,97.907074,98.61557,99.46225,100.43742,27.72,3.6455,3.2455,2.9455001
1465,2025-12-22 01:00:00+00:00,4.3954997,94.0,3.514277,1.093049,0.0,0.0,0.0,0.0,0.0,0.0,3.0,1019.1,1014.3464,100.0,100.0,0.0,100.0,1740.0,12.24,22.33161,24.144165,25.6233,90.0,91.84757,92.56372,94.02819,28.8,3.4455001,3.0455,2.7455
1466,2025-12-22 02:00:00+00:00,4.0455,95.0,3.3166044,0.49238634,0.0,0.0,0.0,0.0,0.0,0.0,3.0,1019.2,1014.4402,100.0,100.0,0.0,66.0,1220.0,13.698934,24.490587,26.642431,28.442278,86.98728,88.31535,89.2258,90.72521,29.88,3.0455,2.7455,2.4455001
1467,2025-12-22 03:00:00+00:00,3.4955,96.0,2.917634,-0.08873081,0.0,0.0,0.0,0.0,0.0,0.0,3.0,1018.7,1013.933,100.0,100.0,0.0,100.0,480.0,13.397612,23.499481,26.009842,27.419146,83.829926,84.7262,85.23644,86.236046,30.239998,2.6455,2.2455,1.9455
1468,2025-12-22 04:00:00+00:00,3.3455,95.0,2.6207223,-0.28838468,0.0,0.0,0.0,0.0,0.0,0.0,3.0,1018.4,1013.6319,100.0,100.0,0.0,100.0,880.0,13.363711,23.803596,26.302181,27.729347,85.364624,86.531845,87.64676,88.51217,29.88,2.3455,2.0455,1.7455001
1469,2025-12-22 05:00:00+00:00,3.1955001,94.0,2.322789,-0.53828144,0.0,0.0,0.0,0.0,0.0,0.0,3.0,1019.1,1014.32605,100.0,100.0,10.0,84.0,2020.0,13.679999,24.850431,27.381308,29.574827,90.0,91.66025,92.26045,93.48926,30.599998,2.2455,1.8455,1.4455
1470,2025-12-22 06:00:00+00:00,3.0955,96.0,2.5195053,-0.49866676,0.0,0.0,0.0,0.0,0.0,0.0,3.0,1018.6,1013.8265,100.0,100.0,3.0,35.0,640.0,12.964998,23.40277,25.570139,27.397867,88.4089,90.881386,91.6135,93.012726,30.960001,2.1455,1.8455,1.5455
1471,2025-12-22 07:00:00+00:00,2.9455001,96.0,2.3702066,-0.692997,0.0,0.0,0.0,0.0,0.0,0.0,3.0,1018.6,1013.8239,100.0,100.0,32.0,24.0,760.0,13.084402,23.893261,26.368616,28.856194,82.09293,83.94591,85.30141,86.423744,29.519999,2.0455,1.7455001,1.3455
1472,2025-12-22 08:00:00+00:00,3.0955,95.0,2.3721902,-0.52446413,0.0,0.0,0.0,0.0,0.0,0.0,3.0,1018.7,1013.926,100.0,100.0,5.0,3.0,740.0,12.959999,24.130743,26.661882,29.239891,90.0,91.70978,92.32148,94.23632,29.519999,2.1455,1.8455,1.5455
1473,2025-12-22 09:00:00+00:00,3.2455,95.0,2.52131,-0.417732,0.0,0.0,0.0,0.0,0.0,0.0,3.0,1019.0,1014.2272,100.0,100.0,0.0,16.0,600.0,13.441071,24.858253,26.758923,28.312117,97.69597,100.00792,100.85637,101.73855,30.599998,2.2455,1.9455,1.5455
1474,2025-12-22 10:00:00+00:00,3.5955,93.0,2.5692468,-0.014881134,0.0,0.0,0.0,0.0,0.0,0.0,3.0,1018.8,1014.03406,100.0,100.0,0.0,9.0,1760.0,13.138765,23.863409,26.552288,28.551426,99.46225,101.3099,102.5288,103.86105,30.239998,2.5455,2.1455,1.7455001
1475,2025-12-22 11:00:00+00:00,3.8455,90.0,2.3553398,0.17657757,0.0,0.0,0.0,0.0,0.0,0.0,3.0,1018.5,1013.7399,100.0,100.0,0.0,0.0,5880.0,13.276144,23.664352,26.282465,27.852928,102.5288,103.19062,103.46522,104.21589,32.399998,2.8455,2.3455,1.9455
1476,2025-12-22 12:00:00+00:00,3.1455,94.0,2.2731426,-0.8171272,0.0,0.0,0.0,0.0,0.0,0.0,3.0,1018.6,1013.82745,100.0,100.0,0.0,0.0,520.0,15.188415,27.153164,29.339449,31.92654,95.44024,96.08843,96.340096,97.12492,30.239998,2.0455,1.7455001,1.3455
1477,2025-12-22 13:00:00+00:00,3.0955,93.0,2.0733945,-0.741066,0.0,0.0,0.0,0.0,0.0,0.0,3.0,1018.6,1013.8265,100.0,100.0,0.0,0.0,1140.0,14.081478,25.364037,27.908709,29.784426,94.39862,96.519714,96.666565,97.64032,34.92,2.0455,1.6455001,1.2455001
1478,2025-12-22 14:00:00+00:00,3.1455,91.0,1.818316,-0.6252217,0.0,0.0,0.0,0.0,0.0,0.0,3.0,1018.9,1014.1261,100.0,100.0,0.0,0.0,5120.0,13.324863,24.144165,26.67889,28.137634,91.54813,92.56372,93.093994,93.66772,30.960001,2.1455,1.6455001,1.1455001
1479,2025-12-22 15:00:00+00:00,2.3955,93.0,1.3791882,-1.4036894,0.0,0.0,0.0,0.0,0.0,0.0,3.0,1018.9,1014.113,100.0,100.0,0.0,0.0,2900.0,13.004921,23.084955,24.863468,26.28986,85.23644,86.423744,87.5105,88.43069,29.519999,1.3455,0.94549996,0.5455
1480,2025-12-22 16:00:00+00:00,2.1955001,92.0,1.0304041,-1.605741,0.0,0.0,0.0,0.0,0.0,0.0,51.0,1019.3,1014.50757,100.0,100.0,0.0,0.0,3560.0,12.620554,22.691425,25.20257,26.282465,86.729576,88.18174,89.18157,89.215195,28.44,1.2455001,0.74549997,0.34550002
1481,2025-12-22 17:00:00+00:00,2.1455,90.0,0.6757299,-1.8499427,0.0,0.0,0.0,0.0,0.0,0.0,51.0,1019.7,1014.9051,100.0,100.0,0.0,0.0,5960.0,13.556282,24.442911,26.576681,27.952787,79.28693,80.67649,81.43095,82.6005,29.88,1.1455001,0.6455,0.1455
1482,2025-12-22 18:00:00+00:00,1.5455,91.0,0.23546517,-2.5031464,0.0,0.0,0.0,0.0,0.0,0.0,51.0,1020.0,1015.1932,100.0,100.0,0.0,0.0,4980.0,13.441071,24.933735,27.804028,29.934166,82.30404,85.03035,85.54449,86.55268,29.88,0.5455,0.045500003,-0.4545
1483,2025-12-22 19:00:00+00:00,1.3955001,89.0,-0.21921273,-2.688528,0.0,0.0,0.0,0.0,0.0,0.0,51.0,1019.9,1015.0911,100.0,100.0,0.0,0.0,7580.0,13.202726,24.442911,27.343414,30.811037,78.996506,80.67649,80.9098,83.29026,31.319998,0.44550002,-0.0545,-0.55450004
1484,2025-12-22 20:00:00+00:00,1.5955,88.0,-0.17753488,-2.4532924,0.0,0.0,0.0,0.0,0.0,0.0,3.0,1020.0,1015.19415,100.0,100.0,0.0,0.0,9620.0,13.004921,24.522316,27.381308,29.528778,85.23644,86.63361,87.73955,88.60285,30.239998,0.6455,0.1455,-0.4545
1485,2025-12-22 21:00:00+00:00,1.3455,91.0,0.037600983,-2.6476884,0.0,0.0,0.0,0.0,0.0,0.0,3.0,1020.6,1015.78687,100.0,100.0,0.0,0.0,5100.0,12.849528,24.087738,27.698952,29.427662,78.6901,80.53775,81.02746,82.266495,29.16,0.34550002,-0.0545,-0.55450004
1486,2025-12-22 22:00:00+00:00,1.5455,91.0,0.23546517,-2.427879,0.0,0.0,0.0,0.0,0.0,0.0,3.0,1020.4,1015.5913,100.0,100.0,0.0,0.0,6240.0,12.9249525,23.795427,26.693459,30.54701,77.125,79.540146,79.90256,81.86999,30.239998,0.6455,0.2455,-0.2545
1487,2025-12-22 23:00:00+00:00,1.7955,90.0,0.32991046,-2.3202171,0.0,0.0,0.0,0.0,0.0,0.0,51.0,1020.7,1015.89435,100.0,100.0,0.0,0.0,6660.0,14.003029,26.309572,29.175552,30.563978,72.03077,73.300674,74.248764,74.98159,30.239998,0.8455,0.34550002,-0.15450001
1488,2025-12-23 00:00:00+00:00,1.4955001,89.0,-0.120529704,-2.6096265,0.0,0.0,0.0,0.0,0.0,0.0,51.0,1021.3,1016.4861,100.0,100.0,0.0,0.0,9200.0,13.450708,24.798223,27.684914,30.85307,74.47583,76.56896,77.22876,78.55899,31.319998,0.6455,0.1455,-0.3545
1489,2025-12-23 01:00:00+00:00,1.5455,88.0,-0.22681269,-2.80797,0.0,0.0,0.0,0.0,0.0,0.0,51.0,1021.5,1016.6861,100.0,100.0,0.0,0.0,9720.0,15.042659,27.66384,30.861471,33.280045,68.96242,71.80074,73.0446,74.309944,32.399998,0.6455,0.1455,-0.3545
1490,2025-12-23 02:00:00+00:00,1.6955,88.0,-0.07897928,-2.4179158,3.0,0.0,0.0,0.0,0.0,0.0,51.0,1021.7,1016.8877,100.0,100.0,0.0,0.0,10520.0,13.5515,25.764534,29.427658,32.569557,73.009094,74.60439,75.113686,76.578156,32.039997,0.8455,0.34550002,-0.2545
1491,2025-12-23 03:00:00+00:00,1.4955001,86.0,-0.591973,-2.8612998,0.0,0.0,0.0,0.0,0.0,0.0,51.0,1021.1,1016.287,100.0,100.0,0.0,0.0,13180.0,14.689589,27.595825,30.911821,33.441265,72.89719,74.875946,75.1545,75.664536,33.12,0.6455,0.1455,-0.4545
1492,2025-12-23 04:00:00+00:00,1.3455,86.0,-0.7394239,-3.1336713,0.0,0.0,0.0,0.0,0.0,0.0,3.0,1020.7,1015.8864,100.0,100.0,0.0,0.0,13420.0,15.379206,28.385262,31.608328,33.790176,73.68607,74.55363,75.48891,75.815674,33.48,0.44550002,-0.0545,-0.6545
1493,2025-12-23 05:00:00+00:00,1.3455,85.0,-0.89962035,-3.1080058,0.0,0.0,0.0,0.0,0.0,0.0,3.0,1021.4,1016.5831,100.0,100.0,0.0,0.0,16740.0,15.042659,27.897097,31.193535,34.04047,68.96242,70.39582,71.14675,72.13982,33.12,0.44550002,-0.0545,-0.55450004
1494,2025-12-23 06:00:00+00:00,1.6455001,83.0,-0.93137556,-2.7610605,0.0,0.0,0.0,0.0,0.0,0.0,3.0,1022.3,1017.4839,100.0,100.0,0.0,0.0,20540.0,14.689589,27.345785,30.659237,33.626774,72.89719,73.95093,74.33178,74.47583,32.760002,0.74549997,0.2455,-0.2545
1495,2025-12-23 07:00:00+00:00,1.7955,79.0,-1.4593451,-2.752235,0.0,0.0,0.0,0.0,0.0,0.0,3.0,1022.3,1017.4868,100.0,100.0,0.0,0.0,30140.0,15.141414,28.691795,32.343952,35.208294,71.99575,72.47434,73.17851,73.97407,33.12,0.94549996,0.44550002,-0.0545
1496,2025-12-23 08:00:00+00:00,1.6955,77.0,-1.9052827,-3.0565648,0.0,0.0,0.0,0.0,0.0,0.0,3.0,1023.5,1018.67926,100.0,100.0,0.0,0.0,33440.0,16.1198,29.882166,33.497414,36.885506,66.29735,68.070366,69.22767,71.21129,35.28,0.8455,0.44550002,-0.15450001
1497,2025-12-23 09:00:00+00:00,1.8455,74.0,-2.2985518,-3.2383294,0.0,0.0,0.0,0.0,0.0,0.0,3.0,1024.1,1019.27893,100.0,100.0,0.0,0.0,39440.0,18.03237,33.497414,37.44692,40.68,86.56644,88.15243,88.89832,90.0,36.719997,0.94549996,0.44550002,-0.15450001
1498,2025-12-23 10:00:00+00:00,2.1955001,72.0,-2.3314798,-2.4902942,0.0,0.0,0.0,0.0,0.0,0.0,3.0,1024.1,1019.285,100.0,100.0,0.0,0.0,43340.0,15.273505,27.551172,30.77105,33.2781,81.86999,83.24652,83.956,84.41286,39.239998,1.2455001,0.74549997,0.1455
1499,2025-12-23 11:00:00+00:00,2.5955,67.0,-2.918831,-2.4960694,0.0,0.0,0.0,0.0,0.0,0.0,3.0,1024.6,1019.78973,100.0,100.0,0.0,0.0,51860.0,17.533146,31.89608,35.457714,37.894165,70.8209,73.61038,74.69381,75.69969,37.44,1.5455,1.0455,0.44550002
1500,2025-12-23 12:00:00+00:00,2.4455001,66.0,-3.264176,-2.5839386,0.0,0.0,0.0,0.0,0.0,0.0,3.0,1024.9,1020.08575,100.0,100.0,0.0,0.0,52500.0,16.808569,30.190672,33.449017,35.589054,80.13426,81.77337,81.9572,82.44375,40.68,1.4455,0.8455,0.34550002
1501,2025-12-23 13:00:00+00:00,2.6955001,67.0,-2.8232713,-2.0996292,0.0,0.0,0.0,0.0,0.0,0.0,3.0,1025.6,1020.78687,100.0,100.0,0.0,0.0,51480.0,15.5843,27.908709,31.129074,33.672993,83.367584,83.333435,84.02577,83.86284,34.92,1.6455001,1.1455001,0.5455
1502,2025-12-23 14:00:00+00:00,2.7455,65.0,-3.1832058,-1.9460199,0.0,0.0,0.0,0.0,0.0,0.0,3.0,1025.9,1021.08624,100.0,100.0,0.0,0.0,55760.0,14.561099,26.932714,29.784426,31.97319,81.46932,81.54506,82.35969,82.234924,36.36,1.8455,1.3455,0.74549997
1503,2025-12-23 15:00:00+00:00,2.7955,60.0,-4.2062407,-2.0101242,0.0,0.0,0.0,0.0,0.0,0.0,3.0,1026.2,1021.38574,77.0,77.0,0.0,0.0,64260.0,14.494192,26.6327,29.519999,32.335934,75.61857,76.715126,77.319626,78.4399,35.28,2.0455,1.5455,1.0455
1504,2025-12-23 16:00:00+00:00,2.6455,63.0,-3.6971164,-1.79916,0.0,0.0,0.0,0.0,0.0,0.0,2.0,1026.3,1021.4827,73.0,73.0,0.0,0.0,60060.0,12.43434,23.34455,26.867676,31.104082,67.8905,70.167786,72.05051,73.87235,29.16,1.9455,1.5455,1.0455
1505,2025-12-23 17:00:00+00:00,2.5455,66.0,-3.1687746,-1.375617,0.0,0.0,0.0,0.0,0.0,0.0,3.0,1026.9,1022.07806,99.0,99.0,0.0,0.0,54660.0,9.290511,17.782686,21.749483,29.024128,54.46224,58.240574,61.313953,66.61476,25.199999,1.8455,1.4455,1.1455001
1506,2025-12-23 18:00:00+00:00,3.5455,59.0,-3.7233438,-1.0504179,0.0,0.0,0.0,0.0,0.0,0.0,3.0,1028.0,1023.1904,100.0,100.0,0.0,0.0,64260.0,13.450708,25.14852,28.664682,31.427404,74.47583,76.75947,78.40785,80.10615,22.68,2.8455,2.3455,1.8455
1507,2025-12-23 19:00:00+00:00,2.8455,70.0,-2.0877116,-1.1804161,0.0,0.0,0.0,0.0,0.0,0.0,2.0,1028.7,1023.875,74.0,74.0,0.0,0.0,48760.0,10.97262,20.304129,23.86341,32.535713,48.99101,52.92685,56.07016,65.13633,27.0,2.1455,1.7455001,1.4455
1508,2025-12-23 20:00:00+00:00,2.4455001,71.0,-2.280041,-1.6662326,0.0,0.0,0.0,0.0,0.0,0.0,1.0,1029.4,1024.5646,20.0,20.0,0.0,0.0,45840.0,11.384198,21.794127,26.576681,34.69847,55.304783,59.19863,61.69934,67.42583,26.28,1.8455,1.4455,1.3455
1509,2025-12-23 21:00:00+00:00,1.8955001,76.0,-1.888724,-2.6295514,0.0,0.0,0.0,0.0,0.0,0.0,2.0,1029.4,1024.5549,72.0,72.0,0.0,0.0,36020.0,14.57889,27.475807,31.614477,36.402744,57.094753,58.392544,59.93151,61.66097,29.88,1.2455001,0.8455,0.34550002
1510,2025-12-23 22:00:00+00:00,1.2455001,78.0,-2.167505,-3.1001272,0.0,0.0,0.0,0.0,0.0,0.0,0.0,1029.8,1024.9415,0.0,0.0,0.0,0.0,32080.0,13.089354,24.967497,28.97944,33.043606,58.495792,61.587433,63.435013,66.227646,31.68,0.6455,0.2455,-0.2545
1511,2025-12-23 23:00:00+00:00,0.5955,78.0,-2.7994928,-3.846807,0.0,0.0,0.0,0.0,0.0,0.0,0.0,1030.0,1025.1293,7.0,7.0,0.0,0.0,32100.0,13.18308,24.962307,28.58545,33.50128,55.0079,56.768288,58.912556,61.782738,27.359999,-0.0545,-0.4545,-0.8545
1512,2025-12-24 00:00:00+00:00,0.1455,80.0,-2.896685,-4.5057626,0.0,0.0,0.0,0.0,0.0,0.0,1.0,1030.9,1026.017,3.0,3.0,0.0,0.0,27280.0,14.529915,27.103003,31.259941,35.864746,48.01287,50.389355,51.546265,54.395382,29.519999,-0.4545,-0.8545,-1.3544999
1513,2025-12-24 01:00:00+00:00,-0.1045,81.0,-2.973454,-4.6968355,0.0,0.0,0.0,0.0,0.0,0.0,0.0,1031.3,1026.4106,0.0,0.0,0.0,0.0,26860.0,14.05845,26.42753,30.173496,35.346058,50.194473,52.193413,54.223835,56.63362,29.88,-0.75450003,-1.1545,-1.6545
1514,2025-12-24 02:00:00+00:00,-0.30449998,82.0,-3.003832,-4.8268046,0.0,0.0,0.0,0.0,0.0,0.0,0.0,1032.0,1027.1038,0.0,0.0,0.0,0.0,22820.0,13.551501,25.133053,28.876396,34.458603,50.389355,51.981007,54.130085,57.804302,29.519999,-1.0545,-1.4545,-1.8544999
1515,2025-12-24 03:00:00+00:00,-0.6545,82.0,-3.3460963,-5.3017397,0.0,0.0,0.0,0.0,0.0,0.0,1.0,1031.6,1026.6991,10.0,10.0,0.0,0.0,21360.0,14.113652,25.992401,29.46287,32.44996,52.253136,53.447433,54.950554,56.3099,29.16,-1.4545,-1.8544999,-2.3545
1516,2025-12-24 04:00:00+00:00,-0.75450003,78.0,-4.1122327,-5.4317193,0.0,0.0,0.0,0.0,0.0,0.0,0.0,1031.7,1026.7971,0.0,0.0,0.0,0.0,30320.0,13.684735,24.962307,28.277763,30.811037,54.63746,56.768288,58.53591,59.840027,29.16,-1.5545,-1.9545,-2.4545
1517,2025-12-24 05:00:00+00:00,-1.0545,77.0,-4.575398,-5.6518593,0.0,0.0,0.0,0.0,0.0,0.0,1.0,1032.5,1027.5879,23.0,23.0,0.0,0.0,32760.0,12.768586,23.113008,26.282465,29.5551,49.574005,52.594578,53.914837,55.922764,28.44,-1.8544999,-2.2545,-2.7545
1518,2025-12-24 06:00:00+00:00,-1.2544999,77.0,-4.769623,-5.9656553,0.0,0.0,0.0,0.0,0.0,0.0,2.0,1033.7,1028.7786,69.0,69.0,0.0,0.0,32420.0,13.397612,24.162947,26.727423,28.820242,59.300358,61.525894,62.744755,64.07516,27.359999,-2.0544999,-2.5544999,-3.1545
1519,2025-12-24 07:00:00+00:00,-1.4045,76.0,-5.088208,-6.148365,0.0,0.0,0.0,0.0,0.0,0.0,2.0,1033.6,1028.6761,75.0,75.0,0.0,0.0,33820.0,13.37825,24.20314,27.14123,29.28418,66.19405,67.24899,68.19853,69.11413,28.08,-2.2545,-2.7545,-3.3545
1520,2025-12-24 08:00:00+00:00,-1.8045,74.0,-5.826953,-6.885024,0.0,0.0,0.0,0.0,0.0,0.0,3.0,1034.4,1029.4652,91.0,91.0,0.0,0.0,38120.0,15.141414,26.415268,28.691795,30.173496,71.99575,72.55273,72.47434,72.64589,31.68,-2.7545,-3.2545,-3.8545
1521,2025-12-24 09:00:00+00:00,-2.1545,73.0,-6.3434696,-7.139118,0.0,0.0,0.0,0.0,0.0,0.0,3.0,1034.9,1029.9564,100.0,100.0,0.0,0.0,37960.0,14.118243,24.248613,26.072052,27.103,70.640915,71.833954,72.31551,73.009094,31.319998,-3.2545,-3.8545,-4.4545
1522,2025-12-24 10:00:00+00:00,-2.3545,70.0,-7.0832686,-7.3654947,0.0,0.0,0.0,0.0,0.0,0.0,3.0,1034.9,1029.9529,94.0,94.0,0.0,0.0,43500.0,13.797913,23.143827,24.975283,26.111792,74.875946,74.66666,74.962135,74.81411,30.599998,-3.5544999,-4.0545,-4.6545
1523,2025-12-24 11:00:00+00:00,-2.3044999,67.0,-7.603395,-7.4485354,0.0,0.0,0.0,0.0,0.0,0.0,2.0,1035.4,1030.4514,74.0,74.0,0.0,0.0,49120.0,14.372974,23.469128,24.94413,25.744402,67.93205,69.34101,69.73422,69.53765,30.960001,-3.5544999,-4.1545,-4.6545
1524,2025-12-24 12:00:00+00:00,-1.7045,67.0,-7.02955,-6.8683357,0.0,0.0,0.0,0.0,0.0,0.0,2.0,1034.9,1029.9648,76.0,76.0,0.0,0.0,49800.0,14.88242,24.881702,26.486313,27.288855,57.84773,58.609787,58.90276,59.03632,31.68,-2.9545,-3.5544999,-4.1545
1525,2025-12-24 13:00:00+00:00,-2.0544999,67.0,-7.3642845,-7.335088,0.0,0.0,0.0,0.0,0.0,0.0,2.0,1035.4,1030.4559,77.0,77.0,0.0,0.0,48380.0,15.463246,26.099379,28.03612,29.168886,65.22488,65.55606,65.738716,65.96571,33.839996,-3.3545,-3.8545,-4.4545
1526,2025-12-24 14:00:00+00:00,-2.2545,64.0,-8.14711,-7.468381,0.0,0.0,0.0,0.0,0.0,0.0,2.0,1035.9,1030.9501,48.0,48.0,0.0,0.0,54460.0,14.512064,25.338476,26.944744,28.079998,66.61476,67.44272,67.203445,67.3801,33.48,-3.4545,-3.9545,-4.5545
1527,2025-12-24 15:00:00+00:00,-2.8044999,66.0,-8.275292,-8.147131,0.0,0.0,0.0,0.0,0.0,0.0,1.0,1036.0,1031.0396,59.0,59.0,0.0,0.0,51280.0,15.315873,26.807312,28.948118,30.085318,66.44773,67.91278,68.86011,68.96242,33.48,-3.9545,-4.4545,-5.0545
1528,2025-12-24 16:00:00+00:00,-3.2045,65.0,-8.852933,-8.4899435,0.0,0.0,0.0,0.0,0.0,0.0,1.0,1036.1,1031.1317,39.0,39.0,0.0,0.0,53560.0,14.578888,25.501621,27.66384,29.144438,69.775055,71.053406,71.80074,72.01258,33.48,-4.2545004,-4.8545003,-5.3545003
1529,2025-12-24 17:00:00+00:00,-3.5045,63.0,-9.537453,-8.885485,0.0,0.0,0.0,0.0,0.0,0.0,0.0,1036.9,1031.9224,0.0,0.0,0.0,0.0,57120.0,14.84318,26.282465,28.467329,30.302078,75.96373,76.53478,76.84245,76.95436,32.399998,-4.5545,-5.0545,-5.6545
1530,2025-12-24 18:00:00+00:00,-4.3545003,65.0,-9.949528,-9.666929,0.0,0.0,0.0,0.0,0.0,0.0,0.0,1037.2,1032.205,0.0,0.0,0.0,0.0,54760.0,14.145756,25.233406,28.1169,29.951483,75.25639,75.96373,76.67546,76.798904,32.399998,-5.3545003,-5.8545003,-6.4545
1531,2025-12-24 19:00:00+00:00,-4.7045,64.0,-10.479242,-10.023657,0.0,0.0,0.0,0.0,0.0,0.0,0.0,1037.6,1032.5966,0.0,0.0,0.0,0.0,56760.0,13.910169,24.858253,27.698952,30.190672,79.56258,79.99209,81.02746,81.77337,31.68,-5.6545,-6.1545,-6.7545004
1532,2025-12-24 20:00:00+00:00,-5.1045003,67.0,-10.282175,-10.3054905,0.0,0.0,0.0,0.0,0.0,0.0,0.0,1038.3,1033.2858,0.0,0.0,0.0,0.0,50600.0,13.202726,23.377836,25.86494,28.001427,78.996506,80.24765,81.19329,81.86999,29.88,-6.0545,-6.5545,-7.0545
1533,2025-12-24 21:00:00+00:00,-5.6545,73.0,-9.723653,-10.811726,0.0,0.0,0.0,0.0,0.0,0.0,0.0,1038.8,1033.7734,4.0,4.0,0.0,0.0,39280.0,13.202726,23.377836,25.153671,26.576681,78.996506,80.24765,80.94219,81.43095,28.44,-6.6545,-7.1545,-7.6545
1534,2025-12-24 22:00:00+00:00,-5.9545,75.0,-9.670326,-11.046423,0.0,0.0,0.0,0.0,0.0,0.0,1.0,1038.8,1033.7675,3.0,3.0,0.0,0.0,34700.0,12.783802,22.19773,23.97989,25.40743,80.2725,81.60716,82.234924,82.67369,29.16,-6.9545,-7.4545,-8.054501
1535,2025-12-24 23:00:00+00:00,-6.2545004,76.0,-9.792901,-11.283937,0.0,0.0,0.0,0.0,0.0,0.0,1.0,1038.8,1033.762,21.0,21.0,0.0,0.0,31840.0,12.287555,21.316135,23.110207,24.187069,84.95764,85.15609,85.53293,85.73219,27.72,-7.2545004,-7.7545004,-8.3545
1536,2025-12-25 00:00:00+00:00,-6.6545,76.0,-10.181044,-11.769098,0.0,0.0,0.0,0.0,0.0,0.0,1.0,1039.2,1034.1525,23.0,23.0,0.0,0.0,31140.0,12.661564,21.479666,23.313995,24.64094,75.17348,76.42955,76.60749,78.19759,27.0,-7.7545004,-8.2545,-8.7545
1537,2025-12-25 01:00:00+00:00,-6.9045,76.0,-10.423644,-12.152899,0.0,0.0,0.0,0.0,0.0,0.0,1.0,1038.8,1033.7498,19.0,19.0,0.0,0.0,33020.0,13.450708,23.491207,25.582806,27.333935,74.47583,74.89885,76.15928,77.06194,29.519999,-7.9545,-8.4545,-8.9545
1538,2025-12-25 02:00:00+00:00,-7.1545,76.0,-10.666252,-12.361366,0.0,0.0,0.0,0.0,0.0,0.0,1.0,1038.6,1033.5458,13.0,13.0,0.0,0.0,33400.0,13.039754,22.81957,24.609364,26.042212,83.659904,83.659904,84.1227,84.44713,29.16,-8.1545,-8.6545,-9.2545
1539,2025-12-25 03:00:00+00:00,-7.7545004,79.0,-10.761943,-12.858962,0.0,0.0,0.0,0.0,0.0,0.0,1.0,1038.6,1033.5343,60.0,60.0,0.0,0.0,26880.0,12.287555,21.288757,23.084955,24.162945,84.95764,86.12155,86.423744,86.58348,28.08,-8.7545,-9.2545,-9.8545
1540,2025-12-25 04:00:00+00:00,-8.0045,79.0,-11.005595,-13.074711,0.0,0.0,0.0,0.0,0.0,0.0,2.0,1038.0,1032.9325,60.0,60.0,0.0,0.0,26700.0,11.928989,20.598795,22.392462,23.803596,84.805664,84.98698,85.38944,86.531845,27.359999,-9.054501,-9.554501,-10.1545
1541,2025-12-25 05:00:00+00:00,-8.1545,79.0,-11.151791,-13.074238,0.0,0.0,0.0,0.0,0.0,0.0,1.0,1038.8,1033.7261,17.0,17.0,0.0,0.0,27000.0,10.823973,18.391735,19.829433,21.9718,86.186005,86.633606,86.87794,88.12216,25.56,-9.1545,-9.6545,-10.1545
1542,2025-12-25 06:00:00+00:00,-8.2045,79.0,-11.200522,-13.258552,0.0,0.0,0.0,0.0,0.0,0.0,0.0,1038.7,1033.6255,0.0,0.0,0.0,0.0,26680.0,11.720751,20.774214,22.91026,24.693481,79.380394,81.02746,81.86999,82.46065,25.199999,-9.1545,-9.6545,-10.1545
1543,2025-12-25 07:00:00+00:00,-8.3545,78.0,-11.506256,-13.414203,0.0,0.0,0.0,0.0,0.0,0.0,0.0,1038.7,1033.6226,0.0,0.0,0.0,0.0,28160.0,11.609651,20.991426,23.469128,26.67889,82.875084,84.093956,85.60138,86.906006,25.56,-9.2545,-9.7545,-10.2545
1544,2025-12-25 08:00:00+00:00,-8.4545,77.0,-11.764824,-13.578881,0.0,0.0,0.0,0.0,0.0,0.0,0.0,1038.8,1033.7202,0.0,0.0,0.0,0.0,30360.0,11.928989,21.288757,23.78453,27.722336,84.805664,86.12155,87.3975,89.25597,25.919998,-9.3545,-9.8545,-10.3545
1545,2025-12-25 09:00:00+00:00,-8.2545,79.0,-11.249253,-13.312074,0.0,0.0,0.0,0.0,0.0,0.0,0.0,1039.3,1034.2217,5.0,5.0,0.0,0.0,25380.0,11.720751,20.008356,21.791153,23.219301,79.380394,81.7242,82.40546,82.875084,26.28,-9.3545,-9.8545,-10.3545
1546,2025-12-25 10:00:00+00:00,-7.6545,74.0,-11.485777,-12.542924,0.0,0.0,0.0,0.0,0.0,0.0,0.0,1038.5,1033.4368,0.0,0.0,0.0,0.0,35500.0,10.446206,17.654688,19.09358,20.523155,88.025116,87.66274,87.838974,88.99494,26.28,-8.7545,-9.2545,-9.8545
1547,2025-12-25 11:00:00+00:00,-6.9045,69.0,-11.637868,-11.618542,0.0,0.0,0.0,0.0,0.0,0.0,0.0,1038.1,1033.0531,0.0,0.0,0.0,0.0,44980.0,9.178235,14.332341,15.111424,16.24394,101.3099,101.59215,102.38075,102.80426,22.68,-8.054501,-8.554501,-9.1545
1548,2025-12-25 12:00:00+00:00,-5.6045003,66.0,-10.949928,-10.142504,0.0,0.0,0.0,0.0,0.0,0.0,0.0,1037.6,1032.5797,0.0,0.0,0.0,0.0,52080.0,8.311245,12.522619,13.207634,13.896187,72.34979,71.564964,72.55273,73.442856,20.880001,-6.7545004,-7.2545004,-7.7545004
1549,2025-12-25 13:00:00+00:00,-4.9045,63.0,-10.868014,-9.540962,0.0,0.0,0.0,0.0,0.0,0.0,0.0,1036.9,1031.8964,0.0,0.0,0.0,0.0,56320.0,9.028754,13.570615,14.24163,15.042659,66.50142,68.19853,69.27436,68.96242,19.8,-6.0545,-6.5545,-7.0545
1550,2025-12-25 14:00:00+00:00,-4.6545,63.0,-10.630386,-9.294996,0.0,0.0,0.0,0.0,0.0,0.0,0.0,1037.2,1032.1995,0.0,0.0,0.0,0.0,57940.0,9.178235,15.463246,16.1198,16.92383,64.440094,65.22488,66.29735,66.161255,20.880001,-5.6545,-6.1545,-6.6545
1551,2025-12-25 15:00:00+00:00,-4.3545003,62.0,-10.547327,-9.013163,0.0,0.0,0.0,0.0,0.0,0.0,0.0,1036.1,1031.1102,0.0,0.0,0.0,0.0,60300.0,9.346143,16.676977,18.161278,19.914217,74.3577,76.26372,76.2392,77.4712,20.880001,-5.1545,-5.6545,-6.1545
1552,2025-12-25 16:00:00+00:00,-4.9545,65.0,-10.521762,-9.570283,0.0,0.0,0.0,0.0,0.0,0.0,0.0,1035.8,1030.8008,0.0,0.0,0.0,0.0,55660.0,9.0645685,16.65754,18.448023,25.223133,83.15732,83.796646,84.40076,87.54603,20.16,-5.7545004,-6.1545,-6.5545
1553,2025-12-25 17:00:00+00:00,-5.3545003,67.0,-10.521418,-10.014433,0.0,0.0,0.0,0.0,0.0,0.0,0.0,1036.5,1031.4899,0.0,0.0,0.0,0.0,52640.0,9.3669195,16.954432,19.110542,28.30983,92.20255,93.65215,93.23964,97.30567,20.16,-6.1545,-6.6545,-6.8545003
1554,2025-12-25 18:00:00+00:00,-5.8045,68.0,-10.76564,-10.430408,0.0,0.0,0.0,0.0,0.0,0.0,0.0,1035.8,1030.785,0.0,0.0,0.0,0.0,50520.0,9.007196,16.563911,19.08,27.153164,87.70944,88.75467,90.0,96.08843,20.16,-6.6545,-7.0545,-7.0545
1555,2025-12-25 19:00:00+00:00,-6.1545,71.0,-10.557713,-10.728721,0.0,0.0,0.0,0.0,0.0,0.0,0.0,1035.6,1030.5793,0.0,0.0,0.0,0.0,44560.0,8.759178,16.039202,20.192118,27.553526,99.46225,99.039406,101.3099,107.48808,19.8,-6.9545,-7.3545003,-7.1545
1556,2025-12-25 20:00:00+00:00,-6.4045,74.0,-10.276242,-10.647974,0.0,0.0,0.0,0.0,0.0,0.0,0.0,1035.7,1030.674,0.0,0.0,0.0,0.0,39400.0,6.638072,11.874544,16.62249,22.406927,102.5288,104.03627,107.650215,113.682106,19.44,-7.2545004,-7.5545,-7.4545
1557,2025-12-25 21:00:00+00:00,-6.9045,76.0,-10.423644,-11.085381,0.0,0.0,0.0,0.0,0.0,0.0,0.0,1036.4,1031.3613,0.0,0.0,0.0,0.0,33400.0,6.130579,9.746631,13.910169,18.11841,93.366394,94.23632,100.43742,110.95586,14.4,-7.7545004,-8.054501,-7.9545
1558,2025-12-25 22:00:00+00:00,-7.1045003,78.0,-10.289692,-11.235762,0.0,0.0,0.0,0.0,0.0,0.0,0.0,1036.0,1030.9594,0.0,0.0,0.0,0.0,29780.0,5.8603754,9.531505,13.797913,17.399586,100.619606,100.88548,105.12406,114.44395,13.679999,-7.9545,-8.2545,-7.9545
1559,2025-12-25 23:00:00+00:00,-7.1545,79.0,-10.177201,-11.106958,0.0,0.0,0.0,0.0,0.0,0.0,3.0,1035.9,1030.8589,100.0,0.0,0.0,100.0,28500.0,4.6938252,7.2359104,10.805999,13.797913,85.60138,84.2895,91.90912,105.12406,12.959999,-7.9545,-8.1545,-7.7545004
1560,2025-12-26 00:00:00+00:00,-7.5545,80.0,-10.4082155,-11.324343,0.0,0.0,0.0,0.0,0.0,0.0,3.0,1035.3,1030.2544,100.0,0.0,0.0,100.0,25560.0,3.319036,4.3349743,7.2,10.296251,130.60121,131.63345,126.86999,126.46933,10.440001,-8.4545,-8.554501,-7.9545
1561,2025-12-26 01:00:00+00:00,-7.4545,80.0,-10.310626,-11.216845,0.0,0.0,0.0,0.0,0.0,0.0,3.0,1035.6,1030.5548,98.0,0.0,10.0,96.0,26320.0,3.319036,4.452954,5.771239,7.6367526,77.4712,75.96373,86.423744,98.13002,8.64,-8.3545,-8.6545,-8.054501
1562,2025-12-26 02:00:00+00:00,-7.3545003,79.0,-10.372109,-11.060778,0.0,0.0,0.0,0.0,0.0,0.0,3.0,1035.9,1030.8553,100.0,0.0,53.0,100.0,26440.0,2.9024127,3.5455887,5.506941,8.647496,119.74479,113.962494,101.3099,92.385895,7.92,-8.2545,-8.4545,-7.3545003
1563,2025-12-26 03:00:00+00:00,-7.5045004,84.0,-9.741122,-11.044304,0.0,0.0,0.0,0.0,0.0,0.0,3.0,1035.2,1030.1558,100.0,0.0,83.0,100.0,16840.0,2.0991426,2.4149535,5.1544156,10.086427,120.96369,116.56499,102.09474,92.045364,7.2,-8.4545,-8.554501,-6.6545
1564,2025-12-26 04:00:00+00:00,-7.2045,82.0,-9.753357,-10.7218,0.0,0.0,0.0,0.0,0.0,0.0,3.0,1034.5,1029.4647,100.0,0.0,100.0,100.0,19900.0,1.9386592,2.2768397,5.0528407,9.3876505,111.801476,108.43504,94.08554,85.60138,5.3999996,-8.1545,-7.7545004,-5.3545003
1565,2025-12-26 05:00:00+00:00,-6.8545003,80.0,-9.725103,-10.303194,0.0,0.0,0.0,0.0,0.0,0.0,3.0,1034.6,1029.5709,99.0,0.0,73.0,98.0,24940.0,1.484318,1.835647,4.0249224,7.42159,75.96373,78.6901,79.69521,75.96373,6.8399997,-7.7545004,-7.0545,-4.9545
1566,2025-12-26 06:00:00+00:00,-6.8545003,83.0,-9.256331,-10.206064,0.0,0.0,0.0,0.0,0.0,0.0,2.0,1034.7,1029.6704,75.0,0.0,75.0,0.0,18580.0,1.08,1.4399999,3.096837,6.989936,90.0,90.0,54.46224,55.491425,3.6,-7.7545004,-7.5545,-5.4545
1567,2025-12-26 07:00:00+00:00,-6.6545,82.0,-9.215194,-10.1128025,0.0,0.0,0.0,0.0,0.0,0.0,1.0,1034.3,1029.2764,30.0,0.0,31.0,2.0,21460.0,1.835647,2.4149535,3.4152596,6.830519,281.3099,296.56497,341.56494,18.435053,4.68,-7.4545,-6.9545,-4.6545
1568,2025-12-26 08:00:00+00:00,-6.4045,81.0,-9.127417,-9.966315,0.0,0.0,0.0,0.0,0.0,0.0,2.0,1034.3,1029.2809,42.0,0.0,41.0,2.0,23700.0,2.5959969,3.6,1.835647,3.8773184,213.6901,233.13002,281.3099,21.801476,6.12,-7.1545,-6.3545003,-4.0545
1569,2025-12-26 09:00:00+00:00,-5.9045,78.0,-9.121954,-9.614771,0.0,0.0,0.0,0.0,0.0,0.0,1.0,1034.3,1029.2903,43.0,0.0,43.0,0.0,29160.0,3.6179552,4.379589,6.9247384,8.287822,275.7105,279.46225,297.8972,325.6196,8.28,-6.7545004,-6.3545003,-4.1545
1570,2025-12-26 10:00:00+00:00,-5.1045003,75.0,-8.8468075,-8.831621,0.0,0.0,0.0,0.0,0.0,0.0,0.0,1035.2,1030.2007,0.0,0.0,0.0,0.0,35420.0,3.8939953,4.6938257,8.161764,11.269782,303.6901,302.47116,318.57642,333.43503,9.36,-6.1545,-5.9545,-4.1545
1571,2025-12-26 11:00:00+00:00,-4.1045003,67.0,-9.325311,-7.9336214,0.0,0.0,0.0,0.0,0.0,0.0,0.0,1034.8,1029.8214,0.0,0.0,0.0,0.0,49720.0,4.32,5.4119864,8.427383,10.703569,270.0,273.814,289.9832,312.27362,11.159999,-5.1545,-5.3545003,-3.7545
1572,2025-12-26 12:00:00+00:00,-2.5045,61.0,-9.00054,-6.31059,0.0,0.0,0.0,0.0,0.0,0.0,0.0,1034.2,1029.2535,0.0,0.0,0.0,0.0,60980.0,4.3498964,5.8048253,7.42159,11.753877,294.44394,299.74478,309.09384,332.6502,11.5199995,-3.5544999,-3.9545,-3.0544999
1573,2025-12-26 13:00:00+00:00,-1.8544999,59.0,-8.812959,-5.578063,0.0,0.0,0.0,0.0,0.0,0.0,1.0,1034.2,1029.2651,37.0,37.0,0.0,0.0,63240.0,3.8939953,5.3999996,6.3690495,10.365251,303.6901,306.86996,312.70938,339.6768,10.440001,-2.8545,-3.3545,-2.5544999
1574,2025-12-26 14:00:00+00:00,-1.3544999,61.0,-7.9119577,-4.988738,0.0,0.0,0.0,0.0,0.0,0.0,3.0,1034.0,1029.0752,100.0,100.0,0.0,0.0,61420.0,3.8268526,4.8965297,7.42159,11.885453,318.81415,323.97253,337.1663,358.26434,9.36,-2.2545,-2.6545,-2.1545
1575,2025-12-26 15:00:00+00:00,-0.75450003,80.0,-3.7743487,-4.1833115,0.0,0.0,0.0,0.0,0.0,0.0,3.0,1034.1,1029.1857,100.0,100.0,0.0,0.0,27440.0,5.3999996,7.928178,9.565437,10.182337,270.0,272.6025,289.79895,315.0001,9.72,-1.6545,-1.9545,-2.3545
1576,2025-12-26 16:00:00+00:00,-0.75450003,84.0,-3.1205099,-3.787877,0.0,0.0,0.0,0.0,0.0,0.0,77.0,1034.2,1029.2852,100.0,100.0,0.0,0.0,17440.0,3.2399998,4.3349743,5.95906,7.289445,270.0,274.76355,295.01685,327.09476,11.879999,-1.6545,-1.9545,-1.9545
1577,2025-12-26 17:00:00+00:00,-0.7045,87.0,-2.5988133,-3.837335,0.0,0.0,0.0,0.0,0.0,0.0,77.0,1034.5,1029.5846,100.0,100.0,0.0,0.0,11960.0,4.379589,6.5693827,8.217153,8.707237,279.46225,279.46225,298.8107,330.25522,10.08,-1.5545,-1.6545,-1.2544999
1578,2025-12-26 18:00:00+00:00,-0.75450003,92.0,-1.8917993,-4.009146,0.0,0.0,0.0,0.0,0.0,0.0,77.0,1034.3,1029.3848,100.0,100.0,0.0,0.0,4540.0,5.8603754,9.0,11.183201,10.630672,280.6196,286.26028,303.17853,331.69934,13.32,-1.6545,-1.4545,-0.8545
1579,2025-12-26 19:00:00+00:00,-0.7045,92.0,-1.8422678,-4.078515,0.0,0.0,0.0,0.0,0.0,0.0,77.0,1035.0,1030.0822,100.0,100.0,0.0,0.0,5020.0,6.725354,10.931203,15.137133,14.05845,285.52417,287.24155,295.34613,309.8055,14.759999,-1.5545,-1.5545,-0.8545
1580,2025-12-26 20:00:00+00:00,-0.6545,91.0,-1.9411356,-3.9674842,0.0,0.0,0.0,0.0,0.0,0.0,3.0,1035.4,1030.4812,100.0,100.0,0.0,0.0,6340.0,6.2145634,10.739833,14.986553,14.021525,280.0079,283.57043,294.10223,311.87778,14.4,-1.4545,-1.2544999,-0.4545
1581,2025-12-26 21:00:00+00:00,-0.55450004,92.0,-1.6936733,-3.6117952,0.0,0.0,0.0,0.0,0.0,0.0,3.0,1035.2,1030.2839,100.0,100.0,0.0,0.0,4260.0,4.6938252,7.5599995,11.177405,9.885262,265.60138,270.0,284.93146,303.11136,13.32,-1.3544999,-1.2544999,-0.55450004
1582,2025-12-26 22:00:00+00:00,-0.50450003,92.0,-1.644142,-3.634828,0.0,0.0,0.0,0.0,0.0,0.0,77.0,1035.4,1030.4841,100.0,100.0,0.0,0.0,4440.0,5.2416787,8.654986,12.641076,13.217443,285.94547,286.92758,289.9832,299.35767,11.5199995,-1.3544999,-1.3544999,-0.6545
1583,2025-12-26 23:00:00+00:00,-0.55450004,93.0,-1.5465771,-3.8055296,0.0,0.0,0.0,0.0,0.0,0.0,56.0,1035.1,1030.1844,100.0,100.0,0.0,0.0,3700.0,6.162207,10.239453,14.145756,16.267857,276.70975,280.1246,284.74362,294.86368,13.679999,-1.3544999,-1.5545,-0.75450003
1584,2025-12-27 00:00:00+00:00,-0.4545,95.0,-1.1571254,-3.645913,0.0,0.0,0.0,0.0,0.0,0.0,45.0,1035.0,1030.0867,100.0,100.0,0.0,0.0,1820.0,6.130579,9.726665,13.339445,15.629971,266.6336,267.87894,273.094,284.67642,14.04,-1.3544999,-1.4545,-0.9545
1585,2025-12-27 01:00:00+00:00,-0.50450003,95.0,-1.2068361,-3.7554362,0.0,0.0,0.0,0.0,0.0,0.0,56.0,1034.9,1029.9865,100.0,100.0,0.0,0.0,2440.0,6.489992,11.165805,14.799459,18.511143,266.82022,268.15244,274.18484,283.49576,14.4,-1.3544999,-1.4545,-1.0545
1586,2025-12-27 02:00:00+00:00,-0.55450004,95.0,-1.256547,-3.927812,0.0,0.0,0.0,0.0,0.0,0.0,56.0,1034.0,1029.0897,100.0,100.0,0.0,0.0,2300.0,7.2805495,12.783802,17.114204,22.33161,278.53067,279.7275,284.6209,290.77234,15.84,-1.3544999,-1.5545,-1.0545
1587,2025-12-27 03:00:00+00:00,-0.4545,96.0,-1.0140184,-3.6821315,0.0,0.0,0.0,0.0,0.0,0.0,45.0,1033.4,1028.4943,100.0,100.0,0.0,0.0,940.0,6.519877,10.594036,14.934577,19.855558,276.3401,279.78235,285.3763,292.3802,16.919998,-1.2544999,-1.4545,-1.2544999
1588,2025-12-27 04:00:00+00:00,-0.4545,96.0,-1.0140184,-3.7411737,0.0,0.0,0.0,0.0,0.0,0.0,45.0,1033.0,1028.0962,100.0,100.0,0.0,0.0,1180.0,6.924738,11.212135,14.04,18.0036,261.02747,264.47256,270.0,281.53458,14.759999,-1.2544999,-1.5545,-1.4545
1589,2025-12-27 05:00:00+00:00,-0.55450004,95.0,-1.256547,-4.040001,0.0,0.0,0.0,0.0,0.0,0.0,56.0,1032.7,1027.7959,100.0,100.0,0.0,0.0,1620.0,8.049845,13.797912,15.226764,20.5484,259.69522,262.50424,263.21112,273.01273,17.64,-1.3544999,-1.7544999,-1.6545
1590,2025-12-27 06:00:00+00:00,-0.55450004,95.0,-1.256547,-4.204558,0.0,0.0,0.0,0.0,0.0,0.0,56.0,1032.3,1027.3978,100.0,100.0,0.0,0.0,2560.0,9.178235,16.039202,19.164719,25.241108,258.6901,260.9606,264.61078,273.27042,19.44,-1.3544999,-1.7544999,-1.4545
1591,2025-12-27 07:00:00+00:00,-0.55450004,94.0,-1.4008776,-4.319441,0.0,0.0,0.0,0.0,0.0,0.0,56.0,1032.0,1027.0992,100.0,100.0,0.0,2.0,2760.0,9.826088,17.373497,19.164719,25.959969,261.57312,264.05322,264.61078,273.17978,21.24,-1.4545,-1.8544999,-1.6545
1592,2025-12-27 08:00:00+00:00,-0.6545,95.0,-1.3559688,-4.510794,0.0,0.0,0.0,0.0,0.0,0.0,56.0,1031.2,1026.301,100.0,100.0,0.0,18.0,1660.0,10.495713,18.806337,20.570463,28.47643,264.09396,264.50778,265.9859,272.8985,23.039999,-1.5545,-1.8544999,-2.0544999
1593,2025-12-27 09:00:00+00:00,-0.7045,96.0,-1.2628672,-4.717389,0.0,0.0,0.0,0.0,0.0,0.0,3.0,1030.8,1025.9022,100.0,100.0,0.0,1.0,620.0,11.659777,20.598795,23.0653,28.100763,261.11942,264.98697,267.31628,272.20255,24.119999,-1.5545,-1.8544999,-2.1545
1594,2025-12-27 10:00:00+00:00,-0.75450003,96.0,-1.3126371,-5.093789,0.0,0.0,0.0,0.0,0.0,0.0,45.0,1029.1,1024.2095,100.0,100.0,0.0,0.0,600.0,13.849477,24.640942,27.086262,31.65135,242.10283,244.93256,246.50142,250.74062,29.519999,-1.6545,-1.9545,-2.2545
1595,2025-12-27 11:00:00+00:00,-0.55450004,96.0,-1.1135578,-4.935794,0.0,0.0,0.0,0.0,0.0,0.0,3.0,1028.7,1023.8148,100.0,100.0,0.0,0.0,520.0,14.332341,25.630886,28.174456,30.955812,258.40784,259.47928,259.69522,261.30457,30.599998,-1.4545,-1.7544999,-2.1545
1596,2025-12-27 12:00:00+00:00,-0.40449998,96.0,-0.96424884,-4.727658,0.0,0.0,0.0,0.0,0.0,0.0,56.0,1028.1,1023.2203,100.0,100.0,0.0,0.0,440.0,14.081478,25.582806,28.802248,32.407997,265.60138,267.58054,269.28384,271.273,31.319998,-1.2544999,-1.5545,-1.8544999
1597,2025-12-27 13:00:00+00:00,0.045500003,98.0,-0.2328702,-4.135273,0.0,0.0,0.0,0.0,0.0,0.0,3.0,1026.6,1021.73553,100.0,100.0,0.0,1.0,220.0,13.849476,25.325686,28.856194,33.481937,261.02747,264.2895,266.42374,270.61606,30.239998,-0.6545,-0.9545,-1.1545
1598,2025-12-27 14:00:00+00:00,0.5455,99.0,0.4063677,-3.5360851,0.0,0.0,0.0,0.0,0.0,0.0,3.0,1027.0,1022.14264,100.0,100.0,0.0,0.0,180.0,13.849476,26.124195,30.124065,36.088093,278.97253,281.9293,284.5345,288.61578,30.239998,-0.0545,-0.2545,-0.4545
1599,2025-12-27 15:00:00+00:00,0.8455,100.0,0.8455,-2.9308507,0.0,0.0,0.0,0.0,0.0,0.0,3.0,1025.8,1020.9534,100.0,100.0,0.0,0.0,160.0,12.24,23.42491,27.804028,34.80848,270.0,272.6425,274.4555,280.72882,30.599998,0.44550002,0.1455,0.045500003
1600,2025-12-27 16:00:00+00:00,1.4455,100.0,1.4455,-2.1913767,0.0,0.0,0.0,0.0,0.0,0.0,3.0,1026.0,1021.16296,100.0,100.0,0.0,0.0,200.0,11.966953,23.795427,28.551426,37.77256,276.91113,280.45984,283.86105,292.40988,27.72,1.1455001,0.94549996,1.0455
1601,2025-12-27 17:00:00+00:00,1.9455,99.0,1.8047643,-1.5531225,0.0,0.0,0.0,0.0,0.0,0.0,3.0,1025.4,1020.57477,100.0,100.0,0.0,0.0,380.0,11.440978,23.000591,30.926493,38.59227,282.72437,287.3006,294.77512,306.6562,27.359999,1.6455001,1.5455,1.9455
1602,2025-12-27 18:00:00+00:00,2.8955,96.0,2.3204398,-0.51224804,0.0,0.0,0.0,0.0,0.0,0.0,3.0,1026.1,1021.288,94.0,94.0,0.0,0.0,1940.0,11.440978,25.161398,34.292717,40.972046,282.72437,289.21277,296.83395,306.06445,23.759998,2.6455,2.9455001,3.1455
1603,2025-12-27 19:00:00+00:00,3.3955,96.0,2.8181024,0.31368923,0.0,0.0,0.0,0.0,0.0,0.0,3.0,1026.1,1021.29675,76.0,76.0,0.0,0.0,2880.0,9.826088,22.86496,31.205997,37.688404,298.4428,303.43988,309.3824,316.5481,24.84,3.2455,3.2455,3.3455
1604,2025-12-27 20:00:00+00:00,3.5955,95.0,2.8692532,0.44181824,0.0,0.0,0.0,0.0,0.0,0.0,2.0,1026.9,1022.09625,67.0,67.0,0.0,0.0,2980.0,10.383987,23.199759,30.928587,37.600616,303.6901,311.85495,320.1945,329.5067,21.599998,3.3455,3.1455,3.0455
1605,2025-12-27 21:00:00+00:00,3.6455,90.0,2.157746,0.069466114,0.0,0.0,0.0,0.0,0.0,0.0,2.0,1027.4,1022.59485,47.0,47.0,0.0,0.0,11360.0,12.397806,25.20257,29.035288,32.688713,334.17905,338.19852,340.44165,343.3611,27.359999,3.2455,2.8455,2.3455
1606,2025-12-27 22:00:00+00:00,2.7455,83.0,0.14552638,-0.43395853,0.0,0.0,0.0,0.0,0.0,0.0,0.0,1027.9,1023.07684,0.0,0.0,0.0,0.0,25600.0,7.386582,17.782686,24.144167,30.855171,313.0251,328.24057,339.94382,352.62634,25.56,2.8455,2.9455001,3.2455
1607,2025-12-27 23:00:00+00:00,1.8455,83.0,-0.7355679,-1.6523752,0.0,0.0,0.0,0.0,0.0,0.0,0.0,1028.4,1023.5587,0.0,0.0,0.0,0.0,25320.0,8.654987,22.768396,30.10685,35.29102,315.0001,325.30478,333.7414,341.56494,18.0,2.0455,2.6455,2.8455
1608,2025-12-28 00:00:00+00:00,1.1955,87.0,-0.72851616,-2.3839588,0.0,0.0,0.0,0.0,0.0,0.0,0.0,1028.4,1023.54755,0.0,0.0,0.0,0.0,17020.0,9.220499,21.38897,30.555498,38.49476,308.65982,316.36386,325.56094,335.1126,19.44,1.0455,1.8455,2.6455
1609,2025-12-28 01:00:00+00:00,0.7955,86.0,-1.2800899,-2.6548054,0.0,0.0,0.0,0.0,0.0,0.0,0.0,1028.7,1023.83905,0.0,0.0,0.0,0.0,18720.0,7.7879906,19.134262,26.089447,33.973778,303.6901,318.81415,332.02063,344.63834,19.44,0.74549997,1.2455001,1.8455
1610,2025-12-28 02:00:00+00:00,0.4955,86.0,-1.5750073,-3.2731934,0.0,0.0,0.0,0.0,0.0,0.0,0.0,1029.6,1024.7294,0.0,0.0,0.0,0.0,19000.0,9.686609,20.88,28.876396,35.419315,311.98712,316.3971,324.1301,333.43503,20.16,0.2455,0.74549997,1.2455001
1611,2025-12-28 03:00:00+00:00,-0.004499998,89.0,-1.6008297,-3.645966,0.0,0.0,0.0,0.0,0.0,0.0,0.0,1030.4,1025.5166,0.0,0.0,0.0,0.0,11240.0,8.78872,19.61587,27.217524,33.809345,304.9921,312.7688,322.52374,333.43503,19.8,-0.2545,0.2455,1.0455
1612,2025-12-28 04:00:00+00:00,-0.30449998,91.0,-1.5948443,-4.0325565,0.0,0.0,0.0,0.0,0.0,0.0,0.0,1029.1,1024.2175,0.0,0.0,0.0,0.0,8120.0,9.387651,20.592503,28.766228,33.651817,302.47116,306.46933,314.49304,325.45984,20.16,-0.6545,0.045500003,0.74549997
1613,2025-12-28 05:00:00+00:00,-0.50450003,92.0,-1.644142,-4.1094613,0.0,0.0,0.0,0.0,0.0,0.0,0.0,1029.6,1024.7115,3.0,3.0,0.0,0.0,6500.0,8.4963045,19.09358,26.574244,31.883888,306.38446,314.23618,324.372,334.59232,19.8,-0.8545,-0.15450001,0.5455
1614,2025-12-28 06:00:00+00:00,-0.7045,90.0,-2.1404002,-4.4505987,0.0,0.0,0.0,0.0,0.0,0.0,0.0,1030.0,1025.106,0.0,0.0,0.0,0.0,9640.0,9.0,20.620804,28.373846,33.493546,306.86996,314.29276,324.2932,334.53668,17.64,-0.9545,-0.15450001,0.44550002
1615,2025-12-28 07:00:00+00:00,-0.9045,88.0,-2.6416104,-4.601441,0.0,0.0,0.0,0.0,0.0,0.0,0.0,1030.0,1025.1023,0.0,0.0,0.0,0.0,14600.0,8.209263,18.584509,26.36616,32.209442,307.87503,315.78473,325.0079,334.86707,19.08,-1.1545,-0.3545,0.2455
1616,2025-12-28 08:00:00+00:00,-1.1044999,87.0,-2.9925895,-4.7417727,0.0,0.0,0.0,0.0,0.0,0.0,0.0,1030.5,1025.5963,0.0,0.0,0.0,0.0,15540.0,7.491114,17.81909,24.27265,29.795301,305.21768,315.0001,324.65982,334.98312,16.56,-1.4545,-0.6545,0.045500003
1617,2025-12-28 09:00:00+00:00,-0.9545,86.0,-3.0005288,-4.6077747,0.0,0.0,0.0,0.0,0.0,0.0,0.0,1030.7,1025.7983,0.0,0.0,0.0,0.0,18100.0,7.5942082,17.884428,24.798225,29.162222,301.4295,310.10083,320.30096,331.22028,15.4800005,-1.4545,-0.55450004,0.045500003
1618,2025-12-28 10:00:00+00:00,-0.40449998,83.0,-2.9386015,-4.0497756,0.0,0.0,0.0,0.0,0.0,0.0,0.0,1030.3,1025.4099,0.0,0.0,0.0,0.0,21700.0,7.5942082,14.689588,21.638964,27.059933,301.4295,306.02747,315.67395,326.94415,17.28,-1.1545,-0.6545,0.1455
1619,2025-12-28 11:00:00+00:00,0.3955,82.0,-2.319336,-3.2611613,0.0,0.0,0.0,0.0,0.0,0.0,0.0,1030.6,1025.7229,0.0,0.0,0.0,0.0,23620.0,8.225035,14.81259,20.969807,26.478971,293.1986,295.94223,304.50858,316.10162,18.0,-0.4545,-0.4545,0.1455
1620,2025-12-28 12:00:00+00:00,2.2955,76.0,-1.5009984,-1.3779993,0.0,0.0,0.0,0.0,0.0,0.0,0.0,1030.3,1025.4579,0.0,0.0,0.0,0.0,35240.0,9.107359,15.175612,16.595179,22.473343,288.43503,292.30624,294.34106,305.21768,18.72,1.3455,0.94549996,0.5455
1621,2025-12-28 13:00:00+00:00,2.5955,76.0,-1.210217,-1.0212321,0.0,0.0,0.0,0.0,0.0,0.0,0.0,1029.4,1024.5673,0.0,0.0,0.0,0.0,35560.0,9.0,15.716793,17.447933,19.64228,286.26028,290.0953,291.80145,296.09537,20.519999,1.7455001,1.2455001,0.6455
1622,2025-12-28 14:00:00+00:00,2.3455,80.0,-0.75162625,-1.2933164,0.0,0.0,0.0,0.0,0.0,0.0,0.0,1029.1,1024.2644,0.0,0.0,0.0,0.0,29200.0,9.605998,17.462782,19.483284,22.545315,282.99463,284.32275,286.09088,289.59238,21.24,1.5455,1.1455001,0.5455
1623,2025-12-28 15:00:00+00:00,1.6955,79.0,-1.5567045,-1.865241,0.0,0.0,0.0,0.0,0.0,0.0,0.0,1028.4,1023.55615,0.0,0.0,0.0,0.0,31600.0,8.28,17.313717,21.03152,25.932495,270.0,273.57626,276.88162,283.65045,20.880001,1.1455001,0.74549997,0.6455
1624,2025-12-28 16:00:00+00:00,0.94549996,86.0,-1.1326334,-2.6977746,0.0,0.0,0.0,0.0,0.0,0.0,0.0,1027.9,1023.0454,0.0,0.0,0.0,0.0,18340.0,9.255571,19.734436,26.525429,32.28981,283.49576,284.7968,288.18915,292.27594,19.08,0.5455,0.44550002,0.5455
1625,2025-12-28 17:00:00+00:00,0.5955,90.0,-0.85580105,-2.875815,0.0,0.0,0.0,0.0,0.0,0.0,0.0,1027.8,1022.93976,0.0,0.0,0.0,0.0,9540.0,8.350138,18.35647,25.071096,30.821552,277.4313,281.3099,285.83246,292.6714,19.44,0.1455,0.2455,0.5455
1626,2025-12-28 18:00:00+00:00,-0.0545,93.0,-1.0506641,-3.699467,0.0,0.0,0.0,0.0,0.0,0.0,1.0,1027.6,1022.72906,23.0,23.0,0.0,0.0,4980.0,9.346143,19.35314,26.302181,30.096085,254.3577,260.36252,267.64676,276.8699,17.64,-0.55450004,-0.2545,0.2455
1627,2025-12-28 19:00:00+00:00,-0.4545,94.0,-1.3015746,-4.224502,0.0,0.0,0.0,0.0,0.0,0.0,3.0,1026.6,1021.72656,81.0,81.0,0.0,0.0,3320.0,9.9571085,19.416653,27.193705,34.92,257.4712,259.31512,263.15732,270.0,21.24,-1.0545,-1.4545,-0.4545
1628,2025-12-28 20:00:00+00:00,-1.2544999,98.0,-1.5299023,-5.349928,0.0,0.0,0.0,0.0,0.0,0.0,3.0,1026.0,1021.11523,100.0,100.0,0.0,0.0,380.0,11.966954,20.780453,21.829777,33.528355,254.29129,255.96373,256.65128,266.9226,25.56,-1.9545,-2.3545,-1.1545
1629,2025-12-28 21:00:00+00:00,-1.2544999,94.0,-2.0960064,-5.5428925,0.0,0.0,0.0,0.0,0.0,0.0,3.0,1025.2,1020.31903,92.0,92.0,0.0,0.0,2580.0,12.758432,22.702845,23.83896,30.657122,253.61038,255.30263,255.12427,260.53775,26.28,-2.1545,-2.5544999,-2.7545
1630,2025-12-28 22:00:00+00:00,-1.2045,89.0,-2.785156,-5.4102364,0.0,0.0,0.0,0.0,0.0,0.0,2.0,1024.0,1019.12573,63.0,63.0,0.0,0.0,9620.0,11.570515,20.991426,23.499481,33.933697,264.64426,264.09396,264.7262,265.74124,29.16,-2.0544999,-2.5544999,-2.7545
1631,2025-12-28 23:00:00+00:00,-1.7544999,93.0,-2.7368019,-6.2624874,0.0,0.0,0.0,0.0,0.0,0.0,3.0,1023.5,1018.6182,100.0,100.0,0.0,0.0,2940.0,13.684735,24.881702,27.419146,30.018473,271.5074,273.31772,273.76395,275.50537,29.88,-2.7545,-3.1545,-3.4545
1632,2025-12-29 00:00:00+00:00,-0.9545,97.0,-1.3705083,-5.434805,0.0,0.0,0.0,0.0,0.0,0.0,3.0,1022.7,1017.8364,100.0,100.0,0.0,0.0,640.0,14.759999,27.74103,31.75355,36.217144,270.0,272.23114,273.90042,276.2772,30.960001,-1.6545,-1.9545,-2.2545
1633,2025-12-29 01:00:00+00:00,-0.4545,97.0,-0.8722269,-4.810762,0.0,0.0,0.0,0.0,0.0,0.0,3.0,1021.7,1016.84985,100.0,100.0,0.0,0.0,820.0,14.4,27.038372,30.703587,34.428497,270.0,273.05283,274.70776,276.60474,32.039997,-1.0545,-1.3544999,-1.6545
1634,2025-12-29 02:00:00+00:00,0.045500003,96.0,-0.5163247,-4.316444,0.0,0.0,0.0,0.0,0.0,0.0,77.0,1020.9,1016.06256,100.0,100.0,0.0,0.0,1760.0,14.799459,29.024128,33.092598,37.28738,274.18484,277.1249,278.13,280.0079,31.68,-0.6545,-0.9545,-1.3544999
1635,2025-12-29 03:00:00+00:00,0.74549997,95.0,0.03591631,-3.7220848,0.0,0.0,0.0,0.0,0.0,0.0,3.0,1020.2,1015.3783,100.0,100.0,0.0,0.0,2800.0,16.09969,30.222849,33.971867,36.67232,280.30478,282.38074,282.8581,283.627,34.56,0.045500003,-0.3545,-0.75450003
1636,2025-12-29 04:00:00+00:00,1.2455001,94.0,0.38653243,-3.0920277,0.0,0.0,0.0,0.0,0.0,0.0,3.0,1019.0,1014.1925,100.0,100.0,0.0,19.0,3340.0,15.5843,29.478264,34.524353,41.899426,276.63242,278.42688,281.42706,287.50095,34.92,0.5455,0.1455,-0.15450001
1637,2025-12-29 05:00:00+00:00,1.6455001,92.0,0.4856117,-2.5719619,10.0,0.0,0.0,0.0,0.0,0.0,3.0,1019.0,1014.19946,97.0,88.0,0.0,71.0,5060.0,14.869351,28.766228,34.38895,42.785507,276.95285,278.63705,280.25113,284.6209,33.12,0.94549996,0.6455,0.34550002
1638,2025-12-29 06:00:00+00:00,2.1455,92.0,0.9808779,-2.058811,0.0,0.0,0.0,0.0,0.0,0.0,3.0,1019.5,1014.706,100.0,100.0,0.0,38.0,6140.0,15.328561,29.723444,34.597477,40.076588,279.46225,281.1738,282.01144,284.03625,35.28,1.5455,1.0455,0.5455
1639,2025-12-29 07:00:00+00:00,2.3455,91.0,1.0269042,-1.6800425,0.0,0.0,0.0,0.0,0.0,0.0,3.0,1018.3,1013.51514,100.0,100.0,0.0,0.0,7180.0,14.154915,27.343414,31.845247,37.37244,277.30566,279.0902,280.42065,283.36694,33.12,1.7455001,1.3455,0.8455
1640,2025-12-29 08:00:00+00:00,2.4455001,89.0,0.8169315,-1.3542867,0.0,0.0,0.0,0.0,0.0,0.0,3.0,1018.3,1013.5167,93.0,93.0,0.0,0.0,9560.0,12.371645,23.441502,27.534704,33.092594,278.36578,280.6196,281.3099,284.4898,30.599998,1.7455001,1.3455,0.94549996
1641,2025-12-29 09:00:00+00:00,2.4455001,89.0,0.8169315,-1.4661584,0.0,0.0,0.0,0.0,0.0,0.0,2.0,1018.3,1013.5167,85.0,85.0,0.0,13.0,9080.0,13.138765,24.288662,27.333935,30.385365,279.46225,281.9761,282.93805,283.70697,29.88,1.6455001,1.1455001,0.6455
1642,2025-12-29 10:00:00+00:00,2.8455,88.0,1.0543658,-1.0790217,0.0,0.0,0.0,0.0,0.0,0.0,2.0,1018.1,1013.3247,72.0,71.0,0.0,1.0,9840.0,13.493999,24.923338,28.312117,31.869658,279.21094,280.82297,281.73856,283.72232,30.960001,1.9455,1.4455,0.94549996
1643,2025-12-29 11:00:00+00:00,3.5455,86.0,1.4230325,-0.2855978,0.0,0.0,0.0,0.0,0.0,0.0,3.0,1017.7,1012.93866,85.0,85.0,0.0,0.0,14400.0,13.276144,24.18707,26.807312,29.620802,282.5288,284.6568,284.78278,286.23242,30.960001,2.5455,2.1455,1.5455
1644,2025-12-29 12:00:00+00:00,4.0455,85.0,1.7507297,0.17793417,0.0,0.0,0.0,0.0,0.0,0.0,3.0,1017.2,1012.4495,100.0,100.0,0.0,3.0,15420.0,13.910169,25.49908,28.202042,30.563978,280.4374,283.05524,284.03625,285.0184,30.960001,3.0455,2.5455,1.9455
1645,2025-12-29 13:00:00+00:00,4.3455,83.0,1.711747,0.6355419,0.0,0.0,0.0,0.0,0.0,0.0,3.0,1016.1,1011.3598,100.0,100.0,0.0,1.0,20280.0,12.783802,23.584808,26.368616,29.175552,279.7275,282.33908,284.22598,285.75125,29.88,3.4455001,3.0455,2.4455001
1646,2025-12-29 14:00:00+00:00,4.4954996,80.0,1.3442118,0.59517765,0.0,0.0,0.0,0.0,0.0,0.0,3.0,1016.1,1011.3623,100.0,100.0,0.0,0.0,27000.0,13.661038,25.537172,28.220417,30.449274,288.43503,291.5015,293.2946,294.44394,30.960001,3.7455,3.2455,2.7455
1647,2025-12-29 15:00:00+00:00,4.2454996,85.0,1.9470302,0.4311285,0.0,0.0,0.0,0.0,0.0,0.0,3.0,1015.5,1010.7607,100.0,100.0,0.0,0.0,16600.0,13.779114,26.208395,29.882166,32.90014,289.85532,290.92456,291.92963,293.1986,30.599998,3.5455,3.0455,2.5455
1648,2025-12-29 16:00:00+00:00,4.0455,84.0,1.58529,0.33464575,10.0,0.0,0.0,0.0,0.0,0.0,3.0,1015.4,1010.65796,91.0,91.0,0.0,2.0,19160.0,12.641076,24.269983,27.943512,31.581665,289.9832,290.85452,291.93854,294.22772,30.599998,3.3455,2.9455001,2.5455
1649,2025-12-29 17:00:00+00:00,3.8955,87.0,1.9288808,0.17632008,15.0,0.0,0.0,0.0,0.0,0.0,3.0,1015.6,1010.85443,100.0,100.0,0.0,0.0,13360.0,13.1041975,25.809765,30.449274,34.776817,290.92456,292.98874,294.44394,297.09546,27.72,3.3455,2.8455,2.4455001
1650,2025-12-29 18:00:00+00:00,4.0955,89.0,2.4450393,0.7821145,55.0,0.0,0.0,0.0,0.0,0.0,3.0,1015.5,1010.7582,100.0,78.0,100.0,0.0,10700.0,10.948973,21.638964,25.455843,30.319178,313.66785,314.32605,315.0001,317.406,26.28,3.4455001,3.0455,2.5455
1651,2025-12-29 19:00:00+00:00,3.8455,87.0,1.8796736,-0.12947845,88.0,0.5,0.5,0.0,0.0,0.0,61.0,1016.3,1011.55023,100.0,97.0,100.0,0.0,13320.0,14.799459,28.100763,31.328272,33.481937,355.81516,357.79745,358.6831,359.38394,30.599998,3.1455,2.6455,2.1455
1652,2025-12-29 20:00:00+00:00,3.3455,75.0,-0.6650943,-0.46844625,43.0,0.0,0.0,0.0,0.0,0.0,61.0,1016.6,1011.8403,100.0,88.0,100.0,0.0,40140.0,10.8955765,21.129885,24.149532,28.817993,7.59456,8.820306,10.304792,12.99463,32.399998,2.6455,2.2455,1.8455
1653,2025-12-29 21:00:00+00:00,2.7455,81.0,-0.19075653,-0.9525728,8.0,0.0,0.0,0.0,0.0,0.0,3.0,1017.0,1012.22797,93.0,0.0,93.0,0.0,29780.0,10.587917,20.523157,23.664352,28.766228,342.18103,344.7448,346.8094,351.36295,24.84,2.1455,1.7455001,1.3455
1654,2025-12-29 22:00:00+00:00,1.8955001,69.0,-3.1934338,-2.284429,0.0,0.0,0.0,0.0,0.0,0.0,2.0,1017.7,1012.91003,74.0,0.0,74.0,0.0,52520.0,11.043261,22.206486,26.111792,35.80688,340.9743,343.03375,344.81412,350.15894,24.48,1.3455,0.94549996,0.74549997
1655,2025-12-29 23:00:00+00:00,0.8955,66.0,-4.7431297,-3.4791174,0.0,0.0,0.0,0.0,0.0,0.0,2.0,1018.5,1013.68884,61.0,0.0,61.0,0.0,57060.0,11.113451,22.127556,27.09822,38.548588,335.09525,338.02542,340.60208,348.6901,25.199999,0.34550002,0.045500003,0.6455
1656,2025-12-30 00:00:00+00:00,0.5455,66.0,-5.077147,-3.7600782,0.0,0.0,0.0,0.0,0.0,0.0,0.0,1018.9,1014.08093,0.0,0.0,0.0,0.0,57380.0,10.383987,21.924562,28.174458,39.107666,326.3099,330.4886,333.43503,338.3944,23.4,0.045500003,-0.2545,0.1455
1657,2025-12-30 01:00:00+00:00,0.2455,71.0,-4.3965225,-4.0691323,0.0,0.0,0.0,0.0,0.0,0.0,0.0,1020.0,1015.1703,0.0,0.0,0.0,0.0,49100.0,10.97262,22.104116,26.66188,37.998337,318.991,322.9434,325.45157,334.1633,24.84,-0.2545,-0.55450004,-0.2545
1658,2025-12-30 02:00:00+00:00,0.045500003,71.0,-4.588966,-4.3083897,0.0,0.0,0.0,0.0,0.0,0.0,0.0,1020.1,1015.2663,0.0,0.0,0.0,0.0,49800.0,11.090103,22.691423,29.28418,39.3439,305.75397,311.78442,316.49426,325.4374,23.759998,-0.4545,-0.6545,0.045500003
1659,2025-12-30 03:00:00+00:00,-0.20449999,70.0,-5.0172834,-4.664345,0.0,0.0,0.0,0.0,0.0,0.0,0.0,1021.3,1016.4562,0.0,0.0,0.0,0.0,50660.0,11.4862,23.185787,31.160282,41.53127,302.1957,306.15826,310.31403,317.45908,27.0,-0.75450003,-0.8545,-0.2545
1660,2025-12-30 04:00:00+00:00,-0.50450003,73.0,-4.7505465,-5.213339,0.0,0.0,0.0,0.0,0.0,0.0,0.0,1020.7,1015.8539,0.0,0.0,0.0,0.0,44140.0,13.397612,25.959969,30.676142,44.04523,300.69965,303.6901,305.9286,314.00662,28.8,-1.0545,-1.4545,-1.0545
1661,2025-12-30 05:00:00+00:00,-0.6545,80.0,-3.6768267,-5.176925,0.0,0.0,0.0,0.0,0.0,0.0,2.0,1020.6,1015.7514,98.0,34.0,96.0,0.0,29380.0,12.979984,25.488914,30.699368,39.714382,303.6901,306.38446,309.28937,314.26556,28.44,-1.2544999,-1.5545,-1.8544999
1662,2025-12-30 06:00:00+00:00,-0.75450003,81.0,-3.6082122,-5.441963,0.0,0.0,0.0,0.0,0.0,0.0,1.0,1021.0,1016.14795,69.0,63.0,62.0,0.0,26680.0,14.168641,27.288855,32.25166,38.378433,297.21603,300.96368,303.15793,306.22504,30.960001,-1.3544999,-1.7544999,-2.0544999
1663,2025-12-30 07:00:00+00:00,-0.80450004,84.0,-3.1695385,-5.29694,0.0,0.0,0.0,0.0,0.0,0.0,2.0,1021.0,1016.147,94.0,90.0,7.0,0.0,19400.0,13.202726,25.284714,29.69727,36.158054,295.8663,298.0244,300.60632,305.2725,30.239998,-1.4545,-1.8544999,-2.1545
1664,2025-12-30 08:00:00+00:00,-0.7045,86.0,-2.7547388,-5.121183,0.0,0.0,0.0,0.0,0.0,0.0,1.0,1021.5,1016.6463,33.0,33.0,0.0,0.0,15160.0,13.0447235,25.49908,29.460672,34.778683,297.97937,300.5475,302.52487,306.15826,28.8,-1.3544999,-1.7544999,-2.1545
1665,2025-12-30 09:00:00+00:00,-0.55450004,85.0,-2.7650042,-5.1470156,0.0,0.0,0.0,0.0,0.0,0.0,1.0,1021.3,1016.45,30.0,30.0,0.0,0.0,16740.0,14.24163,27.14123,30.821552,33.043606,290.72565,291.80148,292.6714,293.77234,30.239998,-1.2544999,-1.7544999,-2.2545
1666,2025-12-30 10:00:00+00:00,-0.20449999,84.0,-2.5812113,-4.812571,0.0,0.0,0.0,0.0,0.0,0.0,2.0,1021.5,1016.6552,59.0,59.0,0.0,0.0,18580.0,14.512064,26.886963,30.599998,34.76377,293.38525,296.2219,298.0724,301.87955,31.319998,-1.0545,-1.4545,-1.9545
1667,2025-12-30 11:00:00+00:00,0.5955,80.0,-2.4578834,-4.050263,0.0,0.0,0.0,0.0,0.0,0.0,2.0,1021.5,1016.6695,50.0,50.0,0.0,0.0,26820.0,14.88242,28.165257,31.682043,35.08292,302.15228,305.1121,306.21893,308.75165,33.48,-0.3545,-0.75450003,-1.3544999
1668,2025-12-30 12:00:00+00:00,2.1455,63.0,-4.1716585,-3.3681884,0.0,0.0,0.0,0.0,0.0,0.0,1.0,1021.7,1016.8957,88.0,88.0,0.0,0.0,59560.0,19.376562,36.544872,41.036842,44.431934,324.8335,325.84024,326.4493,326.5674,34.2,1.1455001,0.74549997,0.1455
1669,2025-12-30 13:00:00+00:00,2.5455,55.0,-5.593016,-3.0539987,3.0,0.0,0.0,0.0,0.0,0.0,1.0,1020.9,1016.1062,85.0,85.0,0.0,0.0,68440.0,18.875126,35.647274,40.14605,43.6551,325.09744,326.95187,327.45,328.1449,42.48,1.7455001,1.2455001,0.6455
1670,2025-12-30 14:00:00+00:00,2.1955001,65.0,-3.70702,-3.0202825,5.0,0.0,0.0,0.0,0.0,0.0,61.0,1021.3,1016.49817,17.0,17.0,0.0,0.0,57380.0,17.713316,33.696075,37.87535,41.2636,322.43134,323.25244,323.89246,324.2298,41.039997,1.4455,0.94549996,0.44550002
1671,2025-12-30 15:00:00+00:00,1.7955,64.0,-4.2944965,-3.1354675,3.0,0.0,0.0,0.0,0.0,0.0,1.0,1021.8,1016.98914,79.0,79.0,0.0,0.0,57980.0,15.281989,30.037897,34.37387,37.705597,313.09085,315.0001,316.27295,317.32153,36.36,1.1455001,0.74549997,0.2455
1672,2025-12-30 16:00:00+00:00,1.0455,68.0,-4.2031045,-3.9924264,3.0,0.0,0.0,0.0,0.0,0.0,1.0,1021.7,1016.8763,16.0,16.0,0.0,0.0,52920.0,16.08761,32.353966,37.427883,42.2567,310.46216,312.7454,313.83093,315.0001,37.079998,0.5455,0.1455,-0.3545
1673,2025-12-30 17:00:00+00:00,0.6455,71.0,-4.011653,-4.3032203,0.0,0.0,0.0,0.0,0.0,0.0,1.0,1022.0,1017.16785,14.0,14.0,0.0,0.0,47440.0,15.629971,30.886656,35.936943,40.732533,308.45374,310.74606,312.15778,314.2839,36.719997,0.045500003,-0.3545,-0.8545
1674,2025-12-30 18:00:00+00:00,0.09550001,78.0,-3.285669,-4.5245566,0.0,0.0,0.0,0.0,0.0,0.0,0.0,1021.9,1017.05865,0.0,0.0,0.0,0.0,34040.0,13.979872,28.296091,32.83705,38.03243,304.50858,306.72418,307.87503,310.77768,33.839996,-0.55450004,-0.9545,-1.3544999
1675,2025-12-30 19:00:00+00:00,-0.0545,71.0,-4.6851892,-4.86028,0.0,0.0,0.0,0.0,0.0,0.0,0.0,1022.7,1017.85236,0.0,0.0,0.0,0.0,47640.0,14.113652,27.567635,31.869658,36.150883,307.74686,310.76352,311.7947,314.19315,32.039997,-0.6545,-1.1545,-1.5545
1676,2025-12-30 20:00:00+00:00,-0.50450003,81.0,-3.36407,-5.0495057,0.0,0.0,0.0,0.0,0.0,0.0,1.0,1022.5,1017.6453,16.0,16.0,0.0,0.0,25020.0,13.397612,26.064596,30.05515,34.2,300.69965,302.59256,304.26114,306.86996,30.960001,-1.2544999,-1.6545,-2.1545
1677,2025-12-30 21:00:00+00:00,-1.0044999,86.0,-3.0496871,-5.4840603,0.0,0.0,0.0,0.0,0.0,0.0,1.0,1022.7,1017.83545,47.0,47.0,0.0,0.0,15360.0,13.217443,25.376808,29.15778,33.270313,299.35767,301.6607,302.90524,305.75397,29.88,-1.7544999,-2.1545,-2.6545
1678,2025-12-30 22:00:00+00:00,-1.1545,85.0,-3.354128,-5.5526304,0.0,0.0,0.0,0.0,0.0,0.0,1.0,1022.5,1017.6335,19.0,19.0,0.0,0.0,17740.0,12.397806,24.162947,28.091534,33.651817,295.82092,298.4741,300.83777,304.54016,29.519999,-1.8544999,-2.2545,-2.6545
1679,2025-12-30 23:00:00+00:00,-1.4545,86.0,-3.4921212,-5.8068748,0.0,0.0,0.0,0.0,0.0,0.0,2.0,1022.7,1017.82745,75.0,35.0,43.0,29.0,14280.0,11.966953,23.4,27.231804,33.332577,291.16132,292.6199,294.1932,297.672,27.0,-2.1545,-2.6545,-3.0544999
1680,2025-12-31 00:00:00+00:00,-1.7045,78.0,-5.036134,-6.287465,0.0,0.0,0.0,0.0,0.0,0.0,2.0,1022.0,1017.12634,70.0,62.0,0.0,22.0,32580.0,12.313893,24.1388,27.897097,34.47176,285.25516,287.3541,289.6042,294.69153,27.359999,-2.3545,-2.7545,-3.1545
1681,2025-12-31 01:00:00+00:00,-1.8045,75.0,-5.6504946,-6.429333,0.0,0.0,0.0,0.0,0.0,0.0,3.0,1021.7,1016.8258,99.0,28.0,90.0,76.0,38300.0,12.144331,23.313995,26.901417,34.56187,281.9761,283.39252,285.52417,292.0231,28.08,-2.5544999,-2.9545,-3.2545
1682,2025-12-31 02:00:00+00:00,-1.9045,73.0,-6.1020923,-6.4632134,0.0,0.0,0.0,0.0,0.0,0.0,3.0,1021.7,1016.8239,100.0,62.0,100.0,100.0,43320.0,11.367109,22.26477,26.309572,31.771912,280.954,284.03625,286.6993,289.87225,26.64,-2.6545,-3.0544999,-3.4545
1683,2025-12-31 03:00:00+00:00,-2.3545,74.0,-6.358784,-6.9650803,0.0,0.0,0.0,0.0,0.0,0.0,3.0,1020.8,1015.9202,100.0,0.0,100.0,100.0,40120.0,11.542478,21.24305,24.490587,34.03476,266.42374,269.029,271.68463,280.359,24.84,-3.1545,-3.5544999,-3.5544999
1684,2025-12-31 04:00:00+00:00,-2.6545,74.0,-6.648891,-7.18942,3.0,0.0,0.0,0.0,0.0,0.0,3.0,1020.3,1015.4172,96.0,0.0,94.0,57.0,40660.0,10.823973,20.892412,24.122683,35.105072,266.186,268.02512,269.14493,275.8859,25.199999,-3.4545,-3.8545,-3.7545
1685,2025-12-31 05:00:00+00:00,-2.7045,71.0,-7.235678,-7.150941,5.0,0.0,0.0,0.0,0.0,0.0,3.0,1019.5,1014.6202,100.0,62.0,100.0,95.0,45720.0,9.826088,19.201874,22.392462,32.777798,261.57312,263.5413,265.38943,271.88815,23.4,-3.4545,-3.8545,-3.7545
1686,2025-12-31 06:00:00+00:00,-2.4045,75.0,-6.2315383,-6.72761,13.0,0.0,0.0,0.0,0.0,0.0,3.0,1018.6,1013.72974,96.0,67.0,85.0,0.0,38000.0,9.659814,19.05281,22.66857,32.55363,243.43501,247.79646,249.55037,259.80856,23.4,-3.1545,-3.5544999,-3.1545
1687,2025-12-31 07:00:00+00:00,-1.9045,86.0,-3.9345696,-6.4501677,55.0,0.0,0.0,0.0,0.0,0.0,3.0,1016.1,1011.2506,98.0,75.0,90.0,0.0,14320.0,12.9249525,25.346148,29.59235,41.52659,257.125,258.5305,260.19397,265.52518,28.8,-2.6545,-3.0544999,-3.2545
1688,2025-12-31 08:00:00+00:00,-1.2544999,93.0,-2.240869,-5.1958494,95.0,0.5,0.0,0.0,0.28,0.0,71.0,1015.9,1011.06335,100.0,97.0,100.0,42.0,480.0,10.24578,20.037485,24.975283,35.63818,251.56496,252.21602,254.96213,261.87,29.519999,-1.9545,-2.3545,-2.4545
1689,2025-12-31 09:00:00+00:00,-0.6045,94.0,-1.4505291,-4.4293113,100.0,0.70000005,0.0,0.0,0.42000002,0.01,71.0,1015.0,1010.179,100.0,93.0,99.0,100.0,1280.0,10.1887,20.94507,26.081993,32.023815,237.99466,241.23244,243.78868,248.91617,24.48,-1.2544999,-1.6545,-1.8544999
1690,2025-12-31 10:00:00+00:00,0.1455,93.0,-0.85230124,-3.752041,95.0,0.2,0.0,0.0,0.14,0.01,71.0,1013.8,1008.998,100.0,94.0,99.0,76.0,2840.0,11.27553,24.569832,31.845251,37.827415,253.30067,259.01938,264.1606,267.8184,24.48,-0.3545,-0.6545,-1.0545
1691,2025-12-31 11:00:00+00:00,0.7955,94.0,-0.06031143,-3.4416387,78.0,0.2,0.0,0.0,0.14,0.01,77.0,1012.2,1007.41705,99.0,96.0,91.0,1.0,3020.0,14.417988,29.660152,35.9946,40.957813,272.86234,275.5721,278.04898,280.1246,31.319998,0.2455,-0.15450001,-0.4545
1692,2025-12-31 12:00:00+00:00,1.5455,93.0,0.536201,-2.5015068,55.0,0.1,0.0,0.0,0.0,0.02,61.0,1012.3,1007.5295,100.0,100.0,100.0,2.0,4540.0,13.75558,27.288855,31.722921,37.066017,276.0089,278.3438,279.14157,281.20074,32.760002,0.94549996,0.6455,0.2455
1693,2025-12-31 13:00:00+00:00,2.0955,93.0,1.081666,-1.8690109,58.0,0.0,0.0,0.0,0.0,0.02,51.0,1011.1,1006.34454,100.0,100.0,80.0,9.0,4800.0,13.797913,27.553526,32.789658,40.513996,285.12405,287.48807,289.23077,292.46326,33.839996,1.5455,1.2455001,0.8455
1694,2025-12-31 14:00:00+00:00,2.4455001,93.0,1.4287751,-1.4752939,25.0,0.1,0.1,0.0,0.0,0.02,53.0,1011.1,1006.3505,100.0,100.0,61.0,0.0,5460.0,13.896187,28.460497,33.58821,39.64906,286.55716,288.43503,289.40607,290.7388,31.319998,1.9455,1.5455,1.2455001
1695,2025-12-31 15:00:00+00:00,2.7955,94.0,1.9256171,-0.64180493,28.0,0.0,0.0,0.0,0.0,0.01,61.0,1011.0,1006.2571,100.0,100.0,62.0,0.0,4060.0,11.165805,23.83624,28.657898,32.730316,290.77234,295.01685,296.88684,299.66663,31.319998,2.2455,1.9455,1.5455
1696,2025-12-31 16:00:00+00:00,2.7955,94.0,1.9256171,-0.42706394,28.0,0.0,0.0,0.0,0.0,0.01,51.0,1011.1,1006.3566,100.0,100.0,96.0,58.0,3880.0,9.693296,20.61766,25.277025,32.2396,291.80148,294.77512,296.20004,299.42737,25.56,2.2455,1.8455,1.5455
1697,2025-12-31 17:00:00+00:00,2.8455,93.0,1.8254654,-0.44520688,18.0,0.0,0.0,0.0,0.0,0.01,61.0,1011.0,1006.25806,100.0,99.0,67.0,42.0,4780.0,10.041354,20.833395,25.872454,33.00436,284.5345,288.12195,291.2093,296.56497,23.039999,2.3455,1.9455,1.7455001
1698,2025-12-31 18:00:00+00:00,2.7455,93.0,1.7262934,-0.32360864,13.0,0.0,0.0,0.0,0.0,0.0,3.0,1011.7,1006.9529,100.0,100.0,79.0,66.0,4720.0,8.4042845,17.902534,24.482647,31.394394,279.86575,285.1541,289.76724,296.56497,22.319998,2.2455,1.9455,1.8455
1699,2025-12-31 19:00:00+00:00,2.7955,93.0,1.7758797,-0.46565008,13.0,0.0,0.0,0.0,0.0,0.0,61.0,1011.3,1006.55566,100.0,98.0,100.0,93.0,4580.0,9.779817,20.06334,24.64094,33.481934,276.3401,279.2932,281.8024,286.87634,21.96,2.1455,1.7455001,1.5455
1700,2025-12-31 20:00:00+00:00,2.9455001,93.0,1.9246377,-0.22960329,10.0,0.0,0.0,0.0,0.0,0.0,61.0,1011.2,1006.4587,100.0,100.0,94.0,50.0,4460.0,9.3669195,19.852295,23.893261,33.62099,272.20255,274.15958,276.0541,282.99463,22.319998,2.3455,1.9455,1.8455
1701,2025-12-31 21:00:00+00:00,3.0955,92.0,1.9218566,-0.13154411,5.0,0.0,0.0,0.0,0.0,0.0,3.0,1011.4,1006.6603,100.0,100.0,100.0,100.0,5340.0,9.72,20.532627,23.78453,33.75756,270.0,272.00952,272.6025,277.3523,24.48,2.4455001,2.0455,1.7455001
1702,2025-12-31 22:00:00+00:00,3.0955,93.0,2.0733945,-0.12048817,8.0,0.0,0.0,0.0,0.0,0.0,3.0,1009.8,1005.0677,100.0,100.0,100.0,100.0,5080.0,9.826088,20.633371,24.905132,33.857227,261.57312,263.9911,265.85544,271.82794,23.039999,2.4455001,2.0455,1.8455
1703,2025-12-31 23:00:00+00:00,3.2455,92.0,2.0704296,0.029024124,23.0,0.0,0.0,0.0,0.0,0.0,61.0,1009.4,1004.6721,100.0,95.0,100.0,100.0,5820.0,9.826088,20.674158,25.325686,32.44996,261.57312,262.99884,264.2895,266.82022,24.48,2.6455,2.2455,1.7455001
1704,2026-01-01 00:00:00+00:00,3.8455,91.0,2.5107782,0.12845516,70.0,0.1,0.1,0.0,0.0,0.0,61.0,1009.5,1004.782,100.0,86.0,100.0,48.0,6640.0,13.797912,27.834309,32.831135,38.535137,262.50424,264.80566,266.22778,268.39404,28.8,3.2455,2.8455,2.3455
1705,2026-01-01 01:00:00+00:00,4.0455,88.0,2.236905,0.012223721,98.0,0.3,0.3,0.0,0.0,0.0,61.0,1008.1,1003.39197,91.0,88.0,76.0,3.0,12840.0,15.629972,32.169178,37.16553,42.144608,262.0566,264.8637,266.11215,268.04196,34.92,3.4455001,3.0455,2.5455
1706,2026-01-01 02:00:00+00:00,4.0455,86.0,1.9144534,-0.2598517,98.0,0.4,0.4,0.0,0.0,0.0,61.0,1007.4,1002.6953,100.0,90.0,100.0,4.0,17060.0,17.106628,34.07091,39.081146,43.34974,261.52893,263.32562,264.18448,265.23645,38.519997,3.3455,2.9455001,2.4455001
1707,2026-01-01 03:00:00+00:00,3.9955,82.0,1.2002361,-0.41316938,80.0,0.3,0.3,0.0,0.0,0.0,61.0,1007.3,1002.5948,98.0,96.0,88.0,43.0,24780.0,16.981165,33.190357,38.221085,42.53488,265.13556,266.26868,266.76038,267.08923,43.199997,3.3455,2.9455001,2.4455001
1708,2026-01-01 04:00:00+00:00,3.5455,82.0,0.76035285,-0.981761,20.0,0.0,0.0,0.0,0.0,0.0,61.0,1005.6,1000.8952,100.0,100.0,100.0,12.0,22980.0,17.298738,33.74796,38.41387,42.67177,257.98856,258.92984,259.74323,260.77615,39.96,2.8455,2.4455001,1.9455
1709,2026-01-01 05:00:00+00:00,2.9955,77.0,-0.6433534,-2.2876098,0.0,0.0,0.0,0.0,0.0,0.0,3.0,1004.1,999.3929,100.0,100.0,74.0,0.0,34660.0,20.991426,40.449966,45.33714,49.764706,247.8336,249.14546,249.55037,250.12303,45.36,2.2455,1.7455001,1.2455001
1710,2026-01-01 06:00:00+00:00,2.3955,76.0,-1.4040699,-3.1145353,3.0,0.0,0.0,0.0,0.0,0.0,61.0,1002.6,997.88947,100.0,89.0,100.0,65.0,36860.0,21.794127,41.9288,47.379333,52.178894,239.19862,240.13318,240.90321,242.02061,46.44,1.7455001,1.2455001,0.74549997
1711,2026-01-01 07:00:00+00:00,2.5955,72.0,-1.9461236,-2.8836246,50.0,0.0,0.0,0.0,0.0,0.0,3.0,1001.1,996.4001,100.0,100.0,100.0,46.0,43960.0,21.068459,41.060516,46.98379,52.243427,236.853,238.2609,239.1116,240.25522,47.16,1.9455,1.5455,0.94549996
1712,2026-01-01 08:00:00+00:00,2.5455,74.0,-1.6220751,-2.6945992,70.0,0.0,0.0,0.0,0.0,0.0,3.0,1000.5,995.802,100.0,100.0,100.0,100.0,40060.0,19.734436,37.87535,43.14747,47.72682,231.66663,233.89246,234.85124,236.07016,48.6,1.8455,1.3455,0.8455
1713,2026-01-01 09:00:00+00:00,2.6955001,71.0,-2.0395777,-2.8812084,48.0,0.0,0.0,0.0,0.0,0.0,3.0,999.6,994.9089,100.0,94.0,100.0,100.0,45400.0,21.650938,41.079456,46.50832,51.218777,227.02136,228.90865,230.02412,231.27728,46.079998,1.9455,1.4455,0.94549996
1714,2026-01-01 10:00:00+00:00,3.0455,68.0,-2.28853,-2.7883208,13.0,0.0,0.0,0.0,0.0,0.0,3.0,998.0,993.32245,100.0,88.0,100.0,100.0,50920.0,23.185787,44.239006,50.12281,55.332363,233.84172,235.27528,236.42404,237.75755,50.399998,2.3455,1.8455,1.3455
1715,2026-01-01 11:00:00+00:00,3.2955,67.0,-2.24995,-2.3561087,13.0,0.0,0.0,0.0,0.0,0.0,3.0,997.0,992.3311,100.0,100.0,100.0,100.0,52940.0,21.9718,41.835964,47.43538,52.050823,235.0079,236.58339,237.39542,238.2887,51.12,2.4455001,2.0455,1.4455
1716,2026-01-01 12:00:00+00:00,3.2455,63.0,-3.1277316,-2.6062782,28.0,0.1,0.1,0.0,0.0,0.0,61.0,996.5,991.8325,100.0,90.0,100.0,100.0,58040.0,22.565422,43.15948,48.774357,53.900303,236.05637,238.29861,238.89125,239.49573,50.76,2.4455001,1.9455,1.4455
1717,2026-01-01 13:00:00+00:00,2.9455001,66.0,-2.7871866,-2.9669278,75.0,0.0,0.0,0.0,0.0,0.0,3.0,994.2,989.5384,100.0,80.0,100.0,100.0,34660.0,23.277834,44.4261,49.392204,53.65087,230.64827,232.57288,233.29706,234.28346,52.92,2.0455,1.5455,0.94549996
1718,2026-01-01 14:00:00+00:00,2.7955,69.0,-2.3305092,-2.8444486,100.0,0.0,0.0,0.0,0.0,0.0,61.0,993.6,988.9387,100.0,100.0,100.0,100.0,46540.0,21.817902,41.766205,47.247856,52.025913,232.3737,234.11777,234.61449,235.43016,50.399998,2.0455,1.5455,0.94549996
1719,2026-01-01 15:00:00+00:00,3.2455,74.0,-0.9456639,-2.3284967,73.0,0.0,0.0,0.0,0.0,0.0,3.0,993.3,988.6475,100.0,100.0,77.0,1.0,41200.0,22.682856,43.442318,49.524536,54.919765,234.03938,235.1246,235.96335,237.03911,52.199997,2.5455,2.1455,1.6455001
1720,2026-01-01 16:00:00+00:00,3.6955001,70.0,-1.271533,-1.9846332,20.0,0.0,0.0,0.0,0.0,0.0,3.0,992.5,987.859,100.0,100.0,81.0,0.0,48420.0,23.090569,43.672913,49.44728,54.580082,239.03632,240.89961,241.75584,242.928,49.32,3.0455,2.5455,2.0455
1721,2026-01-01 17:00:00+00:00,3.6455,72.0,-0.9346719,-2.3051488,30.0,0.0,0.0,0.0,0.0,0.0,80.0,991.9,987.26086,100.0,100.0,70.0,0.0,45200.0,25.277025,47.99895,53.987995,59.18251,243.79994,245.16486,245.99872,246.70985,54.719997,2.9455001,2.4455001,1.9455
1722,2026-01-01 18:00:00+00:00,4.2454996,67.0,-1.3423201,-1.9043021,25.0,0.0,0.0,0.0,0.0,0.0,3.0,991.3,986.6736,90.0,75.0,69.0,0.0,53880.0,26.242987,49.281883,55.596405,61.120533,243.08353,244.93256,245.9245,246.75706,57.6,3.5455,3.1455,2.6455
1723,2026-01-01 19:00:00+00:00,3.9455001,69.0,-1.2280746,-2.0944505,38.0,0.0,0.0,0.0,0.0,0.0,3.0,990.9,986.2705,100.0,100.0,100.0,0.0,49840.0,25.600533,48.325893,55.12116,60.647976,244.15567,245.34412,246.1135,246.93535,57.96,3.2455,2.8455,2.2455
1724,2026-01-01 20:00:00+00:00,3.8455,70.0,-1.1275134,-2.0451448,48.0,0.1,0.0,0.0,0.0,0.0,85.0,990.7,986.0699,100.0,86.0,96.0,0.0,49020.0,24.675106,46.527824,53.217937,59.11568,246.80139,248.19853,248.99023,249.68889,56.88,3.1455,2.7455,2.2455
1725,2026-01-01 21:00:00+00:00,4.2955,69.0,-0.8925943,-1.651547,48.0,0.0,0.0,0.0,0.0,0.0,3.0,991.2,986.575,100.0,100.0,100.0,0.0,50620.0,25.294964,46.939636,52.948154,57.560608,245.62354,246.97449,247.61981,248.73087,54.36,3.6455,3.1455,2.6455
1726,2026-01-01 22:00:00+00:00,3.9955,71.0,-0.7893219,-1.9662833,43.0,0.1,0.0,0.0,0.0,0.0,61.0,990.3,985.6742,100.0,100.0,100.0,0.0,46840.0,25.49908,48.183548,54.76261,60.379196,239.4525,240.94548,241.75035,242.67114,52.92,3.3455,2.9455001,2.3455
1727,2026-01-01 23:00:00+00:00,3.6455,71.0,-1.1259047,-2.124198,50.0,0.0,0.0,0.0,0.0,0.0,61.0,989.7,985.07117,100.0,100.0,100.0,0.0,45560.0,23.847115,44.76756,50.555332,55.061172,241.11351,242.19862,242.88763,243.60254,54.36,2.9455001,2.4455001,1.9455
1728,2026-01-02 00:00:00+00:00,3.2455,74.0,-0.9456639,-2.449196,53.0,0.0,0.0,0.0,0.0,0.0,3.0,989.5,984.8653,100.0,99.0,100.0,0.0,40620.0,23.510508,43.82695,49.1634,53.699158,244.61214,245.7508,246.25049,246.70052,52.199997,2.4455001,2.0455,1.4455
1729,2026-01-02 01:00:00+00:00,2.9455001,78.0,-0.51483643,-2.4769552,58.0,0.2,0.0,0.0,0.0,0.0,85.0,989.7,985.0595,100.0,100.0,100.0,0.0,33140.0,22.077717,41.12517,46.193764,50.943497,245.94266,246.80139,248.0327,248.87521,52.56,2.2455,1.7455001,1.2455001
1730,2026-01-02 02:00:00+00:00,2.8955,76.0,-0.91944623,-2.5386393,23.0,0.0,0.0,0.0,0.0,0.0,3.0,989.2,984.5611,100.0,100.0,0.0,0.0,35960.0,21.749481,40.32161,45.725666,50.47837,245.55606,246.86855,248.28229,249.1091,45.719997,2.1455,1.7455001,1.1455001
1731,2026-01-02 03:00:00+00:00,2.9955,73.0,-1.3728756,-2.2590346,13.0,0.0,0.0,0.0,0.0,0.0,3.0,988.6,983.9655,100.0,100.0,0.0,0.0,42720.0,20.073025,37.600616,42.732468,47.065094,237.45,239.50673,240.19534,240.6901,50.039997,2.2455,1.8455,1.2455001
1732,2026-01-02 04:00:00+00:00,2.7455,72.0,-1.8016204,-2.9754508,5.0,0.0,0.0,0.0,0.0,0.0,3.0,987.8,983.165,100.0,100.0,1.0,0.0,44620.0,22.862123,42.827896,48.305775,52.826855,243.8385,244.08116,244.38983,245.00673,57.239998,2.0455,1.5455,1.0455
1733,2026-01-02 05:00:00+00:00,2.5455,72.0,-1.9942918,-3.4132802,0.0,0.0,0.0,0.0,0.0,0.0,3.0,987.8,983.1616,100.0,100.0,100.0,0.0,43220.0,24.312662,45.40141,51.37037,56.548656,242.6762,243.6382,244.69206,245.55606,51.48,1.8455,1.3455,0.8455
1734,2026-01-02 06:00:00+00:00,2.7455,69.0,-2.3784459,-3.4198046,0.0,0.0,0.0,0.0,0.0,0.0,3.0,986.9,982.2692,89.0,81.0,23.0,5.0,50180.0,25.376808,46.61826,52.379692,56.542927,238.3393,239.87105,240.7925,241.47697,55.079998,2.0455,1.5455,1.0455
1735,2026-01-02 07:00:00+00:00,2.5455,68.0,-2.7671108,-3.6259303,3.0,0.0,0.0,0.0,0.0,0.0,3.0,987.0,982.36536,100.0,72.0,100.0,100.0,51880.0,25.071098,47.110508,53.183826,59.103622,237.90744,239.71213,240.83247,242.03024,52.92,1.8455,1.4455,0.94549996
1736,2026-01-02 08:00:00+00:00,2.5455,68.0,-2.7671108,-3.9420743,38.0,0.0,0.0,0.0,0.0,0.0,3.0,986.9,982.26587,100.0,100.0,100.0,60.0,50560.0,27.238941,50.23516,56.671135,62.15815,240.72484,242.7005,243.5978,244.6223,57.239998,1.7455001,1.3455,0.74549997
1737,2026-01-02 09:00:00+00:00,1.7955,80.0,-1.2878453,-4.161023,63.0,0.4,0.2,0.0,0.14,0.0,71.0,987.8,983.14923,100.0,92.0,100.0,0.0,3320.0,24.967497,45.572357,51.36028,56.348915,241.58743,242.22046,242.89621,243.43501,58.32,1.0455,0.5455,0.045500003
1738,2026-01-02 10:00:00+00:00,1.3955001,88.0,-0.37464735,-3.9584286,90.0,0.6,0.4,0.0,0.07,0.0,85.0,987.7,983.04297,100.0,89.0,100.0,0.0,2900.0,21.749483,40.57633,46.367386,52.330185,241.31395,242.52565,243.23607,244.31639,50.039997,0.6455,0.2455,-0.2545
1739,2026-01-02 11:00:00+00:00,1.1955,91.0,-0.11079821,-3.656891,90.0,0.7,0.2,0.0,0.28,0.0,71.0,988.8,984.1344,100.0,89.0,100.0,0.0,2620.0,18.58451,35.647274,43.375145,53.174084,248.40463,249.91794,251.11382,252.66902,47.519997,0.44550002,0.045500003,-0.2545
1740,2026-01-02 12:00:00+00:00,1.3955001,87.0,-0.5316561,-3.5692508,83.0,0.6,0.4,0.0,0.14,0.0,61.0,989.4,984.735,100.0,97.0,100.0,4.0,12520.0,18.919704,35.1862,39.96,44.740047,248.80588,250.26723,251.07526,251.71074,54.0,0.5455,0.1455,-0.3545
1741,2026-01-02 13:00:00+00:00,2.2955,78.0,-1.1467013,-3.8206966,93.0,0.0,0.0,0.0,0.0,0.0,61.0,989.2,984.55096,100.0,100.0,100.0,0.0,15220.0,26.200977,49.28188,55.49374,60.506775,257.3004,258.1976,258.39853,259.02438,53.639996,1.5455,1.0455,0.5455
1742,2026-01-02 14:00:00+00:00,2.2955,78.0,-1.1467013,-3.6859531,75.0,0.1,0.0,0.0,0.0,0.0,61.0,989.4,984.75006,100.0,93.0,100.0,0.0,12020.0,25.277023,46.755672,52.199997,56.521145,259.33026,260.24765,260.47278,260.83774,53.639996,1.4455,1.0455,0.44550002
1743,2026-01-02 15:00:00+00:00,2.6455,77.0,-0.98308414,-2.9811862,20.0,0.0,0.0,0.0,0.0,0.0,61.0,989.4,984.75586,100.0,53.0,99.0,0.0,35240.0,23.006226,43.71592,49.635635,54.99994,249.86362,251.26654,251.82777,252.86961,49.68,1.9455,1.5455,1.0455
1744,2026-01-02 16:00:00+00:00,2.5955,69.0,-2.522259,-2.900643,10.0,0.0,0.0,0.0,0.0,0.0,3.0,989.0,984.35693,100.0,79.0,100.0,0.0,50300.0,20.65848,39.442596,44.79216,49.764706,247.4569,248.58696,248.7971,250.12303,48.96,1.9455,1.4455,0.94549996
1745,2026-01-02 17:00:00+00:00,2.0455,70.0,-2.8559825,-3.756904,20.0,0.1,0.0,0.0,0.0,0.0,85.0,989.1,984.4471,77.0,69.0,14.0,0.0,49020.0,22.461807,42.2613,47.827187,52.48227,248.36905,249.55812,250.20103,251.19211,48.6,1.3455,0.8455,0.34550002
1746,2026-01-02 18:00:00+00:00,1.7955,74.0,-2.3468735,-3.6092384,55.0,0.0,0.0,0.0,0.0,0.0,3.0,989.3,984.64215,100.0,84.0,100.0,0.0,39200.0,20.188908,37.374172,42.2613,46.35061,248.00882,249.1209,249.55812,250.0168,48.96,1.0455,0.5455,0.045500003
1747,2026-01-02 19:00:00+00:00,1.6955,75.0,-2.261989,-3.7096746,53.0,0.1,0.0,0.0,0.0,0.0,85.0,989.4,984.73987,100.0,100.0,100.0,0.0,37320.0,20.268991,38.59395,43.619465,48.214466,250.27763,252.07199,253.21008,254.40712,43.56,0.94549996,0.44550002,-0.0545
1748,2026-01-02 20:00:00+00:00,1.2455001,80.0,-1.8240945,-4.133122,40.0,0.0,0.0,0.0,0.0,0.0,3.0,989.5,984.83167,94.0,85.0,54.0,0.0,27540.0,20.49156,38.484653,43.619465,47.867817,251.56496,252.58194,253.21008,254.29129,44.639996,0.44550002,0.045500003,-0.55450004
1749,2026-01-02 21:00:00+00:00,0.74549997,86.0,-1.3292425,-4.2576437,85.0,0.7,0.0,0.0,0.42000002,0.0,71.0,990.4,985.7191,98.0,86.0,91.0,0.0,15340.0,18.388212,35.09954,39.860954,43.832863,246.94867,248.96242,249.92838,250.82089,47.88,0.1455,-0.3545,-0.8545
1750,2026-01-02 22:00:00+00:00,0.6455,87.0,-1.2698944,-4.781122,100.0,0.2,0.0,0.0,0.14,0.0,85.0,990.2,985.5182,100.0,100.0,100.0,0.0,11000.0,21.349546,39.732323,45.11649,49.763405,264.19336,265.32266,265.8819,266.68228,47.519997,-0.0545,-0.55450004,-1.0545
1751,2026-01-02 23:00:00+00:00,0.44550002,81.0,-2.4363823,-5.03386,80.0,0.2,0.0,0.0,0.07,0.0,85.0,991.6,986.90814,87.0,70.0,61.0,0.0,27060.0,20.617662,37.722775,42.609463,46.102493,282.09473,283.24054,283.68402,284.47034,47.16,-0.2545,-0.75450003,-1.2544999
1752,2026-01-03 00:00:00+00:00,-0.004499998,77.0,-3.5557954,-5.676785,60.0,0.0,0.0,0.0,0.0,0.0,3.0,992.7,987.99524,100.0,100.0,100.0,0.0,34820.0,20.966715,38.723015,43.274933,46.795845,285.94547,286.75034,286.92758,287.4593,48.239998,-0.75450003,-1.2544999,-1.7544999
1753,2026-01-03 01:00:00+00:00,-0.0545,76.0,-3.7791674,-5.5612125,45.0,0.0,0.0,0.0,0.0,0.0,3.0,993.6,988.89026,87.0,65.0,68.0,0.0,39440.0,19.64558,37.1969,42.530308,46.730717,283.78162,284.57425,285.21265,285.6423,45.719997,-0.75450003,-1.2544999,-1.7544999
1754,2026-01-03 02:00:00+00:00,-0.30449998,75.0,-4.1980863,-6.085931,5.0,0.0,0.0,0.0,0.0,0.0,2.0,994.6,989.88116,61.0,61.0,0.0,0.0,41100.0,21.188072,39.751892,44.98271,49.24637,279.78235,282.02225,282.47906,283.52832,45.0,-1.0545,-1.5545,-2.0544999
1755,2026-01-03 03:00:00+00:00,-0.4545,74.0,-4.52172,-6.0204477,3.0,0.0,0.0,0.0,0.0,0.0,2.0,995.5,990.77423,29.0,29.0,0.0,0.0,42120.0,19.45333,36.088093,41.167694,45.242702,272.12103,274.0041,274.5139,275.93732,46.079998,-1.1545,-1.5545,-2.0544999
1756,2026-01-03 04:00:00+00:00,-0.6045,80.0,-3.6280658,-5.9138045,3.0,0.0,0.0,0.0,0.0,0.0,3.0,995.7,990.9707,84.0,53.0,63.0,0.0,29820.0,18.416384,34.268143,38.939953,42.5044,265.51547,266.3862,266.82022,268.05856,40.68,-1.2544999,-1.7544999,-2.2545
1757,2026-01-03 05:00:00+00:00,-0.3545,82.0,-3.0527263,-5.0903864,3.0,0.0,0.0,0.0,0.0,0.0,2.0,996.1,991.3731,86.0,62.0,61.0,0.0,24500.0,14.973576,28.410364,32.686733,37.330803,260.31128,261.2539,262.40546,263.35483,37.8,-0.9545,-1.3544999,-1.8544999
1758,2026-01-03 06:00:00+00:00,0.19550002,82.0,-2.5149019,-5.386755,13.0,0.0,0.0,0.0,0.0,0.01,3.0,996.1,991.3825,82.0,82.0,0.0,0.0,24960.0,21.2522,39.71438,45.464165,50.412853,259.26114,261.13547,261.80582,263.0273,38.16,-0.3545,-0.8545,-1.3544999
1759,2026-01-03 07:00:00+00:00,0.2955,86.0,-1.7716225,-4.6425548,40.0,0.0,0.0,0.0,0.0,0.01,3.0,996.0,991.2849,90.0,77.0,53.0,0.0,17840.0,17.518356,32.686733,37.648838,42.24443,260.53775,262.40546,263.9624,265.60138,43.92,-0.3545,-0.75450003,-1.2544999
1760,2026-01-03 08:00:00+00:00,0.4955,84.0,-1.8948659,-4.2630205,30.0,0.0,0.0,0.0,0.0,0.01,3.0,996.5,991.78595,99.0,91.0,94.0,0.0,22460.0,16.171976,30.5173,34.964508,38.966568,253.17851,252.84749,253.24417,253.9091,37.44,-0.15450001,-0.55450004,-1.0545
1761,2026-01-03 09:00:00+00:00,0.1455,95.0,-0.56060016,-4.049362,75.0,0.7,0.0,0.0,0.42000002,0.02,71.0,996.6,991.87946,100.0,100.0,100.0,1.0,640.0,13.608762,26.161375,31.255795,36.304707,232.52374,235.65384,237.22513,239.62096,31.68,-0.4545,-0.8545,-1.2544999
1762,2026-01-03 10:00:00+00:00,0.3955,92.0,-0.7525956,-4.5323524,90.0,0.8,0.0,0.0,0.49000004,0.02,71.0,996.4,991.68475,100.0,90.0,100.0,24.0,4480.0,18.440998,33.40831,37.5851,41.036842,231.34016,232.88306,233.56905,236.44931,37.44,-0.3545,-0.75450003,-1.1545
1763,2026-01-03 11:00:00+00:00,0.3955,95.0,-0.3120506,-4.05682,80.0,1.3000001,0.0,0.0,0.91,0.02,73.0,996.2,991.4857,100.0,100.0,100.0,19.0,880.0,15.629971,30.10685,36.08091,41.928795,241.07367,243.7414,245.22488,246.73679,44.28,-0.2545,-0.55450004,-1.0545
1764,2026-01-03 12:00:00+00:00,0.69549996,92.0,-0.4554204,-4.2729883,75.0,1.1,0.0,0.0,0.7,0.04,73.0,996.6,991.88885,100.0,92.0,100.0,14.0,3880.0,19.022177,35.747112,40.896065,46.206387,240.5242,242.40279,242.75835,243.63464,38.519997,0.045500003,-0.3545,-0.8545
1765,2026-01-03 13:00:00+00:00,0.94549996,87.0,-0.9745949,-4.3670845,90.0,0.2,0.0,0.0,0.14,0.04,71.0,996.2,991.4951,100.0,95.0,100.0,0.0,12780.0,20.858265,38.93995,43.60163,48.171448,248.74942,250.55988,251.71455,253.0546,43.199997,0.2455,-0.2545,-0.75450003
1766,2026-01-03 14:00:00+00:00,0.3955,94.0,-0.45751077,-4.2268343,83.0,0.70000005,0.0,0.0,0.35,0.04,71.0,996.7,991.98334,100.0,100.0,100.0,0.0,1360.0,16.645864,32.023815,37.247387,42.598816,248.42863,248.91617,249.6383,249.72722,42.839996,-0.2545,-0.6545,-1.0545
1767,2026-01-03 15:00:00+00:00,0.4955,91.0,-0.803341,-4.22687,78.0,1.2,0.0,0.0,0.56,0.04,73.0,996.4,991.6864,100.0,98.0,100.0,0.0,3800.0,16.981165,31.796375,36.43655,40.91349,237.99466,239.37007,240.39565,241.63104,40.68,-0.15450001,-0.55450004,-1.0545
1768,2026-01-03 16:00:00+00:00,0.3955,93.0,-0.6043497,-3.9119687,88.0,0.6,0.0,0.0,0.35,0.04,71.0,996.1,991.38617,100.0,100.0,100.0,13.0,5560.0,14.336861,26.712873,30.96837,35.346058,231.1155,232.66673,234.46223,236.6336,36.0,-0.2545,-0.6545,-1.1545
1769,2026-01-03 17:00:00+00:00,0.19550002,94.0,-0.65611213,-4.317911,98.0,0.8,0.0,0.0,0.56,0.04,71.0,996.1,991.3825,100.0,96.0,100.0,0.0,3000.0,15.696165,29.46287,34.54687,39.152378,233.39284,234.95055,236.4755,237.77127,34.56,-0.4545,-0.8545,-1.3544999
1770,2026-01-03 18:00:00+00:00,0.1455,90.0,-1.3004607,-4.7786665,95.0,0.8,0.0,0.0,0.42000002,0.06,71.0,996.7,991.979,100.0,94.0,100.0,0.0,11180.0,17.873556,33.549606,37.854813,41.862286,235.66972,236.82147,237.82138,238.36026,34.2,-0.55450004,-0.9545,-1.4545
1771,2026-01-03 19:00:00+00:00,0.045500003,90.0,-1.3992754,-4.825695,85.0,0.1,0.0,0.0,0.0,0.06,85.0,996.4,991.67865,100.0,95.0,100.0,0.0,9480.0,17.414474,32.696644,37.191677,42.192245,240.2552,241.74207,242.93898,244.74687,36.719997,-0.6545,-1.0545,-1.5545
1772,2026-01-03 20:00:00+00:00,0.2455,83.0,-2.302126,-4.769579,58.0,0.0,0.0,0.0,0.0,0.06,3.0,997.5,992.77686,97.0,70.0,89.0,0.0,24540.0,17.555305,33.27031,37.84283,41.312252,254.53873,256.86597,258.47632,259.96317,37.44,-0.3545,-0.8545,-1.3544999
1773,2026-01-03 21:00:00+00:00,0.09550001,89.0,-1.5021393,-4.4561243,48.0,0.0,0.0,0.0,0.0,0.06,3.0,996.9,992.1771,99.0,99.0,89.0,0.0,12980.0,15.124284,28.66694,32.949345,37.358566,231.76613,234.71317,236.13628,237.99466,38.16,-0.55450004,-0.9545,-1.4545
1774,2026-01-03 22:00:00+00:00,0.2455,84.0,-2.1399848,-5.0150146,43.0,0.3,0.0,0.0,0.14,0.06,85.0,997.6,992.87634,82.0,77.0,8.0,0.0,23700.0,19.386593,37.06427,42.826385,47.82583,238.67136,240.94548,243.00424,244.59233,43.92,-0.3545,-0.75450003,-1.2544999
1775,2026-01-03 23:00:00+00:00,-0.1045,85.0,-2.3231785,-5.4919753,90.0,0.1,0.0,0.0,0.0,0.06,85.0,997.3,992.5718,100.0,100.0,100.0,0.0,19620.0,20.08916,37.84283,43.238983,48.28028,233.74606,235.85637,237.23611,239.0363,46.44,-0.75450003,-1.1545,-1.6545
1776,2026-01-04 00:00:00+00:00,-0.2545,77.0,-3.7985463,-6.8709526,90.0,0.2,0.0,0.0,0.0,0.06,85.0,998.1,993.3655,91.0,82.0,31.0,0.0,38280.0,27.238941,50.65137,57.072205,62.383953,262.40546,264.2895,265.29648,266.69186,59.399998,-0.8545,-1.3544999,-1.8544999
1777,2026-01-04 01:00:00+00:00,-1.4545,79.0,-4.624067,-7.7888813,68.0,0.0,0.0,0.0,0.0,0.06,3.0,999.7,994.9371,85.0,82.0,5.0,0.0,33720.0,24.64094,45.061874,50.38071,54.570583,281.8024,282.926,283.63907,284.12796,59.039997,-2.2545,-2.7545,-3.2545
1778,2026-01-04 02:00:00+00:00,-2.3044999,75.0,-6.1346946,-8.298879,15.0,0.0,0.0,0.0,0.0,0.06,3.0,1001.0,996.2158,81.0,81.0,0.0,0.0,41360.0,21.188072,38.833305,42.99702,46.38974,279.78235,280.68484,281.59213,282.09473,48.96,-3.0544999,-3.5544999,-4.0545
1779,2026-01-04 03:00:00+00:00,-2.8044999,79.0,-5.9389725,-8.314362,8.0,0.0,0.0,0.0,0.0,0.06,2.0,1001.7,996.90375,4.0,4.0,0.0,0.0,32460.0,18.0036,32.76198,37.08699,41.079453,268.85425,270.62958,271.11237,272.51132,41.760002,-3.5544999,-3.9545,-4.4545
1780,2026-01-04 04:00:00+00:00,-3.1545,79.0,-6.279905,-8.331491,5.0,0.0,0.0,0.0,0.0,0.06,3.0,1002.3,997.49457,100.0,0.0,100.0,0.0,33860.0,15.4800005,28.449112,32.41799,36.78347,270.0,271.4502,271.90912,273.3664,36.36,-3.8545,-4.2545004,-4.7545004
1781,2026-01-04 05:00:00+00:00,-3.2045,82.0,-5.840069,-8.084632,20.0,0.0,0.0,0.0,0.0,0.06,1.0,1002.7,997.89185,60.0,60.0,0.0,0.0,26760.0,13.75558,26.368616,30.652895,37.801712,263.9911,265.3014,266.6336,269.45435,31.319998,-3.8545,-4.2545004,-4.5545
1782,2026-01-04 06:00:00+00:00,-3.4545,83.0,-5.9256177,-8.08279,25.0,0.0,0.0,0.0,0.0,0.08,2.0,1003.5,998.6836,42.0,42.0,0.0,0.0,23160.0,11.966954,23.400002,27.684914,36.40275,254.29129,255.74994,257.22876,261.46933,28.44,-3.9545,-4.3545003,-4.6545
1783,2026-01-04 07:00:00+00:00,-3.5544999,88.0,-5.2539287,-7.9765477,10.0,0.0,0.0,0.0,0.0,0.08,2.0,1003.7,998.8808,54.0,54.0,0.0,0.0,13480.0,11.043261,21.659918,25.233406,33.75756,250.9743,254.57777,255.96373,262.6477,24.84,-4.0545,-4.3545003,-4.6545
1784,2026-01-04 08:00:00+00:00,-3.3545,89.0,-4.907266,-7.492796,0.0,0.0,0.0,0.0,0.0,0.08,2.0,1004.6,999.77985,45.0,45.0,0.0,0.0,11620.0,9.360001,20.037485,25.323128,33.202072,247.3801,252.21602,255.17348,260.6399,22.319998,-3.7545,-4.1545,-4.1545
1785,2026-01-04 09:00:00+00:00,-2.6045,86.0,-4.62285,-6.6871386,0.0,0.0,0.0,0.0,0.0,0.09,3.0,1005.4,1000.5895,68.0,68.0,0.0,0.0,16820.0,9.19939,18.204042,22.33161,32.48788,239.42085,245.46228,249.22766,257.19574,21.24,-3.2545,-3.6545,-3.7545
1786,2026-01-04 10:00:00+00:00,-1.6545,87.0,-3.5340478,-5.695035,3.0,0.0,0.0,0.0,0.0,0.09,2.0,1005.0,1000.208,77.0,74.0,4.0,0.0,14940.0,9.793059,17.595861,20.774214,24.014996,233.97253,239.23735,242.10283,246.12471,20.880001,-2.5544999,-2.9545,-3.4545
1787,2026-01-04 11:00:00+00:00,-0.6045,88.0,-2.3459017,-4.967796,5.0,0.0,0.0,0.0,0.0,0.09,3.0,1004.8,1000.0274,96.0,93.0,38.0,0.0,13780.0,13.0447235,21.578989,23.188583,26.099379,242.02061,242.15251,242.24155,245.55606,30.599998,-1.4545,-1.9545,-2.3545
1788,2026-01-04 12:00:00+00:00,0.09550001,84.0,-2.2870586,-3.9645147,20.0,0.0,0.0,0.0,0.0,0.08,3.0,1005.6,1000.8359,100.0,50.0,100.0,0.0,22720.0,11.019764,20.380579,22.768396,25.264202,231.63248,234.34457,235.30478,237.21573,29.519999,-0.6545,-1.1545,-1.6545
1789,2026-01-04 13:00:00+00:00,0.19550002,87.0,-1.7128546,-3.964731,28.0,0.0,0.0,0.0,0.0,0.08,2.0,1005.1,1000.3399,72.0,72.0,0.0,0.0,15020.0,12.24,22.380884,24.967499,26.427528,241.92761,244.25934,245.28258,245.87901,29.88,-0.55450004,-1.0545,-1.5545
1790,2026-01-04 14:00:00+00:00,0.19550002,89.0,-1.4034494,-3.6975698,28.0,0.0,0.0,0.0,0.0,0.07,3.0,1005.5,1000.73804,90.0,82.0,35.0,0.0,12100.0,10.703569,20.037485,21.862406,24.72495,250.34608,252.21602,252.75845,253.93994,27.72,-0.55450004,-0.9545,-1.4545
1791,2026-01-04 15:00:00+00:00,0.3955,89.0,-1.2060714,-3.4748569,20.0,0.0,0.0,0.0,0.0,0.07,3.0,1006.4,1001.63745,88.0,88.0,0.0,0.0,10740.0,10.739833,20.192118,23.441502,27.952787,256.42953,258.6901,259.3804,262.6005,23.759998,-0.3545,-0.75450003,-1.2544999
1792,2026-01-04 16:00:00+00:00,0.1455,89.0,-1.4527943,-3.7088184,20.0,0.0,0.0,0.0,0.0,0.07,2.0,1006.3,1001.5335,72.0,72.0,0.0,0.0,12220.0,10.390226,19.562946,22.805367,27.047956,255.96373,257.24246,258.15796,260.03625,25.56,-0.4545,-0.9545,-1.3544999
1793,2026-01-04 17:00:00+00:00,0.2455,91.0,-1.0506828,-3.4703438,28.0,0.0,0.0,0.0,0.0,0.07,3.0,1006.7,1001.9333,94.0,94.0,0.0,0.0,9060.0,9.83268,19.592731,23.452555,27.766712,246.25049,249.56708,252.1212,256.50424,20.880001,-0.4545,-0.8545,-1.3544999
1794,2026-01-04 18:00:00+00:00,0.44550002,92.0,-0.70306605,-3.2482257,38.0,0.0,0.0,0.0,0.0,0.07,3.0,1007.7,1002.932,100.0,99.0,100.0,0.0,6260.0,10.028439,19.353138,22.79684,26.282465,248.96242,251.56496,254.4274,256.5348,23.039999,-0.15450001,-0.6545,-1.0545
1795,2026-01-04 19:00:00+00:00,0.4955,89.0,-1.1073831,-3.4049706,55.0,0.1,0.0,0.0,0.07,0.07,85.0,1007.7,1002.933,86.0,86.0,0.0,0.0,12120.0,11.043261,22.104116,25.671307,29.09103,250.9743,253.92636,255.37909,257.85574,23.4,-0.15450001,-0.55450004,-1.0545
1796,2026-01-04 20:00:00+00:00,0.34550002,88.0,-1.409527,-3.5315213,53.0,0.0,0.0,0.0,0.0,0.07,71.0,1008.6,1003.82605,70.0,70.0,0.0,0.0,13380.0,10.587917,19.93048,23.241617,27.155552,252.18102,253.20154,253.81071,255.41104,26.28,-0.3545,-0.75450003,-1.1545
1797,2026-01-04 21:00:00+00:00,0.5455,88.0,-1.2124021,-3.3768024,20.0,0.1,0.0,0.0,0.07,0.07,71.0,1009.3,1004.5263,91.0,84.0,66.0,0.0,13680.0,11.090103,21.068459,24.57511,28.220419,234.24602,236.853,238.17259,240.16455,23.759998,-0.0545,-0.4545,-0.9545
1798,2026-01-04 22:00:00+00:00,0.19550002,90.0,-1.2510536,-3.6375837,13.0,0.1,0.0,0.0,0.0,0.07,71.0,1009.5,1004.71906,99.0,99.0,62.0,12.0,9740.0,10.44,20.390114,24.29133,30.154163,223.60289,227.86247,230.4119,236.68936,22.68,-0.4545,-0.8545,-1.1545
1799,2026-01-04 23:00:00+00:00,-0.004499998,89.0,-1.6008297,-3.856608,15.0,0.0,0.0,0.0,0.0,0.07,2.0,1009.7,1004.9147,62.0,62.0,0.0,0.0,12320.0,10.233123,20.12461,23.686249,31.353085,219.28938,222.82524,226.8476,235.76248,22.319998,-0.6545,-1.0545,-1.3544999
1800,2026-01-05 00:00:00+00:00,-0.0545,89.0,-1.650175,-3.8071733,8.0,0.0,0.0,0.0,0.0,0.07,3.0,1010.2,1005.41156,100.0,45.0,100.0,0.0,11600.0,9.504272,18.089775,22.42427,28.660158,217.30403,222.58046,227.60262,237.30801,22.319998,-0.6545,-0.9545,-1.0545
1801,2026-01-05 01:00:00+00:00,-0.20449999,87.0,-2.106608,-4.1775045,3.0,0.0,0.0,0.0,0.0,0.07,3.0,1010.8,1006.006,90.0,79.0,81.0,0.0,15840.0,10.587918,20.523157,24.522314,33.127823,215.3113,217.87505,220.23628,227.6426,22.68,-0.8545,-1.2544999,-1.3544999
1802,2026-01-05 02:00:00+00:00,-0.30449998,86.0,-2.361484,-4.2195024,8.0,0.0,0.0,0.0,0.0,0.07,3.0,1010.6,1005.80524,100.0,100.0,100.0,0.0,17480.0,9.957108,19.35314,23.166216,31.826931,220.60121,223.49261,225.62952,232.35231,22.68,-0.9545,-1.3544999,-1.4545
1803,2026-01-05 03:00:00+00:00,-0.0545,84.0,-2.434134,-3.8715966,0.0,0.0,0.0,0.0,0.0,0.07,3.0,1010.7,1005.90924,100.0,82.0,100.0,0.0,23140.0,9.220499,18.584509,22.406927,29.808346,218.65984,224.21526,226.30188,232.85323,21.24,-0.55450004,-0.9545,-1.1545
1804,2026-01-05 04:00:00+00:00,-0.1045,83.0,-2.644839,-3.9295154,0.0,0.0,0.0,0.0,0.0,0.06,3.0,1011.0,1006.20685,100.0,81.0,100.0,0.0,24780.0,9.085988,17.935081,21.166653,28.449112,213.6901,218.48022,221.55252,231.67984,19.44,-0.75450003,-1.1545,-1.2544999
1805,2026-01-05 05:00:00+00:00,-0.40449998,84.0,-2.777317,-4.173978,3.0,0.0,0.0,0.0,0.0,0.06,3.0,1011.1,1006.30096,100.0,100.0,100.0,0.0,21580.0,8.587338,16.418526,20.12461,26.649727,213.02386,217.87505,222.82524,231.58191,19.44,-1.0545,-1.4545,-1.6545
1806,2026-01-05 06:00:00+00:00,-0.40449998,81.0,-3.2664144,-4.2358646,3.0,0.0,0.0,0.0,0.0,0.08,3.0,1011.8,1006.9976,100.0,70.0,100.0,0.0,29740.0,8.587338,16.489416,18.947083,25.741888,213.02386,216.11943,218.82983,227.83418,19.44,-1.0545,-1.4545,-1.8544999
1807,2026-01-05 07:00:00+00:00,-0.80450004,81.0,-3.6570415,-4.6055837,5.0,0.0,0.0,0.0,0.0,0.08,3.0,1012.0,1007.18976,97.0,43.0,92.0,0.0,30200.0,8.049845,15.990646,20.304129,25.455843,206.56499,211.18492,217.07317,224.9999,17.64,-1.4545,-1.7544999,-2.0544999
1808,2026-01-05 08:00:00+00:00,-0.8545,81.0,-3.7058709,-4.6389885,13.0,0.0,0.0,0.0,0.0,0.08,3.0,1012.6,1007.78595,91.0,73.0,62.0,0.0,29620.0,7.8954163,15.315873,20.172853,25.233404,204.22774,209.57774,214.82455,222.10866,16.919998,-1.4545,-1.8544999,-2.0544999
1809,2026-01-05 09:00:00+00:00,-0.75450003,80.0,-3.7743487,-4.7083116,5.0,0.0,0.0,0.0,0.0,0.09,3.0,1012.5,1007.68835,94.0,92.0,90.0,0.0,31260.0,9.0,16.641972,18.391737,21.897945,216.86998,218.85338,220.23628,223.66785,16.919998,-1.5545,-2.0544999,-2.6545
1810,2026-01-05 10:00:00+00:00,-0.7045,79.0,-3.8936474,-4.8017035,8.0,0.0,0.0,0.0,0.0,0.09,3.0,1012.5,1007.6891,96.0,76.0,75.0,0.0,31360.0,9.885262,16.375053,17.57744,18.79255,213.11136,213.34073,214.9921,216.43095,21.24,-1.7544999,-2.2545,-2.7545
1811,2026-01-05 11:00:00+00:00,-0.50450003,75.0,-4.391724,-4.674432,8.0,0.0,0.0,0.0,0.0,0.09,3.0,1012.6,1007.7923,96.0,72.0,84.0,0.0,38600.0,9.983106,16.09969,17.068707,18.043148,205.64096,206.56499,207.64589,208.61037,21.96,-1.5545,-2.0544999,-2.6545
1812,2026-01-05 12:00:00+00:00,-0.1045,71.0,-4.7333026,-4.3199716,0.0,0.0,0.0,0.0,0.0,0.08,2.0,1012.6,1007.7992,77.0,38.0,61.0,0.0,46580.0,10.028439,15.509274,16.78156,17.25373,201.03758,201.80147,202.71445,203.35558,21.96,-1.2544999,-1.7544999,-2.2545
1813,2026-01-05 13:00:00+00:00,0.1455,69.0,-4.8717203,-3.987998,3.0,0.0,0.0,0.0,0.0,0.08,3.0,1012.1,1007.306,94.0,86.0,86.0,0.0,51220.0,9.360001,15.175612,16.311613,16.78156,202.6199,202.30626,202.03629,202.71445,20.880001,-0.8545,-1.3544999,-1.9545
1814,2026-01-05 14:00:00+00:00,0.09550001,69.0,-4.9196787,-4.0644045,8.0,0.0,0.0,0.0,0.0,0.08,3.0,1012.6,1007.8027,94.0,83.0,62.0,0.0,52160.0,9.504273,15.941944,16.746773,17.551615,204.62355,205.40767,205.4633,205.51382,20.880001,-0.8545,-1.3544999,-1.8544999
1815,2026-01-05 15:00:00+00:00,-0.4545,72.0,-4.885056,-4.4889793,5.0,0.0,0.0,0.0,0.0,0.07,3.0,1012.7,1007.8926,83.0,65.0,47.0,0.0,48000.0,8.669949,15.683776,17.581125,19.562946,184.76355,189.24603,190.6196,192.75752,20.519999,-1.1545,-1.5545,-2.1545
1816,2026-01-05 16:00:00+00:00,-0.8545,75.0,-4.7306027,-4.501389,5.0,0.0,0.0,0.0,0.0,0.07,3.0,1012.3,1007.48737,92.0,62.0,74.0,0.0,42140.0,6.130579,13.138765,17.114204,20.60823,183.3664,189.46225,194.62091,199.38461,17.64,-1.4545,-1.6545,-1.9545
1817,2026-01-05 17:00:00+00:00,-1.1545,76.0,-4.845776,-5.0241184,3.0,0.0,0.0,0.0,0.0,0.07,3.0,1012.6,1007.7806,96.0,72.0,78.0,0.0,40880.0,7.5685663,14.973576,19.242327,21.933426,182.72626,189.68872,197.41806,203.19862,15.4800005,-1.8544999,-1.8544999,-2.1545
1818,2026-01-05 18:00:00+00:00,-1.7045,77.0,-5.2066455,-5.5134544,3.0,0.0,0.0,0.0,0.0,0.07,3.0,1012.8,1007.97015,80.0,42.0,62.0,0.0,37740.0,6.87779,14.332341,19.586117,22.406927,186.00891,191.59215,197.10281,203.6821,15.84,-2.3545,-2.2545,-2.3545
1819,2026-01-05 19:00:00+00:00,-2.0045,78.0,-5.327913,-5.92747,0.0,0.0,0.0,0.0,0.0,0.07,2.0,1012.9,1008.06433,80.0,80.0,0.0,0.0,35080.0,7.5685663,14.440443,19.914217,22.59699,177.27374,184.28908,192.5288,202.47948,15.84,-2.6545,-2.5544999,-2.4545
1820,2026-01-05 20:00:00+00:00,-2.1545,78.0,-5.473807,-5.9883833,0.0,0.0,0.0,0.0,0.0,0.07,1.0,1013.1,1008.2605,38.0,14.0,25.0,0.0,35200.0,6.849467,12.783802,18.331741,21.924562,183.01273,189.72751,199.50253,209.5114,15.84,-2.8545,-2.7545,-2.3545
1821,2026-01-05 21:00:00+00:00,-2.5544999,77.0,-6.032197,-6.393447,0.0,0.0,0.0,0.0,0.0,0.07,1.0,1013.2,1008.3531,37.0,0.0,37.0,0.0,35300.0,6.4799995,12.7279215,18.214718,20.94507,180.0,188.13002,198.43504,208.76755,14.759999,-3.2545,-2.9545,-2.6545
1822,2026-01-05 22:00:00+00:00,-2.9045,78.0,-6.203311,-6.5165596,0.0,0.0,0.0,0.0,0.0,0.07,2.0,1013.3,1008.4463,61.0,0.0,61.0,0.0,33440.0,4.802999,10.495713,15.379206,19.64228,192.99461,202.1664,212.57405,221.2846,12.599999,-3.4545,-3.2545,-2.9545
1823,2026-01-05 23:00:00+00:00,-3.4045,79.0,-6.5234365,-7.149986,0.0,0.0,0.0,0.0,0.0,0.07,2.0,1013.2,1008.3379,75.0,61.0,24.0,0.0,31780.0,5.495161,13.004922,18.391737,23.966375,211.60745,221.63345,229.76372,237.26477,11.879999,-3.8545,-3.6545,-3.3545
1824,2026-01-06 00:00:00+00:00,-3.5544999,78.0,-6.835598,-7.26077,0.0,0.0,0.0,0.0,0.0,0.07,2.0,1013.3,1008.43463,75.0,20.0,62.0,0.0,33800.0,5.0142193,12.218805,17.373497,22.539564,201.03758,224.9999,235.9806,243.43501,11.159999,-3.6545,-3.3545,-3.0544999
1825,2026-01-06 01:00:00+00:00,-3.7545,78.0,-7.0301585,-7.551593,0.0,0.0,0.0,0.0,0.0,0.07,1.0,1013.5,1008.63025,1.0,0.0,1.0,0.0,33480.0,5.506941,13.53236,17.339897,21.096123,191.30989,208.61037,221.63345,233.32556,11.879999,-3.8545,-3.5544999,-3.2545
1826,2026-01-06 02:00:00+00:00,-4.0545,79.0,-7.156649,-7.9072723,0.0,0.0,0.0,0.0,0.0,0.07,0.0,1013.6,1008.724,0.0,0.0,0.0,0.0,30860.0,5.8048253,13.527572,17.654688,20.466246,187.12492,205.2011,219.20718,230.71062,11.879999,-4.2545004,-3.8545,-3.4545
1827,2026-01-06 03:00:00+00:00,-4.4045,80.0,-7.3345976,-8.326412,0.0,0.0,0.0,0.0,0.0,0.07,1.0,1013.5,1008.61816,0.0,0.0,0.0,0.0,29300.0,6.162207,13.570615,17.57744,19.862083,186.70975,201.80147,214.9921,226.46873,12.599999,-4.6545,-4.3545003,-4.0545
1828,2026-01-06 04:00:00+00:00,-4.7045,80.0,-7.62728,-8.7232895,3.0,0.0,0.0,0.0,0.0,0.07,2.0,1013.3,1008.4137,73.0,0.0,73.0,0.0,29300.0,6.638072,14.707222,18.775303,20.620804,192.5288,201.54105,212.47118,224.29277,13.679999,-5.1545,-4.8545003,-4.6545
1829,2026-01-06 05:00:00+00:00,-4.8545003,79.0,-7.9360495,-8.898795,3.0,0.0,0.0,0.0,0.0,0.07,2.0,1013.4,1008.51074,72.0,0.0,72.0,0.0,30000.0,6.6185193,13.217443,18.218275,20.898613,202.38017,209.35765,217.77574,227.79277,14.04,-5.5545,-5.2545004,-5.0545
1830,2026-01-06 06:00:00+00:00,-4.9045,79.0,-7.9847627,-8.918322,3.0,0.0,0.0,0.0,0.0,0.07,3.0,1013.6,1008.7088,87.0,29.0,78.0,0.0,30100.0,6.379216,12.397806,16.78156,19.107151,196.38962,205.82094,215.39488,227.29063,13.32,-5.6545,-5.4545,-5.1545
1831,2026-01-06 07:00:00+00:00,-4.9045,83.0,-7.345948,-8.892729,8.0,0.0,0.0,0.0,0.0,0.07,85.0,1014.2,1009.3059,85.0,82.0,71.0,0.0,16960.0,6.6087217,10.587918,15.281989,18.374111,209.35765,215.3113,223.09087,235.37578,15.119999,-5.7545004,-5.9545,-5.6545
1832,2026-01-06 08:00:00+00:00,-4.8045,86.0,-6.7862344,-8.67213,5.0,0.0,0.0,0.0,0.0,0.07,85.0,1014.7,1009.8054,96.0,83.0,87.0,0.0,14620.0,6.151683,9.83268,13.684735,16.418526,200.55612,203.7495,215.36255,232.12495,13.679999,-5.7545004,-5.8545003,-5.3545003
1833,2026-01-06 09:00:00+00:00,-4.2045,86.0,-6.1961875,-8.0548725,5.0,0.0,0.0,0.0,0.0,0.07,3.0,1015.1,1010.21423,95.0,83.0,83.0,0.0,14080.0,6.439876,9.19939,13.276144,17.873556,206.56499,210.57915,220.60121,235.66972,14.04,-5.2545004,-5.6545,-5.2545004
1834,2026-01-06 10:00:00+00:00,-3.5045,86.0,-5.5078306,-7.272312,5.0,0.0,0.0,0.0,0.0,0.07,3.0,1014.9,1010.02795,95.0,88.0,84.0,0.0,13120.0,6.3690495,9.1641035,9.686609,14.654254,222.70937,224.9999,228.01286,242.176,15.119999,-4.5545,-5.0545,-5.2545004
1835,2026-01-06 11:00:00+00:00,-2.4545,85.0,-4.630655,-6.1311445,3.0,0.0,0.0,0.0,0.0,0.07,3.0,1014.6,1009.74805,86.0,86.0,0.0,0.0,15840.0,6.4096174,9.387651,10.00256,13.32,231.84273,237.52882,239.74365,251.07526,19.8,-3.4545,-3.9545,-4.3545003
1836,2026-01-06 12:00:00+00:00,-1.7544999,86.0,-3.787085,-5.5597286,0.0,0.0,0.0,0.0,0.0,0.07,85.0,1014.6,1009.7606,96.0,86.0,62.0,0.0,11460.0,7.968939,12.864649,13.896187,15.034041,251.56496,252.07199,253.44284,253.30067,18.72,-2.8545,-3.3545,-3.8545
1837,2026-01-06 13:00:00+00:00,-1.5545,84.0,-3.9049866,-5.3154116,0.0,0.0,0.0,0.0,0.0,0.07,2.0,1014.8,1009.96313,80.0,80.0,0.0,0.0,19100.0,7.5685663,11.770403,12.43434,13.1041975,244.65387,246.57129,247.8905,249.07542,19.8,-2.5544999,-3.0544999,-3.6545
1838,2026-01-06 14:00:00+00:00,-1.3045,80.0,-4.310739,-4.9745665,0.0,0.0,0.0,0.0,0.0,0.07,2.0,1014.8,1009.9676,66.0,66.0,0.0,0.0,28400.0,6.618519,10.703569,11.212135,11.480557,224.9999,227.72638,227.60262,228.81418,16.56,-2.1545,-2.6545,-3.2545
1839,2026-01-06 15:00:00+00:00,-1.5044999,82.0,-4.177356,-5.3452697,0.0,0.0,0.0,0.0,0.0,0.07,2.0,1015.1,1010.2627,68.0,68.0,0.0,0.0,23360.0,7.8954163,13.0447235,14.336861,15.379206,204.22774,207.97939,208.49554,212.57405,17.64,-2.2545,-2.7545,-3.3545
1840,2026-01-06 16:00:00+00:00,-1.4545,81.0,-4.2918434,-5.2733717,0.0,0.0,0.0,0.0,0.0,0.07,3.0,1015.4,1010.56226,100.0,100.0,0.0,0.0,26680.0,7.653705,14.003028,16.055355,19.513195,221.18582,223.95847,227.72636,232.49579,16.56,-2.2545,-2.6545,-3.1545
1841,2026-01-06 17:00:00+00:00,-1.6545,81.0,-4.4871745,-5.536012,3.0,0.0,0.0,0.0,0.0,0.07,3.0,1015.7,1010.857,100.0,100.0,0.0,0.0,27560.0,7.928177,14.021525,16.548256,21.533897,219.47243,221.87778,225.8813,231.78893,17.64,-2.4545,-2.9545,-3.2545
1842,2026-01-06 18:00:00+00:00,-1.8544999,82.0,-4.5196576,-5.8359127,3.0,0.0,0.0,0.0,0.0,0.07,3.0,1015.8,1010.953,99.0,99.0,0.0,0.0,25120.0,8.587338,14.904173,16.831684,22.545315,213.02386,217.14677,221.53168,231.48305,18.72,-2.7545,-3.1545,-3.3545
1843,2026-01-06 19:00:00+00:00,-1.9045,81.0,-4.731344,-5.7812243,0.0,0.0,0.0,0.0,0.0,0.07,3.0,1015.9,1011.0516,78.0,78.0,0.0,0.0,25740.0,7.7043357,13.513193,15.530151,20.592503,217.40543,221.76021,224.0609,233.53067,18.0,-2.6545,-3.1545,-3.4545
1844,2026-01-06 20:00:00+00:00,-1.9545,82.0,-4.6174607,-5.8461957,0.0,0.0,0.0,0.0,0.0,0.07,3.0,1016.1,1011.25,97.0,97.0,0.0,0.0,25100.0,7.8954163,14.529915,17.654688,22.90743,226.8476,228.01286,230.7928,239.80847,17.64,-2.7545,-3.1545,-3.1545
1845,2026-01-06 21:00:00+00:00,-2.2045,82.0,-4.861971,-6.0224323,0.0,0.0,0.0,0.0,0.0,0.07,3.0,1016.3,1011.4444,86.0,86.0,0.0,0.0,23640.0,7.2,13.276144,18.335276,23.269482,216.86998,220.60121,226.5911,235.08052,17.28,-2.9545,-3.1545,-2.9545
1846,2026-01-06 22:00:00+00:00,-2.5544999,82.0,-5.204295,-6.5587263,0.0,0.0,0.0,0.0,0.0,0.07,2.0,1016.3,1011.43823,49.0,49.0,0.0,0.0,25460.0,8.217153,15.575981,21.437386,24.29133,208.8107,213.6901,220.91429,230.4119,16.919998,-3.2545,-3.0544999,-2.6545
1847,2026-01-06 23:00:00+00:00,-2.9545,81.0,-5.7569227,-6.8619075,0.0,0.0,0.0,0.0,0.0,0.07,2.0,1016.2,1011.33154,50.0,50.0,0.0,0.0,25740.0,7.145796,16.039202,22.26477,25.49908,220.91429,224.09071,230.90614,239.4525,16.919998,-3.4545,-2.9545,-2.4545
1848,2026-01-07 00:00:00+00:00,-3.1545,81.0,-5.952283,-7.103351,5.0,0.0,0.0,0.0,0.0,0.07,2.0,1016.1,1011.2284,74.0,74.0,0.0,0.0,25840.0,7.289445,16.323528,22.691423,27.871534,212.90524,221.42357,228.21558,234.46223,15.119999,-3.6545,-3.3545,-2.8545
1849,2026-01-07 01:00:00+00:00,-3.3545,81.0,-6.1476464,-7.364282,8.0,0.0,0.0,0.0,0.0,0.07,2.0,1016.1,1011.2247,71.0,71.0,0.0,0.0,26720.0,7.5685663,15.876775,22.45315,27.609911,205.34613,212.9694,221.09941,230.29013,16.199999,-3.9545,-3.5544999,-2.8545
1850,2026-01-07 02:00:00+00:00,-3.6545,82.0,-6.280242,-7.771334,10.0,0.0,0.0,0.0,0.0,0.07,1.0,1016.1,1011.2193,37.0,37.0,0.0,0.0,24060.0,8.209263,15.716793,22.415602,27.333935,195.25517,200.09532,209.85892,220.19197,17.28,-4.3545003,-4.0545,-3.3545
1851,2026-01-07 03:00:00+00:00,-3.9045,82.0,-6.524791,-7.995486,8.0,0.0,0.0,0.0,0.0,0.07,3.0,1016.1,1011.21484,83.0,83.0,0.0,0.0,23740.0,7.8625183,14.24163,21.178896,25.476198,195.94547,200.72563,211.79887,222.70937,16.919998,-4.6545,-4.3545003,-3.3545
1852,2026-01-07 04:00:00+00:00,-3.9545,82.0,-6.573701,-7.9392247,3.0,0.0,0.0,0.0,0.0,0.07,3.0,1016.0,1011.1144,100.0,100.0,0.0,0.0,22840.0,7.10031,12.096214,18.59845,23.363974,210.46547,216.52895,222.64667,236.3099,16.919998,-4.8545003,-4.6545,-3.5544999
1853,2026-01-07 05:00:00+00:00,-3.8545,82.0,-6.4758806,-7.825419,8.0,0.0,0.0,0.0,0.0,0.07,3.0,1015.9,1011.0168,89.0,89.0,0.0,0.0,23160.0,7.072878,11.503113,16.199999,18.58451,194.7436,200.13638,216.86998,238.46526,15.4800005,-4.7545004,-4.4545,-3.1545
1854,2026-01-07 06:00:00+00:00,-4.2045,83.0,-6.6602497,-8.269915,3.0,0.0,0.0,0.0,0.0,0.07,1.0,1015.9,1011.01044,18.0,18.0,0.0,0.0,20500.0,7.5942073,12.429127,17.114204,18.161278,185.44025,190.00792,202.24907,219.3693,15.84,-5.0545,-5.0545,-3.8545
1855,2026-01-07 07:00:00+00:00,-4.8545003,83.0,-7.2969704,-8.929544,0.0,0.0,0.0,0.0,0.0,0.07,0.0,1016.1,1011.1977,0.0,0.0,0.0,0.0,19480.0,7.2359104,13.979871,20.326454,21.068459,185.7105,191.88864,202.93213,213.147,16.56,-5.6545,-4.9545,-3.6545
1856,2026-01-07 08:00:00+00:00,-5.2545004,84.0,-7.533852,-9.299702,0.0,0.0,0.0,0.0,0.0,0.07,0.0,1016.6,1011.6879,0.0,0.0,0.0,0.0,18540.0,6.87779,12.496719,18.455048,22.104116,186.00891,191.6336,200.55612,210.32352,15.119999,-6.0545,-5.8545003,-4.2545004
1857,2026-01-07 09:00:00+00:00,-5.0045004,82.0,-7.600871,-9.108101,0.0,0.0,0.0,0.0,0.0,0.07,0.0,1016.9,1011.99097,0.0,0.0,0.0,0.0,21220.0,7.2359104,12.849528,19.813087,24.863466,185.7105,191.30989,204.70241,214.3804,15.84,-5.9545,-5.4545,-4.1545
1858,2026-01-07 10:00:00+00:00,-4.2545004,80.0,-7.1882596,-8.3775015,0.0,0.0,0.0,0.0,0.0,0.07,0.0,1016.5,1011.60657,0.0,0.0,0.0,0.0,25860.0,7.6367526,11.367109,17.654688,24.20314,188.13002,190.95403,200.28264,210.37904,17.28,-5.2545004,-5.6545,-5.1545
1859,2026-01-07 11:00:00+00:00,-3.3545,77.0,-6.8092637,-7.5525265,0.0,0.0,0.0,0.0,0.0,0.07,0.0,1015.8,1010.92615,0.0,0.0,0.0,0.0,31780.0,8.4042845,12.9249525,14.145756,22.065973,189.86574,192.875,194.7436,208.23735,19.44,-4.4545,-4.9545,-5.0545
1860,2026-01-07 12:00:00+00:00,-2.6045,75.0,-6.42523,-6.8083696,0.0,0.0,0.0,0.0,0.0,0.07,0.0,1014.9,1010.044,0.0,0.0,0.0,0.0,37700.0,8.707238,13.493999,15.03835,20.268991,187.12492,189.21095,191.0409,199.72237,19.08,-3.6545,-4.1545,-4.6545
1861,2026-01-07 13:00:00+00:00,-2.031125,73.0,-6.2243485,-6.309974,0.0,0.0,0.0,0.0,0.0,0.07,0.0,1014.575,1009.73083,0.0,0.0,0.0,0.0,43720.0,9.361956,16.114025,17.582272,20.057365,179.37762,181.28116,183.14995,187.05656,20.79,-3.031125,-3.581125,-4.181125
1862,2026-01-07 14:00:00+00:00,-1.9827499,72.5,-6.267923,-6.301378,0.0,0.0,0.0,0.0,0.0,0.07,0.0,1014.4,1009.5575,0.0,0.0,0.0,0.0,45490.0,9.604396,18.391037,21.122234,24.891796,173.69162,178.20706,180.07556,185.75684,21.78,-2.80775,-3.35775,-3.9077501
1863,2026-01-07 15:00:00+00:00,-2.6093748,75.0,-6.433547,-6.7129903,0.0,0.0,0.0,0.0,0.0,0.07,0.0,1014.39996,1009.5464,0.0,0.0,0.0,0.0,41895.0,8.014457,20.133404,25.94049,30.056093,165.19708,171.37518,177.69124,185.15329,20.789999,-2.959375,-3.309375,-3.784375
1864,2026-01-07 16:00:00+00:00,-3.5609999,79.0,-6.6758904,-7.7197967,1.0,0.0,0.0,0.0,0.0,0.07,0.0,1014.3,1009.4299,0.0,0.0,0.0,0.0,34480.0,8.225035,24.64094,31.035257,33.574707,156.80139,168.19759,176.00917,184.30438,19.08,-3.361,-3.461,-3.761
1865,2026-01-07 17:00:00+00:00,-4.061,80.0,-6.9994864,-8.164562,2.0,0.0,0.0,0.0,0.0,0.07,0.0,1014.1,1009.22156,0.0,0.0,0.0,0.0,31160.0,7.628263,23.863409,32.138947,35.705395,160.70985,168.69011,175.50293,183.46815,19.44,-4.061,-3.861,-3.961
1866,2026-01-07 18:00:00+00:00,-4.561,80.0,-7.4872794,-8.778452,3.0,0.0,0.0,0.0,0.0,0.07,1.0,1013.8,1008.9142,7.0,0.0,7.0,0.0,32620.0,8.089993,24.923338,33.528355,38.268524,159.14546,169.17703,176.9226,184.31595,18.359999,-4.461,-4.061,-4.061
1867,2026-01-07 19:00:00+00:00,-4.811,77.0,-8.224203,-9.207302,3.0,0.0,0.0,0.0,0.0,0.07,0.0,1013.1,1008.21277,0.0,0.0,0.0,0.0,39300.0,8.854829,26.415268,37.226505,42.5044,153.43501,162.55272,170.53775,178.05856,20.519999,-4.661,-4.061,-3.761
1868,2026-01-07 20:00:00+00:00,-5.061,77.0,-8.467094,-9.386942,3.0,0.0,0.0,0.0,0.0,0.07,0.0,1013.1,1008.2083,0.0,0.0,0.0,0.0,39180.0,8.225035,25.671307,36.302925,41.76155,156.80139,165.37909,172.59319,180.49391,20.519999,-4.861,-4.161,-3.661
1869,2026-01-07 21:00:00+00:00,-5.361,78.0,-8.59312,-9.6499195,3.0,0.0,0.0,0.0,0.0,0.07,1.0,1012.9,1008.0037,10.0,0.0,10.0,1.0,35700.0,7.8954163,25.323128,35.105072,40.03938,155.77226,165.17348,174.1141,183.6084,18.72,-4.961,-4.161,-3.661
1870,2026-01-07 22:00:00+00:00,-5.661,79.0,-8.721849,-9.936912,3.0,0.0,0.0,0.0,0.0,0.07,1.0,1012.7,1007.7993,13.0,0.0,12.0,2.0,34300.0,7.729527,24.72495,33.574707,38.761486,152.24155,163.93994,175.69562,186.39886,18.0,-5.161,-4.261,-3.661
1871,2026-01-07 23:00:00+00:00,-5.961,79.0,-9.014167,-10.314416,4.0,0.0,0.0,0.0,0.0,0.07,2.0,1012.1,1007.1968,46.0,0.0,45.0,12.0,34380.0,8.0899935,25.40743,33.857227,38.939953,147.72438,159.25385,171.4392,183.17976,18.72,-5.561,-4.561,-3.761
1872,2026-01-08 00:00:00+00:00,-6.311,79.0,-9.355217,-10.665695,5.0,0.0,0.0,0.0,0.0,0.07,2.0,1011.8,1006.8919,59.0,0.0,59.0,0.0,35040.0,7.9036193,24.933735,33.96233,39.562344,149.9315,162.3498,175.13557,187.31892,18.72,-5.961,-4.861,-4.261
1873,2026-01-08 01:00:00+00:00,-6.611,77.0,-9.973184,-11.042659,7.0,0.0,0.0,0.0,0.0,0.07,3.0,1011.6,1006.68726,100.0,0.0,100.0,0.0,38500.0,8.0899935,25.729298,33.887836,38.89666,147.72438,162.07199,176.95529,187.98003,18.359999,-5.961,-4.861,-4.761
1874,2026-01-08 02:00:00+00:00,-6.811,75.0,-10.500236,-11.230862,8.0,0.0,0.0,0.0,0.0,0.07,2.0,1011.2,1006.2854,66.0,0.0,66.0,0.0,42900.0,7.729527,24.975283,33.127823,38.833305,152.24155,164.96213,178.75467,190.68486,18.72,-6.161,-5.261,-5.161
1875,2026-01-08 03:00:00+00:00,-7.061,73.0,-11.082484,-11.532703,10.0,0.0,0.0,0.0,0.0,0.07,0.0,1010.9,1005.9825,0.0,0.0,0.0,0.0,45800.0,7.7879906,25.277023,32.777798,39.18712,146.3099,162.59721,178.11185,190.58727,17.64,-6.261,-5.461,-5.361
1876,2026-01-08 04:00:00+00:00,-7.311,73.0,-11.324041,-11.830128,11.0,0.0,0.0,0.0,0.0,0.07,1.0,1010.7,1005.7787,30.0,0.0,30.0,0.0,46980.0,7.9932966,24.94413,32.527744,38.540184,144.16226,159.73422,174.92049,188.05432,18.0,-6.461,-5.561,-5.461
1877,2026-01-08 05:00:00+00:00,-7.411,73.0,-11.420666,-12.04224,12.0,0.0,0.0,0.0,0.0,0.07,0.0,1010.4,1005.4782,15.0,7.0,11.0,0.0,46800.0,8.714677,26.903828,34.743263,39.299404,141.7098,155.49261,169.85452,183.15065,19.8,-6.761,-5.661,-5.461
1878,2026-01-08 06:00:00+00:00,-7.411,72.0,-11.593284,-12.054426,13.0,0.0,0.0,0.0,0.0,0.07,1.0,1010.2,1005.2792,31.0,1.0,31.0,0.0,47880.0,8.714677,27.534704,36.359997,40.70548,141.7098,154.44008,168.57884,182.02728,20.519999,-6.961,-5.761,-5.361
1879,2026-01-08 07:00:00+00:00,-7.261,72.0,-11.448564,-11.862341,16.0,0.0,0.0,0.0,0.0,0.07,2.0,1010.1,1005.1825,68.0,5.0,64.0,0.0,49180.0,8.4963045,26.7565,36.161636,41.456306,143.61555,156.19405,170.25642,182.98657,20.16,-6.961,-5.861,-5.461
1880,2026-01-08 08:00:00+00:00,-6.761,70.0,-11.319844,-11.366338,20.0,0.0,0.0,0.0,0.0,0.07,3.0,1010.0,1005.0922,92.0,65.0,73.0,0.0,52400.0,8.587338,25.872454,36.04677,40.737305,146.97614,158.79071,171.38443,183.03934,20.519999,-6.761,-5.961,-5.661
1881,2026-01-08 09:00:00+00:00,-5.811,69.0,-10.587864,-10.425687,23.0,0.0,0.0,0.0,0.0,0.07,2.0,1010.0,1005.1095,70.0,66.0,12.0,0.0,52140.0,9.021574,20.991426,32.43398,38.65602,151.38963,157.8336,171.06052,184.80786,21.24,-6.461,-6.061,-5.261
1882,2026-01-08 10:00:00+00:00,-4.861,69.0,-9.675811,-9.44368,22.0,0.0,0.0,0.0,0.0,0.07,1.0,1009.8,1004.92773,41.0,41.0,0.0,0.0,50400.0,9.290511,19.33639,30.385365,37.123665,144.46223,151.0491,166.29301,182.77911,21.96,-5.761,-5.661,-5.161
1883,2026-01-08 11:00:00+00:00,-3.8109999,71.0,-8.3009405,-8.238197,24.0,0.0,0.0,0.0,0.0,0.07,2.0,1009.3,1004.4491,68.0,59.0,23.0,0.0,48980.0,9.021574,18.720001,25.582806,34.627434,151.38963,157.3801,166.15929,183.57626,21.96,-4.761,-5.361,-5.161
1884,2026-01-08 12:00:00+00:00,-3.011,72.0,-7.3494997,-7.376915,25.0,0.0,0.0,0.0,0.0,0.07,3.0,1008.6,1003.76697,92.0,37.0,83.0,0.0,46580.0,9.19939,18.837322,23.598541,31.731092,149.42085,153.9247,158.52315,176.74812,23.039999,-4.061,-4.661,-4.761
1885,2026-01-08 13:00:00+00:00,-2.511,74.0,-6.510122,-6.795143,26.0,0.0,0.0,0.0,0.0,0.07,2.0,1008.3,1003.47723,84.0,32.0,71.0,0.0,42960.0,9.19939,19.319628,22.881958,30.096085,149.42085,153.43501,155.85446,173.1301,22.319998,-3.361,-4.061,-4.361
1886,2026-01-08 14:00:00+00:00,-2.161,76.0,-5.8218536,-6.2540665,26.0,0.0,0.0,0.0,0.0,0.07,3.0,1008.3,1003.4834,95.0,74.0,85.0,0.0,37280.0,8.373386,18.919704,23.34455,29.070974,154.5367,158.80588,162.96214,172.17102,22.319998,-2.961,-3.5609999,-4.061
1887,2026-01-08 15:00:00+00:00,-2.211,83.0,-4.707702,-6.112995,26.0,0.0,0.0,0.0,0.0,0.07,3.0,1008.4,1003.58215,92.0,80.0,73.0,0.0,24960.0,7.8954163,18.671474,24.098497,28.820242,155.77226,160.86626,166.17133,177.85246,20.16,-2.861,-3.361,-3.861
1888,2026-01-08 16:00:00+00:00,-2.411,89.0,-3.9759748,-6.32143,25.0,0.0,0.0,0.0,0.0,0.07,3.0,1008.3,1003.479,90.0,79.0,58.0,0.0,10800.0,8.534353,19.386593,26.282465,29.88217,152.35411,158.19853,166.53477,180.69026,19.8,-3.0609999,-3.461,-3.761
1889,2026-01-08 17:00:00+00:00,-2.511,92.0,-3.631907,-6.360041,24.0,0.0,0.0,0.0,0.0,0.07,3.0,1008.0,1003.1787,95.0,81.0,71.0,0.0,6220.0,8.39657,19.64228,27.943514,30.960001,149.03632,153.90463,165.06853,180.0,20.16,-3.161,-3.361,-3.461
1890,2026-01-08 18:00:00+00:00,-2.461,92.0,-3.5823724,-6.2881403,23.0,0.0,0.0,0.0,0.0,0.07,3.0,1007.7,1002.8811,92.0,80.0,63.0,0.0,5660.0,8.287822,19.803272,27.595825,30.599998,145.6196,152.96922,164.87595,180.0,19.8,-3.0609999,-3.161,-3.161
1891,2026-01-08 19:00:00+00:00,-2.411,93.0,-3.3879747,-6.2446833,21.0,0.0,0.0,0.0,0.0,0.07,3.0,1007.4,1002.5834,95.0,77.0,64.0,33.0,5500.0,8.4963045,19.694992,28.576382,31.37168,143.61555,149.21593,160.88019,176.71083,19.8,-3.0609999,-3.0609999,-2.861
1892,2026-01-08 20:00:00+00:00,-2.3109999,94.0,-3.145181,-6.139759,18.0,0.0,0.0,0.0,0.0,0.06,3.0,1007.0,1002.1869,97.0,74.0,65.0,66.0,5360.0,8.669949,19.67195,29.317352,32.078403,138.36655,145.43741,155.32315,170.9606,20.519999,-2.961,-3.0609999,-2.5609999
1893,2026-01-08 21:00:00+00:00,-2.261,93.0,-3.239191,-6.1735673,15.0,0.0,0.0,0.0,0.0,0.06,3.0,1006.5,1001.69025,100.0,71.0,66.0,99.0,5200.0,9.1641035,20.466246,30.319181,33.973778,135.0001,140.71062,150.08644,164.63832,21.599998,-2.861,-3.0609999,-2.361
1894,2026-01-08 22:00:00+00:00,-2.261,91.0,-3.5306816,-6.359912,12.0,0.0,0.0,0.0,0.0,0.06,3.0,1005.9,1001.09314,100.0,67.0,77.0,85.0,8920.0,10.195057,22.406927,30.888754,37.911263,132.13753,136.30188,143.53067,157.08714,24.119999,-2.861,-3.161,-2.261
1895,2026-01-08 23:00:00+00:00,-2.261,88.0,-3.9787703,-6.6079483,10.0,0.0,0.0,0.0,0.0,0.06,3.0,1005.2,1000.3965,100.0,64.0,89.0,72.0,12640.0,11.525623,25.233404,31.845251,43.04522,128.65984,132.10866,137.29063,150.43352,27.359999,-2.861,-3.261,-2.261
1896,2026-01-09 00:00:00+00:00,-2.3109999,86.0,-4.3342595,-6.898611,10.0,0.0,0.0,0.0,0.0,0.06,3.0,1004.4,999.59937,100.0,60.0,100.0,58.0,16360.0,12.88981,27.887802,33.39473,47.040302,125.90981,129.23735,131.94122,144.97198,30.599998,-2.961,-3.461,-2.5609999
1897,2026-01-09 01:00:00+00:00,-2.461,84.0,-4.793959,-7.2601004,11.0,0.0,0.0,0.0,0.0,0.06,3.0,1003.4,998.6017,100.0,61.0,100.0,72.0,19380.0,13.979872,30.312769,36.04497,48.354042,124.50858,127.27825,129.73227,140.74062,33.48,-3.161,-3.661,-3.261
1898,2026-01-09 02:00:00+00:00,-2.711,83.0,-5.1973996,-7.714918,14.0,0.0,0.0,0.0,0.0,0.06,3.0,1002.3,997.5025,100.0,63.0,100.0,86.0,22400.0,15.077082,32.688713,38.906654,48.390213,123.310646,126.49139,128.991,136.80872,36.0,-3.361,-3.961,-4.161
1899,2026-01-09 03:00:00+00:00,-2.861,82.0,-5.504082,-8.059005,17.0,0.0,0.0,0.0,0.0,0.06,3.0,1001.0,996.2059,100.0,64.0,100.0,100.0,25420.0,16.179987,34.860565,41.551548,49.162083,122.27562,125.33142,127.96211,132.92282,38.88,-3.5609999,-4.161,-4.761
1900,2026-01-09 04:00:00+00:00,-2.8109999,82.0,-5.455177,-8.210224,21.0,0.1,0.0,0.0,0.07,0.06,71.0,999.5,994.71405,100.0,73.0,100.0,100.0,18700.0,17.595861,37.247387,44.15103,51.67223,120.76265,122.76849,125.37483,129.34557,42.12,-3.5609999,-4.161,-4.861
1901,2026-01-09 05:00:00+00:00,-2.711,83.0,-5.1973996,-8.2647915,26.0,0.1,0.0,0.0,0.07,0.07,71.0,997.9,993.1236,100.0,81.0,100.0,100.0,11980.0,18.847641,39.389984,46.332436,54.792187,118.52302,120.78408,122.94922,126.71941,45.36,-3.5609999,-4.061,-4.761
1902,2026-01-09 06:00:00+00:00,-2.711,84.0,-5.039136,-8.386747,30.0,0.1,0.0,0.0,0.07,0.07,71.0,996.5,991.7303,100.0,90.0,100.0,100.0,5260.0,19.803272,41.085762,48.28028,56.920994,117.030785,118.8107,120.96369,124.69522,47.519997,-3.5609999,-4.061,-4.661
1903,2026-01-09 07:00:00+00:00,-2.961,86.0,-4.9733934,-8.653289,35.0,1.2,0.0,0.0,0.84000003,0.08,73.0,995.4,990.6312,100.0,93.0,100.0,100.0,3560.0,19.966211,41.700993,49.1634,58.511906,115.64096,117.2286,119.380516,123.20122,48.6,-3.761,-4.261,-4.761
1904,2026-01-09 08:00:00+00:00,-3.261,89.0,-4.814974,-8.891808,42.0,1.2,0.0,0.0,0.84000003,0.09,73.0,994.6,989.8297,100.0,97.0,100.0,100.0,1840.0,19.66536,41.699436,49.44728,58.72857,113.749504,116.12257,118.244156,122.22874,48.6,-4.061,-4.561,-4.961
1905,2026-01-09 09:00:00+00:00,-3.3109999,91.0,-4.5696607,-8.866085,48.0,1.2,0.0,0.0,0.84000003,0.1,73.0,993.9,989.1322,100.0,100.0,100.0,100.0,140.0,19.33639,40.732533,48.325893,57.817837,114.1791,116.791435,118.47411,122.79953,48.239998,-4.161,-4.661,-4.961
1906,2026-01-09 10:00:00+00:00,-2.911,92.0,-4.0281906,-8.260664,55.0,1.3,0.0,0.0,0.90999997,0.11,3.0,993.4,988.6416,100.0,98.0,90.0,100.0,2720.0,18.359999,38.403748,45.258457,54.15338,118.072395,120.411,121.66717,125.80344,46.8,-3.861,-4.361,-4.661
1907,2026-01-09 11:00:00+00:00,-2.261,92.0,-3.384233,-7.388769,60.0,1.3,0.0,0.0,0.90999997,0.12,3.0,993.0,988.25476,100.0,95.0,80.0,100.0,5300.0,17.373497,35.572662,41.112568,48.970585,124.019394,125.94221,127.171005,131.42357,45.0,-3.261,-3.861,-4.261
1908,2026-01-09 12:00:00+00:00,-1.611,92.0,-2.740291,-6.518075,63.0,1.3,0.0,0.0,0.90999997,0.13,3.0,992.7,987.9676,100.0,93.0,70.0,100.0,7880.0,16.418526,33.46451,38.23803,45.623516,127.875046,130.2001,131.94704,137.87843,42.48,-2.5609999,-3.161,-3.461
1909,2026-01-09 13:00:00+00:00,-0.961,92.0,-2.0963662,-5.6358533,64.0,0.0,0.0,0.0,0.0,0.13,3.0,992.4,987.6803,97.0,88.0,69.0,67.0,8500.0,15.408671,31.942772,37.1969,45.578045,127.40543,129.97087,132.64667,143.67308,39.6,-1.861,-2.361,-2.161
1910,2026-01-09 14:00:00+00:00,-0.361,92.0,-1.5019877,-4.818877,63.0,0.0,0.0,0.0,0.0,0.12,3.0,992.2,987.49164,93.0,82.0,67.0,33.0,9120.0,14.480773,31.037344,36.744698,46.8,124.875404,127.933334,131.0274,149.48984,36.36,-0.961,-1.461,-0.56100005
1911,2026-01-09 15:00:00+00:00,0.23900001,91.0,-1.0571136,-4.009611,62.0,0.0,0.0,0.0,0.0,0.12,3.0,992.0,987.30286,90.0,77.0,66.0,0.0,9740.0,13.479583,29.96662,36.424103,48.6533,124.11452,128.65982,132.99747,155.52098,33.839996,-0.261,-0.661,0.73899996
1912,2026-01-09 16:00:00+00:00,0.73899996,89.0,-0.8670794,-3.4185495,59.0,0.0,0.0,0.0,0.0,0.12,3.0,991.8,987.1125,89.0,76.0,71.0,0.0,14560.0,13.044722,29.52878,36.276142,51.3792,129.40063,135.0001,139.83049,163.72366,32.039997,0.33900002,0.039,1.539
1913,2026-01-09 17:00:00+00:00,1.139,87.0,-0.78412956,-3.0005288,57.0,0.0,0.0,0.0,0.0,0.12,3.0,991.7,987.0198,89.0,76.0,75.0,0.0,19400.0,13.004922,30.25928,37.107944,55.596405,138.36655,145.17545,149.70363,172.1848,31.319998,0.93899995,0.639,2.039
1914,2026-01-09 18:00:00+00:00,1.539,85.0,-0.70966065,-2.6297643,55.0,0.0,0.0,0.0,0.0,0.12,3.0,991.7,987.02655,88.0,75.0,80.0,0.0,24220.0,13.281023,31.559086,39.107666,59.453426,147.17146,154.3119,158.39441,177.57079,31.319998,1.439,1.139,2.339
1915,2026-01-09 19:00:00+00:00,1.889,82.0,-0.85906154,-2.412257,54.0,0.0,0.0,0.0,0.0,0.12,3.0,991.8,987.1319,92.0,75.0,86.0,7.0,29820.0,14.039999,33.93179,41.910244,61.199997,157.3801,162.71841,166.0831,180.0,33.839996,1.839,1.539,2.339
1916,2026-01-09 20:00:00+00:00,2.1890001,79.0,-1.0762461,-2.3755074,53.0,0.0,0.0,0.0,0.0,0.11,3.0,991.9,987.2364,95.0,75.0,91.0,14.0,35400.0,15.629971,36.57855,45.72425,61.576836,165.32356,169.79608,172.76317,181.33998,37.079998,2.239,1.839,2.039
1917,2026-01-09 21:00:00+00:00,2.389,77.0,-1.2320676,-2.309297,51.0,0.0,0.0,0.0,0.0,0.11,3.0,992.1,987.43884,99.0,75.0,97.0,21.0,41000.0,16.394829,38.329437,47.94627,60.892162,171.15826,174.61078,176.98727,182.3718,39.239998,2.4390001,2.039,1.839
1918,2026-01-09 22:00:00+00:00,2.489,77.0,-1.1349969,-2.1358848,50.0,0.1,0.1,0.0,0.0,0.11,61.0,992.2,987.54004,99.0,76.0,97.0,23.0,38760.0,15.986595,37.524708,47.52545,58.813457,172.23492,176.14944,179.13197,183.86066,38.16,2.539,2.139,1.839
1919,2026-01-09 23:00:00+00:00,2.489,78.0,-0.95859504,-1.902591,49.0,0.1,0.1,0.0,0.0,0.11,61.0,992.3,987.6395,99.0,76.0,96.0,25.0,36500.0,14.561099,35.346058,45.00144,55.702366,171.46931,176.49654,180.45834,185.56311,35.28,2.539,2.239,1.839
1920,2026-01-10 00:00:00+00:00,2.4390001,80.0,-0.66047174,-1.7456558,48.0,0.1,0.1,0.0,0.0,0.11,61.0,992.4,987.7384,99.0,77.0,96.0,27.0,34260.0,13.441071,33.151287,42.5044,52.64623,172.30405,177.5105,181.94144,187.4651,33.12,2.4390001,2.139,1.7390001
1921,2026-01-10 01:00:00+00:00,2.339,82.0,-0.41911176,-1.7461467,47.0,0.2,0.2,0.0,0.0,0.11,61.0,992.6,987.93567,99.0,80.0,97.0,18.0,29580.0,13.004921,31.68,40.422726,50.010204,175.23645,180.0,184.08554,189.53006,32.760002,2.239,1.839,1.439
1922,2026-01-10 02:00:00+00:00,2.139,84.0,-0.28357685,-1.9192185,46.0,0.2,0.2,0.0,0.0,0.1,61.0,992.9,988.2308,100.0,83.0,98.0,9.0,24880.0,12.959999,30.652895,38.046055,47.446304,180.0,183.3664,186.5197,191.82146,33.48,1.939,1.539,1.039
1923,2026-01-10 03:00:00+00:00,1.889,86.0,-0.20516796,-2.1078768,45.0,0.2,0.2,0.0,0.0,0.1,61.0,993.3,988.6249,100.0,86.0,99.0,0.0,20200.0,12.620554,29.339449,36.102455,45.40569,183.27042,186.3401,189.18047,194.69736,32.760002,1.639,1.139,0.73899996
1924,2026-01-10 04:00:00+00:00,1.589,89.0,-0.028261874,-2.2760708,45.0,0.4,0.4,0.0,0.0,0.1,61.0,993.8,989.11725,100.0,86.0,99.0,10.0,14400.0,11.901798,27.595823,34.877293,44.631287,183.46815,187.49576,191.30989,199.31195,29.88,1.2390001,0.839,0.439
1925,2026-01-10 05:00:00+00:00,1.189,92.0,0.033425342,-2.4543881,44.0,0.4,0.4,0.0,0.0,0.1,61.0,994.5,989.8071,100.0,86.0,99.0,19.0,8580.0,10.446206,25.764534,34.05379,45.258457,181.97488,187.22423,193.44862,204.93427,25.919998,0.839,0.439,0.23900001
1926,2026-01-10 06:00:00+00:00,0.93899995,94.0,0.08218268,-2.591978,43.0,0.4,0.4,0.0,0.0,0.1,61.0,995.1,990.40027,100.0,86.0,99.0,29.0,2780.0,9.726665,24.336637,33.280045,45.107872,182.12105,187.65056,195.69006,208.61037,23.039999,0.539,0.23900001,0.039
1927,2026-01-10 07:00:00+00:00,0.839,95.0,0.1288727,-2.6353216,42.0,0.3,0.2,0.0,0.0,0.1,61.0,995.8,991.0951,99.0,86.0,97.0,21.0,2460.0,9.3876505,23.795427,33.3559,44.16277,184.39862,190.45985,198.23949,209.28133,22.319998,0.439,0.139,-0.161
1928,2026-01-10 08:00:00+00:00,0.889,94.0,0.032533262,-2.657421,41.0,0.3,0.2,0.0,0.0,0.1,61.0,996.4,991.69324,99.0,85.0,94.0,12.0,2140.0,9.779817,24.098497,33.497414,42.52269,186.3401,193.82867,200.77234,208.30066,23.039999,0.439,0.139,-0.261
1929,2026-01-10 09:00:00+00:00,0.889,94.0,0.032533262,-2.621209,40.0,0.3,0.2,0.0,0.0,0.1,61.0,997.1,992.3899,98.0,85.0,92.0,4.0,1820.0,9.531505,23.795427,33.043606,40.142822,190.88548,197.61267,203.77235,209.55359,23.4,0.439,0.039,-0.461
1930,2026-01-10 10:00:00+00:00,0.821625,94.25,0.0021069692,-2.6481357,43.0,0.3,0.2,0.0,0.07,0.1,61.0,997.75,993.0355,98.25,86.25,93.25,2.25,1515.0,9.221879,22.711897,30.768557,37.202843,198.77602,204.83203,210.00932,217.22183,23.220001,0.309125,-0.090875,-0.665875
1931,2026-01-10 11:00:00+00:00,0.75425,95.0,0.04461545,-2.6320722,46.5,0.3,0.2,0.0,0.07,0.09,61.0,998.35,993.6315,99.0,86.5,95.0,0.5,1090.0,8.6945915,21.819231,28.316164,34.68031,207.10544,213.54005,218.53116,227.9318,22.5,0.17925,-0.27075002,-0.82075
1932,2026-01-10 12:00:00+00:00,0.686875,95.75,0.08595649,-2.656552,49.25,0.3,0.2,0.0,0.07,0.09,61.0,998.92505,994.2029,99.75,87.75,97.25,0.0,545.0,8.444184,21.033943,26.566877,32.91677,215.88342,222.89731,228.84386,239.58005,21.599998,0.049374998,-0.375625,-0.950625
1933,2026-01-10 13:00:00+00:00,0.61950004,96.0,0.055022016,-2.6487093,52.0,0.3,0.1,0.0,0.14,0.09,71.0,999.7,994.9729,98.0,87.0,90.0,0.0,500.0,7.8954163,19.376562,24.633049,30.659237,226.8476,234.83348,243.06055,254.33177,20.16,-0.0805,-0.4805,-1.0805
1934,2026-01-10 14:00:00+00:00,0.5195,96.0,-0.044515222,-2.6937048,50.0,0.3,0.1,0.0,0.14,0.09,71.0,1000.6,995.86676,95.0,87.0,83.0,0.0,660.0,7.4128532,17.917007,23.664352,29.528778,240.94548,247.5572,256.8094,268.60284,18.359999,-0.0805,-0.5805,-1.0805
1935,2026-01-10 15:00:00+00:00,0.46949998,96.0,-0.094284,-2.7017727,48.0,0.3,0.1,0.0,0.14,0.09,71.0,1001.6,996.86145,93.0,86.0,75.0,0.0,840.0,7.072878,17.163355,23.759998,29.370352,255.2564,260.34018,270.0,281.3099,17.28,-0.1805,-0.6805,-1.1805
1936,2026-01-10 16:00:00+00:00,0.46949998,96.0,-0.094284,-2.7778,46.0,0.1,0.0,0.0,0.07,0.09,77.0,1002.6,997.8567,94.0,87.0,77.0,0.0,620.0,7.5942073,18.0,24.387177,29.598919,264.55975,270.0,278.48886,288.43503,17.28,-0.1805,-0.6805,-1.1805
1937,2026-01-10 17:00:00+00:00,0.5195,95.0,-0.18877052,-2.790917,44.0,0.1,0.0,0.0,0.07,0.09,77.0,1003.6,998.85254,94.0,89.0,80.0,0.0,400.0,7.928178,18.94024,24.627787,29.49804,272.6025,278.74606,285.25516,293.7495,18.0,-0.1805,-0.6805,-1.1805
1938,2026-01-10 18:00:00+00:00,0.36949998,95.0,-0.3378997,-2.99181,42.0,0.1,0.0,0.0,0.07,0.09,77.0,1004.7,999.9449,95.0,90.0,82.0,0.0,180.0,8.12197,19.242327,24.20314,28.357855,282.80426,287.41806,292.751,298.84256,19.44,-0.38050002,-0.88049996,-1.3805
1939,2026-01-10 19:00:00+00:00,0.0195,95.0,-0.68586975,-3.4791312,40.0,0.1,0.0,0.0,0.07,0.09,77.0,1005.8,1001.03375,96.0,92.0,81.0,0.0,900.0,8.707237,19.08,22.768396,25.922499,299.74478,301.89075,304.69522,307.66568,21.599998,-0.7805,-1.3805,-1.8805
1940,2026-01-10 20:00:00+00:00,-0.4305,94.0,-1.2777418,-4.15767,37.0,0.1,0.0,0.0,0.07,0.09,77.0,1006.9,1002.1207,98.0,95.0,80.0,0.0,1640.0,9.686609,19.64228,21.710716,23.507751,318.01288,318.7154,319.70792,319.9698,24.48,-1.3805,-1.9805,-2.5805
1941,2026-01-10 21:00:00+00:00,-1.1305,94.0,-1.9728683,-5.117504,35.0,0.1,0.0,0.0,0.07,0.09,77.0,1008.0,1003.2032,99.0,97.0,79.0,0.0,2360.0,10.805998,20.456745,21.578989,21.749483,330.01843,331.63104,332.1525,331.31393,26.28,-2.1805,-2.8805,-3.4805
1942,2026-01-10 22:00:00+00:00,-2.1805,93.0,-3.1593435,-6.2978253,33.0,0.0,0.0,0.0,0.0,0.09,3.0,1009.2,1004.3789,99.0,97.0,64.0,0.0,1820.0,10.636766,19.721298,20.730501,20.393293,336.0375,338.58694,339.6768,339.3255,26.64,-3.3805,-4.0805,-4.6805
1943,2026-01-10 23:00:00+00:00,-3.4805,93.0,-4.448827,-7.630054,32.0,0.0,0.0,0.0,0.0,0.09,3.0,1010.4,1005.5498,99.0,98.0,49.0,0.0,1260.0,9.793058,17.902534,18.947083,18.947083,342.8972,344.84586,345.69968,345.69968,25.919998,-4.6805,-5.3805003,-5.9805
1944,2026-01-11 00:00:00+00:00,-4.5305004,92.0,-5.6327066,-8.721588,30.0,0.0,0.0,0.0,0.0,0.09,3.0,1011.5,1006.6256,99.0,98.0,34.0,0.0,720.0,9.178235,16.454008,17.518356,17.518356,348.6901,349.91946,350.53775,350.53775,24.84,-5.7805004,-6.4805,-7.0805
1945,2026-01-11 01:00:00+00:00,-5.1805,91.0,-6.4196568,-9.38447,29.0,0.0,0.0,0.0,0.0,0.09,3.0,1012.5,1007.60913,96.0,95.0,23.0,0.0,900.0,8.707238,15.5843,16.299694,16.299694,352.87506,353.36758,353.6599,353.6599,23.4,-6.3805003,-7.0805,-7.7805004
1946,2026-01-11 02:00:00+00:00,-5.5805,90.0,-6.959364,-9.727884,27.0,0.0,0.0,0.0,0.0,0.09,3.0,1013.3,1008.39795,92.0,92.0,11.0,0.0,1100.0,7.9526596,14.440443,14.799459,15.158522,354.80566,355.71094,355.81516,355.91446,21.24,-6.7805004,-7.4805,-8.1805
1947,2026-01-11 03:00:00+00:00,-5.9305,89.0,-7.4501743,-10.016357,26.0,0.0,0.0,0.0,0.0,0.09,3.0,1014.1,1009.1877,89.0,89.0,0.0,0.0,1280.0,7.208994,12.964998,13.324863,13.684735,357.13766,358.40887,358.45187,358.4926,19.44,-7.0805,-7.7805004,-8.580501
1948,2026-01-11 04:00:00+00:00,-6.2305,89.0,-7.7463446,-10.239087,24.0,0.0,0.0,0.0,0.0,0.09,3.0,1014.8,1009.87866,90.0,90.0,0.0,0.0,4220.0,6.489992,11.570515,11.570515,11.901798,3.179772,5.3557334,5.3557334,3.46817,17.64,-7.3805003,-8.080501,-8.8805
1949,2026-01-11 05:00:00+00:00,-6.4805,89.0,-7.9931555,-10.431044,23.0,0.0,0.0,0.0,0.0,0.09,3.0,1015.5,1010.57086,92.0,92.0,0.0,0.0,7180.0,5.937272,9.6932955,10.041354,10.308831,14.036275,15.068549,14.534496,12.094739,16.199999,-7.5805,-8.2805,-9.080501
1950,2026-01-11 06:00:00+00:00,-6.6805,89.0,-8.190607,-10.558118,22.0,0.0,0.0,0.0,0.0,0.09,3.0,1016.1,1011.1641,93.0,93.0,0.0,0.0,10120.0,5.315336,8.217153,8.534353,8.534353,28.30066,28.810698,27.645891,27.645891,15.119999,-7.7805004,-8.4805,-9.2805
1951,2026-01-11 07:00:00+00:00,-6.8805003,88.0,-8.5332155,-10.685522,21.0,0.0,0.0,0.0,0.0,0.09,3.0,1016.6,1011.65784,95.0,95.0,0.0,0.0,11560.0,4.6102495,7.2,7.2,7.289445,51.34017,53.13002,53.13002,57.094753,14.4,-7.9805,-8.6805,-9.4805
1952,2026-01-11 08:00:00+00:00,-6.9805,88.0,-8.631822,-10.812304,20.0,0.0,0.0,0.0,0.0,0.09,3.0,1017.1,1012.1538,96.0,96.0,0.0,0.0,12980.0,4.73506,7.5942073,7.5942073,8.64,81.25392,84.55976,84.55976,90.0,14.4,-8.080501,-8.7805,-9.580501
1953,2026-01-11 09:00:00+00:00,-6.9305,87.0,-8.729089,-10.934777,20.0,0.0,0.0,0.0,0.0,0.09,3.0,1017.3,1012.35345,98.0,98.0,0.0,0.0,14420.0,5.8603754,9.255571,9.346143,11.043261,100.619606,103.49575,105.64231,109.025696,15.119999,-8.080501,-8.7805,-9.580501
1954,2026-01-11 10:00:00+00:00,-6.5805,87.0,-8.384405,-10.714038,20.0,0.0,0.0,0.0,0.0,0.09,3.0,1017.1,1012.16113,96.0,96.0,0.0,1.0,17660.0,6.9527545,10.966713,11.113451,13.0447235,111.25058,113.19862,114.90474,117.979385,16.919998,-7.7805004,-8.4805,-9.3805
1955,2026-01-11 11:00:00+00:00,-6.0805,87.0,-7.892013,-10.283133,20.0,0.0,0.0,0.0,0.0,0.09,3.0,1016.7,1011.7723,95.0,94.0,0.0,3.0,20900.0,7.729527,12.904882,13.089354,14.277983,117.75845,120.141304,121.50421,123.6901,19.44,-7.3805003,-8.080501,-8.9805
1956,2026-01-11 12:00:00+00:00,-5.6805,87.0,-7.4981103,-9.9717865,20.0,0.0,0.0,0.0,0.0,0.09,3.0,1016.2,1011.282,93.0,92.0,0.0,4.0,24140.0,8.587338,14.77755,15.277749,16.418526,123.02387,124.07724,124.43905,127.875046,21.599998,-6.9805,-7.6805,-8.580501
1957,2026-01-11 13:00:00+00:00,-5.4805,88.0,-7.1528006,-9.841604,21.0,0.0,0.0,0.0,0.0,0.09,3.0,1015.6,1010.6887,95.0,90.0,0.0,36.0,17540.0,9.290511,16.992609,18.0,19.681828,125.537766,126.384445,126.86999,129.80553,23.4,-6.6805,-7.3805003,-8.2805
1958,2026-01-11 14:00:00+00:00,-5.3805003,88.0,-7.054203,-9.805392,22.0,0.0,0.0,0.0,0.0,0.09,3.0,1015.0,1010.0932,98.0,89.0,0.0,68.0,10920.0,9.793059,19.513195,21.028437,23.233252,126.027466,127.50422,128.04709,130.60121,24.48,-6.4805,-7.1805,-7.9805
1959,2026-01-11 15:00:00+00:00,-5.2805004,89.0,-6.8084917,-9.797395,24.0,0.0,0.0,0.0,0.0,0.09,3.0,1014.2,1009.299,100.0,87.0,0.0,100.0,4320.0,10.587918,21.817902,24.344624,27.80403,125.311295,127.6263,128.3952,131.3254,26.28,-6.2805004,-6.9805,-7.6805
1960,2026-01-11 16:00:00+00:00,-5.2305,90.0,-6.613419,-9.844254,26.0,0.0,0.0,0.0,0.0,0.09,3.0,1013.3,1008.4043,100.0,85.0,33.0,100.0,3480.0,11.384198,23.979893,27.504093,34.653625,124.69522,125.837746,127.01997,132.47385,28.44,-6.1805,-6.7805004,-7.3805003
1961,2026-01-11 17:00:00+00:00,-5.1805,90.0,-6.563998,-9.92106,28.0,0.0,0.0,0.0,0.0,0.09,3.0,1012.4,1007.5096,100.0,82.0,67.0,100.0,2660.0,12.287555,26.161375,30.96837,42.53031,121.82741,124.34615,125.537766,133.28511,30.599998,-6.0805,-6.6805,-7.1805
1962,2026-01-11 18:00:00+00:00,-5.0305004,90.0,-6.415739,-9.918047,30.0,0.0,0.0,0.0,0.0,0.09,3.0,1011.3,1006.4177,100.0,80.0,100.0,100.0,1820.0,13.397612,28.162954,33.948975,49.13571,120.699646,122.471176,124.195656,134.10956,32.760002,-5.8805003,-6.4805,-6.7805004
1963,2026-01-11 19:00:00+00:00,-4.7805004,89.0,-6.314904,-9.7487755,33.0,0.0,0.0,0.0,0.0,0.09,3.0,1010.1,1005.22797,100.0,75.0,100.0,100.0,1580.0,14.021525,29.88217,36.544872,52.950603,119.197395,121.200455,124.159744,135.55084,34.2,-5.5805,-6.0805,-6.1805
1964,2026-01-11 20:00:00+00:00,-4.3805003,88.0,-6.068268,-9.415717,35.0,0.0,0.0,0.0,0.0,0.09,3.0,1008.8,1003.94135,100.0,69.0,100.0,100.0,1360.0,14.654254,31.178993,38.546906,55.531094,117.824005,121.30406,124.729065,137.10167,35.64,-5.1805,-5.6805,-5.4805
1965,2026-01-11 21:00:00+00:00,-4.0305004,88.0,-5.723204,-9.100661,38.0,0.0,0.0,0.0,0.0,0.09,3.0,1007.4,1002.55444,100.0,64.0,100.0,100.0,1120.0,15.141414,32.47591,40.258884,57.10285,118.39293,121.39941,125.537766,138.06657,36.719997,-4.7805004,-5.1805,-4.8805003
1966,2026-01-11 22:00:00+00:00,-3.6805,89.0,-5.2290587,-8.794617,40.0,0.3,0.0,0.0,0.21000001,0.09,71.0,1005.9,1001.068,100.0,74.0,100.0,100.0,1180.0,15.807239,33.851486,42.192245,57.5865,120.0685,122.845055,126.674446,137.53362,38.16,-4.3805003,-4.7805004,-4.5805
1967,2026-01-11 23:00:00+00:00,-3.2805,91.0,-4.53948,-8.400268,42.0,0.3,0.0,0.0,0.21000001,0.1,71.0,1004.5,999.6819,100.0,85.0,100.0,100.0,1260.0,16.375053,35.65636,43.573387,57.030178,123.34073,125.13427,128.2902,136.02293,39.6,-3.9805,-4.3805003,-4.4805
1968,2026-01-12 00:00:00+00:00,-2.8805,92.0,-3.9979734,-7.923216,43.0,0.3,0.0,0.0,0.21000001,0.1,71.0,1003.2,998.395,100.0,95.0,100.0,100.0,1320.0,16.279802,35.426632,43.421432,55.005833,125.095894,127.568665,130.29207,136.5911,39.96,-3.5805,-3.9805,-4.2805004
1969,2026-01-12 01:00:00+00:00,-2.5305,93.0,-3.5065064,-7.3132744,44.0,1.2,0.0,0.0,0.84000003,0.11,73.0,1002.3,997.50555,100.0,97.0,100.0,100.0,900.0,14.904173,33.46451,42.021423,53.422104,127.14677,130.2001,133.26433,140.19447,38.88,-3.2805,-3.6805,-3.9805
1970,2026-01-12 02:00:00+00:00,-2.1805,94.0,-3.0155842,-6.6646285,45.0,1.2,0.0,0.0,0.84000003,0.11,73.0,1001.6,996.8152,100.0,98.0,100.0,100.0,460.0,13.276144,30.04221,38.988182,50.822514,130.60121,134.02907,137.6196,145.9722,36.719997,-2.8805,-3.3805,-3.5805
1971,2026-01-12 03:00:00+00:00,-1.7804999,95.0,-2.4754763,-5.892244,46.0,1.2,0.0,0.0,0.84000003,0.12,73.0,1001.1,996.3244,100.0,100.0,100.0,100.0,40.0,11.200571,25.582806,33.651817,44.12754,135.0001,140.71062,145.45984,154.89842,33.48,-2.3805,-2.7805,-2.8805
1972,2026-01-12 04:00:00+00:00,-1.3305,96.0,-1.8859895,-5.0423775,47.0,0.2,0.1,0.0,0.14,0.12,3.0,1000.9,996.1336,100.0,100.0,67.0,67.0,40.0,9.0,20.46941,25.071096,31.035257,143.13002,156.13982,164.16754,176.00917,27.359999,-1.5805,-1.6805,-1.4805
1973,2026-01-12 05:00:00+00:00,-0.7805,96.0,-1.3385173,-4.1176844,47.0,0.2,0.1,0.0,0.14,0.13,3.0,1001.0,996.24243,100.0,100.0,33.0,33.0,60.0,6.9527545,17.339897,21.273533,25.96995,158.74942,184.76355,203.9625,223.87679,20.16,-0.6805,-0.38050002,0.2195
1974,2026-01-12 06:00:00+00:00,-0.1805,96.0,-0.7412816,-3.2591734,48.0,0.2,0.1,0.0,0.14,0.13,3.0,1001.3,996.55164,100.0,100.0,0.0,0.0,60.0,5.771239,18.775303,26.574244,35.80507,183.57626,212.47118,234.372,254.84587,15.4800005,0.3195,0.9195,1.7195001
1975,2026-01-12 07:00:00+00:00,0.6695,96.0,0.104790606,-2.3320732,48.0,0.3,0.2,0.1,0.0,0.13,3.0,1001.8,997.0639,100.0,100.0,20.0,0.0,60.0,6.12,22.183128,33.34035,44.751637,208.07239,228.28934,245.09525,261.67444,15.4800005,1.3195,2.0195,2.8195
1976,2026-01-12 08:00:00+00:00,1.6195,95.0,0.9048269,-1.4391847,49.0,0.3,0.2,0.1,0.0,0.12,3.0,1002.4,997.6773,100.0,100.0,39.0,0.0,80.0,7.386582,26.368616,39.185463,50.862026,223.02507,237.82881,249.56708,262.27145,17.64,2.3195,3.0195,3.8195
1977,2026-01-12 09:00:00+00:00,2.3695,94.0,1.5026236,-0.7513318,49.0,0.3,0.2,0.1,0.0,0.12,3.0,1002.9,998.18787,100.0,100.0,59.0,0.0,80.0,8.4963045,29.142216,43.037693,54.38741,233.61555,242.80196,252.47433,263.15732,19.8,3.1195,3.8195,4.4195
1978,2026-01-12 10:00:00+00:00,2.8695,94.0,1.999094,-0.22326231,46.25,0.0,0.0,0.0,0.0,0.12,3.0,1003.3,998.59436,99.0,99.0,44.0,0.0,3000.0,8.891343,29.49804,43.831387,55.19752,238.24055,246.25049,255.73544,266.26056,21.24,3.6195,4.2194996,4.6194997
1979,2026-01-12 11:00:00+00:00,3.2195,93.0,2.196367,0.16157007,41.0,0.0,0.0,0.0,0.0,0.11,3.0,1003.6,998.89886,99.0,97.0,30.0,0.0,5940.0,8.891343,28.412645,42.57295,53.641205,238.24055,247.6593,258.78513,269.61548,22.319998,3.8195,4.4195,4.6194997
1980,2026-01-12 12:00:00+00:00,3.4195,93.0,2.3947077,0.4238429,34.25,0.0,0.0,0.0,0.0,0.11,3.0,1003.9,999.201,98.0,96.0,15.0,0.0,8860.0,8.707237,27.345785,41.19287,51.871235,240.2552,249.17903,260.94934,271.9886,22.68,4.0195,4.5195,4.6194997
1981,2026-01-12 13:00:00+00:00,3.4695,93.0,2.4442933,0.5280733,30.0,0.0,0.0,0.0,0.0,0.11,3.0,1004.4,999.6996,99.0,92.0,43.0,0.0,13960.0,8.39657,27.009598,39.771442,49.700863,239.0363,248.9076,260.62302,271.66025,21.599998,4.2194996,4.6194997,4.7194996
1982,2026-01-12 14:00:00+00:00,3.3695,94.0,2.4955568,0.48200607,33.0,0.0,0.0,0.0,0.0,0.11,3.0,1004.9,1000.19543,99.0,88.0,72.0,0.0,19040.0,8.0899935,26.807312,37.77256,46.44139,237.72438,247.91277,259.01138,269.55588,20.16,4.2194996,4.7194996,4.9195
1983,2026-01-12 15:00:00+00:00,3.2195,94.0,2.3466194,0.39253044,35.0,0.0,0.0,0.0,0.0,0.11,3.0,1005.4,1000.6905,100.0,84.0,100.0,0.0,24140.0,7.491114,26.61323,36.23861,43.973083,234.78232,246.90315,256.79205,267.1845,18.359999,4.3195,4.8195,5.0195
1984,2026-01-12 16:00:00+00:00,3.0695,94.0,2.19768,0.26632786,35.0,0.0,0.0,0.0,0.0,0.11,3.0,1005.7,1000.9866,100.0,83.0,100.0,33.0,24140.0,7.145796,26.081993,34.964508,41.62478,229.08571,243.78868,253.24417,264.04297,16.919998,4.3195,4.9195,5.2194996
1985,2026-01-12 17:00:00+00:00,2.8695,94.0,1.999094,0.10819149,34.0,0.0,0.0,0.0,0.0,0.1,3.0,1006.0,1001.28174,100.0,81.0,100.0,67.0,24140.0,6.618519,25.318008,33.834255,39.831684,224.9999,240.15416,249.44386,260.1121,15.4800005,4.4195,5.0195,5.3195
1986,2026-01-12 18:00:00+00:00,2.7695,94.0,1.8998004,-0.009159088,35.0,0.0,0.0,0.0,0.0,0.1,3.0,1006.4,1001.67834,100.0,80.0,100.0,100.0,24140.0,6.618519,25.006397,33.497414,38.833305,224.9999,239.74365,249.22766,259.31512,15.119999,4.3195,5.0195,5.3195
1987,2026-01-12 19:00:00+00:00,2.8195,94.0,1.9494472,0.038146496,40.0,0.5,0.4,0.1,0.0,0.1,61.0,1006.9,1002.1766,100.0,82.0,100.0,67.0,24140.0,6.696387,25.14852,33.88019,39.04631,233.74606,246.3706,255.2254,264.71002,15.84,4.1194997,4.8195,5.0195
1988,2026-01-12 20:00:00+00:00,2.9695,95.0,2.2469304,0.13482904,46.0,0.5,0.4,0.1,0.0,0.1,61.0,1007.5,1002.7766,100.0,84.0,100.0,33.0,24140.0,7.42159,26.282465,35.428463,41.0968,247.1663,256.5348,264.75296,273.01273,17.28,3.8195,4.4195,4.5195
1989,2026-01-12 21:00:00+00:00,3.1195,95.0,2.3960495,0.15811777,48.0,0.5,0.4,0.1,0.0,0.1,61.0,1008.2,1003.4758,100.0,86.0,100.0,0.0,24140.0,8.473393,27.51116,37.44692,44.093754,257.73523,263.9911,271.10168,278.92392,19.08,3.6195,4.0195,4.0195
1990,2026-01-12 22:00:00+00:00,2.66675,96.25,2.1235018,-0.39369565,43.0,0.15,0.15,0.0,0.0,0.095,3.0,1006.64996,1001.9253,100.0,93.25,86.25,25.0,24140.0,8.83937,36.099335,44.74901,47.726818,236.573,259.7283,264.22293,281.3099,34.11,4.405875,4.455875,3.6195
1991,2026-01-12 23:00:00+00:00,2.139,97.0,1.7020284,-0.9850224,34.0,0.1,0.1,0.0,0.0,0.08,3.0,1005.25,1000.5228,100.0,97.5,73.0,50.0,24140.0,8.774663,43.8216,51.00379,51.269356,215.33092,254.12738,256.29254,282.57245,50.039997,4.64225,4.51725,3.2195
1992,2026-01-13 00:00:00+00:00,1.5862501,98.5,1.3675873,-1.4620705,26.0,0.05,0.05,0.0,0.0,0.075,3.0,1003.69995,998.9707,100.0,100.0,64.25,75.0,24140.0,7.8599596,50.460144,56.36581,53.96639,192.65594,248.14502,249.09244,283.10922,64.619995,4.5161247,4.328625,3.0195
1993,2026-01-13 01:00:00+00:00,0.95849997,100.0,0.9585,-1.9824243,20.0,0.0,0.0,0.0,0.0,0.07,3.0,1002.1,997.36743,100.0,100.0,74.0,78.0,24140.0,6.638072,55.079998,59.333202,,167.4712,241.92761,242.32417,,74.88,4.515,4.3650002,
1994,2026-01-13 02:00:00+00:00,0.95849997,100.0,0.9585,-2.0458336,15.0,0.0,0.0,0.0,0.0,0.07,3.0,1002.9,998.16376,100.0,100.0,89.0,48.0,24140.0,7.072878,51.51901,55.378445,,165.2564,243.43501,243.60503,,70.2,4.3650002,4.215,
1995,2026-01-13 03:00:00+00:00,0.95849997,100.0,0.9585,-2.0458336,13.0,0.0,0.0,0.0,0.0,0.07,3.0,1003.7,998.95996,100.0,100.0,100.0,33.0,24140.0,7.072878,47.981396,51.769527,,165.2564,244.20403,244.34438,,65.520004,4.165,4.015,
1996,2026-01-13 04:00:00+00:00,0.95849997,100.0,0.9585,-2.0337377,16.0,0.0,0.0,0.0,0.0,0.07,3.0,1004.5,999.75616,100.0,100.0,100.0,49.0,24140.0,6.9899354,45.086315,48.815075,,168.11136,244.45802,244.59233,,62.279995,3.815,3.665,
1997,2026-01-13 05:00:00+00:00,1.0085,100.0,1.0085001,-1.9755185,23.0,0.0,0.0,0.0,0.0,0.07,3.0,1005.3,1000.5531,100.0,100.0,97.0,80.0,24140.0,6.9899354,42.67177,46.018898,,168.11136,244.51591,244.45802,,59.039997,3.4650002,3.315,
1998,2026-01-13 06:00:00+00:00,1.0585,100.0,1.0585,-1.9077654,26.0,0.0,0.0,0.0,0.0,0.07,3.0,1006.0,1001.25073,100.0,100.0,93.0,100.0,24140.0,6.924738,40.571537,43.713764,,171.02745,243.66237,244.08116,,56.16,3.2150002,3.065,
1999,2026-01-13 07:00:00+00:00,1.1085,100.0,1.1085001,-1.7976716,22.0,0.0,0.0,0.0,0.0,0.07,3.0,1006.6,1001.8487,100.0,100.0,91.0,97.0,24140.0,6.5693827,38.966568,42.068993,,170.53775,242.48808,242.98741,,53.639996,3.2150002,3.065,
2000,2026-01-13 08:00:00+00:00,1.2085,100.0,1.2085,-1.6910665,14.0,0.0,0.0,0.0,0.0,0.06,3.0,1007.1,1002.348,100.0,100.0,89.0,82.0,24140.0,6.638072,37.731365,40.793167,,167.4712,240.25522,240.89536,,51.839996,3.315,3.2150002,
2001,2026-01-13 09:00:00+00:00,1.2585001,100.0,1.2585002,-1.5815368,10.0,0.0,0.0,0.0,0.0,0.06,3.0,1007.5,1002.7471,100.0,100.0,89.0,67.0,24140.0,6.28713,37.16902,40.204742,,166.75948,238.46526,239.21593,,50.399998,3.565,3.415,
2002,2026-01-13 10:00:00+00:00,1.3085,100.0,1.3085002,-1.4609246,13.0,0.0,0.0,0.0,0.0,0.06,3.0,1007.6,1002.84753,100.0,100.0,94.0,54.0,24140.0,5.8603754,37.34295,40.35893,,169.3804,236.0035,236.88864,,50.039997,3.9650002,3.765,
2003,2026-01-13 11:00:00+00:00,1.4085001,100.0,1.4085002,-1.3310909,19.0,0.0,0.0,0.0,0.0,0.06,3.0,1007.5,1002.7496,100.0,100.0,100.0,40.0,24140.0,5.771239,38.378433,41.306267,,176.42374,233.77496,234.04749,,50.399998,4.415,4.215,
2004,2026-01-13 12:00:00+00:00,1.4085001,100.0,1.4085002,-1.2786999,23.0,0.0,0.0,0.0,0.0,0.06,3.0,1007.4,1002.6501,100.0,100.0,97.0,28.0,24140.0,5.4119864,39.31259,42.256332,,176.186,232.81522,233.13002,,50.399998,4.765,4.565,
2005,2026-01-13 13:00:00+00:00,1.3085,100.0,1.3085002,-1.4093821,24.0,0.0,0.0,0.0,0.0,0.06,3.0,1007.5,1002.74805,100.0,100.0,74.0,17.0,24140.0,5.506941,39.888584,42.846516,,168.69011,233.44028,233.71965,,49.32,4.8650002,4.665,
2006,2026-01-13 14:00:00+00:00,1.2085,100.0,1.2085,-1.5531123,24.0,0.0,0.0,0.0,0.0,0.05,3.0,1007.6,1002.84564,100.0,100.0,41.0,8.0,24140.0,5.6920996,40.345707,43.621006,,161.56496,235.17543,235.64056,,47.519997,4.815,4.665,
2007,2026-01-13 15:00:00+00:00,1.0585,100.0,1.0585,-1.7196627,23.0,0.0,0.0,0.0,0.0,0.05,3.0,1007.7,1002.9427,100.0,100.0,16.0,2.0,24140.0,5.634891,41.036842,44.333282,,153.43501,236.44931,236.83676,,47.519997,4.715,4.565,
2008,2026-01-13 16:00:00+00:00,0.9085,100.0,0.9085,-1.7134087,21.0,0.0,0.0,0.0,0.0,0.05,3.0,1007.8,1003.0396,100.0,100.0,5.0,0.0,24140.0,4.39436,41.939613,44.73952,,145.0079,235.49142,236.04886,,50.399998,4.515,4.3650002,
2009,2026-01-13 17:00:00+00:00,0.8085,100.0,0.80849993,-1.6404943,18.0,0.0,0.0,0.0,0.0,0.05,3.0,1007.8,1003.03784,100.0,100.0,2.0,0.0,24140.0,3.096837,42.771877,45.576683,,125.537766,233.90163,234.51593,,54.719997,4.215,4.065,
2010,2026-01-13 18:00:00+00:00,0.70849997,100.0,0.70849997,-1.6872821,16.0,0.0,0.0,0.0,0.0,0.05,3.0,1007.9,1003.13574,100.0,100.0,0.0,0.0,24140.0,2.6208394,43.649166,46.478695,,105.945465,234.73691,235.30478,,58.32,4.015,3.865,
2011,2026-01-13 19:00:00+00:00,0.6585,100.0,0.6585,-1.7960656,17.0,0.0,0.0,0.0,0.0,0.05,3.0,1008.1,1003.33374,100.0,100.0,0.0,0.0,24140.0,2.968636,45.81486,48.720947,,104.03627,239.80847,240.14801,,60.479996,4.065,3.915,
2012,2026-01-13 20:00:00+00:00,0.6585,100.0,0.6585,-1.9112554,19.0,0.0,0.0,0.0,0.0,0.05,3.0,1008.2,1003.43335,100.0,100.0,1.0,1.0,24140.0,3.7585104,48.689247,52.01151,,106.699326,246.46764,246.69508,,61.920002,4.215,4.065,
2013,2026-01-13 21:00:00+00:00,0.6585,100.0,0.6585,-1.9776361,19.0,0.0,0.0,0.0,0.0,0.05,3.0,1008.5,1003.7319,100.0,100.0,2.0,2.0,24140.0,4.2136917,50.662884,54.38206,,109.98319,250.9212,251.07526,,62.279995,4.265,4.1150002,
2014,2026-01-13 22:00:00+00:00,0.6585,100.0,0.6585,-2.0635767,17.0,0.0,0.0,0.0,0.0,0.05,3.0,1008.8,1004.03046,100.0,100.0,2.0,2.0,24140.0,4.802999,49.977802,53.684906,,102.99462,251.9565,252.061,,60.839996,4.1150002,3.9650002,
2015,2026-01-13 23:00:00+00:00,0.70849997,100.0,0.70849997,-2.0475385,13.0,0.0,0.0,0.0,0.0,0.05,3.0,1009.2,1004.42957,100.0,100.0,1.0,1.0,24140.0,5.0911684,47.813637,51.01156,,98.13002,251.56496,251.9565,,57.96,3.865,3.7150002,
2016,2026-01-14 00:00:00+00:00,0.70849997,100.0,0.70849997,-2.0943244,10.0,0.0,0.0,0.0,0.0,0.05,3.0,1009.6,1004.82764,100.0,100.0,0.0,3.0,24140.0,5.4119864,46.10952,49.27619,,93.814,252.27228,252.64589,,55.8,3.665,3.4650002,
2017,2026-01-14 01:00:00+00:00,0.70849997,100.0,0.70849997,-2.0419488,9.0,0.0,0.0,0.0,0.0,0.05,3.0,1010.1,1005.32526,100.0,100.0,0.0,7.0,24140.0,5.0528407,45.754005,48.926964,,94.08554,255.41702,255.65063,,55.44,3.4650002,3.265,
2018,2026-01-14 02:00:00+00:00,0.6585,100.0,0.6585,-1.9953232,8.0,0.0,0.0,0.0,0.0,0.05,3.0,1010.7,1005.9215,100.0,100.0,0.0,13.0,24140.0,4.3349743,46.10952,49.2981,,94.76356,259.6552,259.69522,,55.8,3.265,3.115,
2019,2026-01-14 03:00:00+00:00,0.6585,100.0,0.6585,-1.9430208,10.0,0.0,0.0,0.0,0.0,0.05,3.0,1011.3,1006.5187,100.0,100.0,0.0,21.0,24140.0,3.9763298,46.438602,49.587563,,95.19434,262.8751,263.19104,,55.44,3.165,3.015,
2020,2026-01-14 04:00:00+00:00,0.6585,100.0,0.6585,-1.9953232,15.0,0.0,0.0,0.0,0.0,0.05,3.0,1012.0,1007.21533,100.0,100.0,1.0,31.0,24140.0,4.3349743,45.891174,49.037228,,85.23644,265.0498,265.2721,,54.36,3.165,2.9650002,
2021,2026-01-14 05:00:00+00:00,0.6085,100.0,0.6085,-2.1728623,23.0,0.0,0.0,0.0,0.0,0.04,3.0,1012.7,1007.9111,100.0,100.0,2.0,44.0,24140.0,5.1544156,45.070503,48.204147,,77.90526,266.79486,266.94138,,52.92,3.165,3.015,
2022,2026-01-14 06:00:00+00:00,0.6085,100.0,0.6085,-2.351479,29.0,0.0,0.0,0.0,0.0,0.04,3.0,1013.5,1008.7073,100.0,100.0,2.0,57.0,24140.0,6.379216,43.61352,46.717735,,73.61038,267.16125,267.2952,,51.12,3.2150002,3.015,
2023,2026-01-14 07:00:00+00:00,0.6585,100.0,0.6585,-2.4454546,34.0,0.0,0.0,0.0,0.0,0.04,3.0,1014.4,1009.604,100.0,100.0,1.0,73.0,24140.0,7.42159,41.8855,44.950268,,75.96373,265.5636,265.78098,,48.6,3.165,2.9650002,
2024,2026-01-14 08:00:00+00:00,0.70849997,100.0,0.70849997,-2.5824566,38.0,0.0,0.0,0.0,0.0,0.04,3.0,1015.3,1010.5007,100.0,100.0,0.0,89.0,24140.0,8.759178,39.966484,42.614273,,80.53775,262.23492,262.5687,,46.079998,3.165,2.9650002,
2025,2026-01-14 09:00:00+00:00,0.70849997,100.0,0.70849997,-2.7312994,39.0,0.0,0.0,0.0,0.0,0.04,3.0,1015.8,1010.99835,100.0,100.0,0.0,100.0,24140.0,9.779817,38.26852,40.859306,,83.659904,258.05585,258.58905,,44.28,3.2150002,3.015,
2026,2026-01-14 10:00:00+00:00,0.6585,100.0,0.6585,-2.7961104,36.0,0.0,0.0,0.0,0.0,0.04,3.0,1015.8,1010.9974,100.0,100.0,1.0,100.0,24140.0,9.826088,36.551968,39.066994,,81.57312,252.81421,253.61038,,44.639996,3.4650002,3.265,
2027,2026-01-14 11:00:00+00:00,0.5585,100.0,0.5585,-2.8691998,31.0,0.0,0.0,0.0,0.0,0.04,3.0,1015.5,1010.69727,100.0,100.0,3.0,95.0,24140.0,9.531505,35.64182,38.214424,,79.11452,246.80139,247.3801,,45.719997,3.765,3.565,
2028,2026-01-14 12:00:00+00:00,0.4085,99.0,0.26952413,-3.0758302,26.0,0.0,0.0,0.0,0.0,0.04,3.0,1015.0,1010.1967,100.0,100.0,5.0,89.0,24140.0,9.605998,35.455887,38.152542,,77.00539,240.83249,241.21347,,46.8,4.015,3.815,
2029,2026-01-14 13:00:00+00:00,0.2585,98.0,-0.020357959,-3.3632746,23.0,0.0,0.0,0.0,0.0,0.04,3.0,1014.5,1009.6966,100.0,100.0,3.0,81.0,24140.0,10.239453,36.748222,39.646763,,79.87539,235.37578,235.57346,,46.8,4.165,3.9650002,
2030,2026-01-14 14:00:00+00:00,0.0585,97.0,-0.36099407,-3.7047758,20.0,0.0,0.0,0.0,0.0,0.04,3.0,1013.9,1009.096,100.0,100.0,0.0,73.0,24140.0,10.853866,38.85666,42.012794,,84.2895,230.26244,230.3228,,46.44,4.215,4.015,
2031,2026-01-14 15:00:00+00:00,-0.1415,96.0,-0.7024616,-4.0560927,19.0,0.0,0.0,0.0,0.0,0.04,3.0,1013.0,1008.1968,100.0,100.0,5.0,70.0,24140.0,11.542478,42.021423,45.23621,,86.423744,226.73567,226.97493,,48.239998,4.065,3.915,
2032,2026-01-14 16:00:00+00:00,-0.4415,95.0,-1.1442004,-4.472697,21.0,0.0,0.0,0.0,0.0,0.04,3.0,1011.7,1006.8975,100.0,100.0,24.0,80.0,16560.0,11.901798,46.0814,49.632465,,86.531845,224.05052,224.10023,,54.36,3.515,3.415,
2033,2026-01-14 17:00:00+00:00,-0.7415,95.0,-1.4424663,-4.815045,24.0,0.0,0.0,0.0,0.0,0.04,3.0,1010.2,1005.3993,100.0,100.0,50.0,95.0,9000.0,11.901798,50.46681,54.3535,,86.531845,222.10866,222.5342,,62.639996,2.815,2.665,
2034,2026-01-14 18:00:00+00:00,-1.0415,94.0,-1.8844872,-5.173886,26.0,0.0,0.0,0.0,0.0,0.04,3.0,1008.9,1004.10046,100.0,100.0,70.0,100.0,1420.0,11.885453,53.496048,57.449856,,88.264336,222.81834,223.18584,,69.12,2.4650002,2.315,
2035,2026-01-14 19:00:00+00:00,-1.2915,94.0,-2.1327496,-5.5624824,27.0,0.0,0.0,0.0,0.0,0.04,3.0,1008.0,1003.2003,100.0,100.0,81.0,86.0,6260.0,12.605142,53.76067,57.49215,,91.63654,227.44244,227.84955,,72.72,2.7150002,2.565,
2036,2026-01-14 20:00:00+00:00,-1.4415,93.0,-2.426347,-5.8670964,26.0,0.0,0.0,0.0,0.0,0.04,3.0,1007.4,1002.60034,100.0,100.0,86.0,63.0,11080.0,13.397612,53.148487,57.19548,,96.17008,234.372,234.67618,,74.520004,3.315,3.115,
2037,2026-01-14 21:00:00+00:00,-1.6415,93.0,-2.6247203,-6.1589794,26.0,0.0,0.0,0.0,0.0,0.04,3.0,1006.8,1001.99976,100.0,100.0,82.0,41.0,15920.0,13.849476,52.9151,56.787994,,98.97255,239.77171,240.11726,,74.88,3.9650002,3.765,
2038,2026-01-14 22:00:00+00:00,-1.8414999,92.0,-2.9686408,-6.412045,26.0,0.0,0.0,0.0,0.0,0.04,3.0,1006.3,1001.49866,100.0,100.0,62.0,24.0,18660.0,13.910169,52.66592,56.543777,,100.43742,241.85849,242.10283,,73.079994,4.6150002,4.465,
2039,2026-01-14 23:00:00+00:00,-1.9914999,92.0,-3.1172426,-6.52925,25.0,0.0,0.0,0.0,0.0,0.04,3.0,1006.0,1001.19727,100.0,100.0,32.0,10.0,21400.0,13.556282,52.178894,55.722363,,100.71308,242.02061,242.08318,,70.2,5.3650002,5.165,
2040,2026-01-15 00:00:00+00:00,-2.1415,91.0,-3.4124389,-6.7160387,26.0,0.0,0.0,0.0,0.0,0.04,3.0,1005.6,1000.7967,100.0,100.0,10.0,0.0,24140.0,13.556282,51.544155,55.07407,,100.71308,241.64513,241.72523,,68.4,5.915,5.765,
2041,2026-01-15 01:00:00+00:00,-2.2415,91.0,-3.5113869,-6.8191404,29.0,0.0,0.0,0.0,0.0,0.04,3.0,1005.1,1000.2972,100.0,100.0,4.0,0.0,24140.0,13.493999,51.261772,54.46393,,99.21095,240.55466,240.49493,,69.84,6.215,6.065,
2042,2026-01-15 02:00:00+00:00,-2.3415,91.0,-3.6103354,-6.9235277,33.0,0.0,0.0,0.0,0.0,0.04,3.0,1004.5,999.6985,100.0,100.0,5.0,0.0,24140.0,13.441071,50.565582,54.06833,,97.69597,238.68651,238.90276,,72.36,6.315,6.165,
2043,2026-01-15 03:00:00+00:00,-2.4915,91.0,-3.7587585,-7.1435766,35.0,0.0,0.0,0.0,0.0,0.04,3.0,1004.0,999.19806,100.0,100.0,7.0,0.0,24140.0,13.797912,51.026108,54.53206,,97.495766,237.09476,237.38077,,74.88,6.465,6.315,
2044,2026-01-15 04:00:00+00:00,-2.7415,90.0,-4.1534324,-7.560287,33.0,0.0,0.0,0.0,0.0,0.04,3.0,1003.5,998.69604,100.0,100.0,6.0,0.0,22800.0,14.618837,52.219856,55.747803,,99.926186,236.529,236.83363,,76.32,6.715,6.565,
2045,2026-01-15 05:00:00+00:00,-3.0414999,89.0,-4.5983105,-8.086303,28.0,0.0,0.0,0.0,0.0,0.04,3.0,1002.9,998.0936,100.0,100.0,6.0,0.0,21440.0,15.815435,54.016796,58.090237,,101.821465,236.4158,236.61147,,77.76,7.015,6.8650002,
2046,2026-01-15 06:00:00+00:00,-3.3915,88.0,-5.093235,-8.61748,26.0,0.0,0.0,0.0,0.0,0.04,3.0,1002.5,997.6893,100.0,100.0,5.0,0.0,20100.0,16.676977,55.514755,59.618103,,103.73629,236.10379,236.3099,,78.12,7.315,7.165,
2047,2026-01-15 07:00:00+00:00,-3.8415,87.0,-5.6872745,-9.144747,26.0,0.0,0.0,0.0,0.0,0.04,3.0,1002.3,997.48236,92.0,91.0,4.0,0.0,21440.0,16.766108,56.216507,60.332855,,104.93147,235.6993,235.92276,,77.4,7.565,7.415,
2048,2026-01-15 08:00:00+00:00,-4.3415003,87.0,-6.1795964,-9.696122,29.75,0.0,0.0,0.0,0.0,0.04,3.0,1002.1,997.27435,80.0,78.0,3.0,0.0,22800.0,16.766108,56.625378,60.747677,,104.93147,235.09743,235.34862,,75.96,7.765,7.6150002,
2049,2026-01-15 09:00:00+00:00,-4.5915003,86.0,-6.5767655,-10.000343,34.0,0.0,0.0,0.0,0.0,0.04,2.0,1001.9,997.071,74.0,71.0,2.0,0.0,24140.0,16.862455,56.83213,60.957344,,106.11349,234.79976,235.0645,,75.6,7.965,7.815,
2050,2026-01-15 10:00:00+00:00,-4.2915,85.0,-6.434697,-9.751306,37.0,0.0,0.0,0.0,0.0,0.04,2.0,1001.5,996.6782,77.0,75.0,2.0,0.0,24140.0,17.309973,57.33388,61.469067,,106.9276,234.71317,234.97984,,77.03999,8.065,7.915,
2051,2026-01-15 11:00:00+00:00,-3.6915,84.0,-6.0007696,-9.12263,40.0,0.0,0.0,0.0,0.0,0.04,3.0,1000.9,996.09174,85.0,84.0,2.0,0.0,24140.0,17.418196,57.835773,61.980915,,108.06056,234.62807,234.89659,,79.56,8.165,7.965,
2052,2026-01-15 12:00:00+00:00,-3.3415,84.0,-5.6574955,-8.78652,42.0,0.0,0.0,0.0,0.0,0.04,3.0,1000.5,995.69977,91.0,91.0,2.0,0.0,24140.0,17.76081,58.129684,62.28189,,107.700516,234.83348,235.09099,,81.36,8.214999,8.014999,
2053,2026-01-15 13:00:00+00:00,-3.4915,85.0,-5.649019,-8.943098,42.0,0.0,0.0,0.0,0.0,0.04,3.0,1000.3,995.4982,94.0,94.0,3.0,0.0,24140.0,17.811815,58.218796,62.16797,,104.03627,235.32718,235.84026,,81.36,8.264999,8.065,
2054,2026-01-15 14:00:00+00:00,-3.8915,87.0,-5.7365055,-9.309664,41.0,0.0,0.0,0.0,0.0,0.04,3.0,1000.2,995.39154,96.0,95.0,4.0,0.0,24140.0,17.518356,57.91078,61.863174,,99.46225,236.40869,236.87625,,80.64,8.264999,8.115,
2055,2026-01-15 15:00:00+00:00,-4.3915,88.0,-6.0791125,-9.882473,39.0,0.0,0.0,0.0,0.0,0.04,3.0,1000.1,995.283,97.0,96.0,5.0,0.0,24140.0,17.771753,57.51556,61.464672,,96.980965,237.0062,237.45001,,79.56,8.315,8.165,
2056,2026-01-15 16:00:00+00:00,-4.9415,88.0,-6.62137,-10.554154,37.0,0.0,0.0,0.0,0.0,0.04,3.0,999.8,994.9748,98.0,97.0,5.0,0.0,24140.0,18.228943,58.21101,62.06473,,99.090195,236.60474,236.59215,,79.92,8.565,8.415,
2057,2026-01-15 17:00:00+00:00,-5.5415,87.0,-7.3612323,-11.267111,34.0,0.0,0.0,0.0,0.0,0.04,3.0,999.4,994.5658,98.0,97.0,5.0,0.0,24140.0,18.511143,58.812366,62.67843,,103.49575,235.72624,235.75092,,80.64,8.815,8.665,
2058,2026-01-15 18:00:00+00:00,-6.0415,87.0,-7.853607,-11.85398,32.0,0.0,0.0,0.0,0.0,0.04,3.0,999.5,994.6563,98.0,97.0,5.0,0.0,24140.0,18.792551,55.332363,59.125767,,106.699326,237.75755,237.69269,,77.4,8.615,8.464999,
2059,2026-01-15 19:00:00+00:00,-6.2915,87.0,-8.0998,-12.042052,30.0,0.0,0.0,0.0,0.0,0.04,3.0,1000.3,995.44806,98.0,97.0,5.0,0.0,19480.0,18.214718,44.589165,47.62791,,108.43504,248.19853,247.78812,,66.6,7.515,7.3650002,
2060,2026-01-15 20:00:00+00:00,-6.3915,88.0,-8.051043,-12.02154,29.0,0.0,0.0,0.0,0.0,0.04,3.0,1001.5,996.6404,98.0,98.0,4.0,0.0,14800.0,17.418196,34.561874,36.74647,,108.06056,270.5968,270.5729,,52.199997,6.015,5.815,
2061,2026-01-15 21:00:00+00:00,-6.5415,88.0,-8.198948,-12.085214,27.0,0.0,0.0,0.0,0.0,0.04,3.0,1002.6,997.7322,98.0,98.0,3.0,0.0,10140.0,16.73516,31.89608,34.190285,,108.8248,290.48044,290.77234,,42.12,4.8650002,4.665,
2062,2026-01-15 22:00:00+00:00,-6.7915,88.0,-8.445457,-12.307422,26.0,0.0,0.0,0.0,0.0,0.04,3.0,1003.2,998.3249,99.0,99.0,1.0,0.0,14800.0,16.394829,31.655441,33.932632,,109.23077,287.19864,287.6502,,40.68,4.465,4.265,
2063,2026-01-15 23:00:00+00:00,-7.0915003,88.0,-8.741274,-12.566503,24.0,0.0,0.0,0.0,0.0,0.04,3.0,1003.7,998.8168,99.0,99.0,0.0,0.0,19480.0,15.937878,33.497414,35.67259,,108.43504,271.84756,272.36133,,43.92,4.465,4.265,
2064,2026-01-16 00:00:00+00:00,-7.2415004,88.0,-8.889184,-12.67942,23.0,0.0,0.0,0.0,0.0,0.04,3.0,1004.2,999.31165,100.0,100.0,0.0,0.0,24140.0,15.596767,36.40275,38.97357,,108.85326,261.46933,261.87,,46.8,4.515,4.315,
2065,2026-01-16 01:00:00+00:00,-7.1915,88.0,-8.83988,-12.50894,22.0,0.0,0.0,0.0,0.0,0.04,3.0,1004.9,1000.00916,100.0,100.0,5.0,0.0,24080.0,14.799459,38.059677,40.655575,,108.43504,259.64673,260.1121,,47.519997,4.565,4.3650002,
2066,2026-01-16 02:00:00+00:00,-6.9415,89.0,-8.448284,-12.059032,20.0,0.0,0.0,0.0,0.0,0.04,3.0,1005.6,1000.7103,100.0,100.0,12.0,0.0,24000.0,13.661038,39.122574,41.74197,,108.43504,259.931,260.37192,,48.239998,4.715,4.515,
2067,2026-01-16 03:00:00+00:00,-6.5915003,90.0,-7.95868,-11.566017,19.0,0.0,0.0,0.0,0.0,0.04,3.0,1006.2,1001.3138,100.0,100.0,20.0,0.0,23940.0,12.979984,39.771442,42.40783,,109.440125,260.62302,261.02747,,48.239998,4.815,4.6150002,
2068,2026-01-16 04:00:00+00:00,-6.0415,91.0,-7.271726,-10.902725,18.0,0.0,0.0,0.0,0.0,0.04,3.0,1006.6,1001.72186,99.0,98.0,28.0,0.0,24000.0,12.641076,40.186382,42.829178,,109.98319,260.20023,260.61856,,47.88,4.8650002,4.665,
2069,2026-01-16 05:00:00+00:00,-5.3415003,92.0,-6.4362416,-10.12087,17.0,0.0,0.0,0.0,0.0,0.04,3.0,1007.0,1002.1328,98.0,94.0,37.0,0.0,24080.0,12.641076,39.89508,42.52864,,109.98319,259.60272,260.04944,,47.16,4.915,4.765,
2070,2026-01-16 06:00:00+00:00,-4.6915,93.0,-5.6500816,-9.4080715,16.0,0.0,0.0,0.0,0.0,0.04,3.0,1007.5,1002.642,97.0,91.0,41.0,0.0,24140.0,12.768586,39.122574,41.74197,,111.501495,259.931,260.37192,,45.719997,4.915,4.765,
2071,2026-01-16 07:00:00+00:00,-4.0915003,93.0,-5.054904,-8.78447,16.0,0.0,0.0,0.0,0.0,0.04,3.0,1008.3,1003.4489,94.0,88.0,37.0,0.0,24140.0,13.049689,37.169018,39.701214,,114.44395,261.08514,262.02,,43.56,4.8650002,4.715,
2072,2026-01-16 08:00:00+00:00,-3.5414999,93.0,-4.5093346,-8.243332,16.0,0.0,0.0,0.0,0.0,0.04,3.0,1009.3,1004.4541,91.0,85.0,30.0,0.0,24140.0,13.53236,34.428497,36.927902,,118.61037,263.39526,264.2895,,41.039997,4.715,4.565,
2073,2026-01-16 09:00:00+00:00,-2.8915,93.0,-3.8645844,-7.525333,16.0,0.0,0.0,0.0,0.0,0.04,3.0,1010.2,1005.3615,90.0,84.0,25.0,2.0,24140.0,13.584932,32.88635,35.3685,,122.00535,264.976,265.82965,,39.239998,4.715,4.565,
2074,2026-01-16 10:00:00+00:00,-2.0915,92.0,-3.2163112,-6.5872655,16.0,0.0,0.0,0.0,0.0,0.04,3.0,1011.0,1006.1719,92.0,90.0,24.0,31.0,24140.0,13.18308,33.636406,35.795387,,124.992096,264.47256,264.69916,,39.239998,4.915,4.715,
2075,2026-01-16 11:00:00+00:00,-1.2915,91.0,-2.5714,-5.6517024,16.0,0.0,0.0,0.0,0.0,0.04,3.0,1011.6,1006.7832,97.0,99.0,27.0,71.0,24140.0,12.819235,35.1862,37.373108,,128.15727,262.94778,263.22443,,39.96,5.165,4.965,
2076,2026-01-16 12:00:00+00:00,-0.6415,91.0,-1.9282733,-4.8658533,16.0,0.0,0.0,0.0,0.0,0.04,3.0,1012.2,1007.3917,100.0,100.0,35.0,100.0,24140.0,12.475961,35.9946,38.194984,,133.83095,261.95102,262.25974,,40.32,5.315,5.1150002,
2077,2026-01-16 13:00:00+00:00,-0.3915,92.0,-1.5322016,-4.603911,15.0,0.0,0.0,0.0,0.0,0.04,3.0,1012.6,1007.7942,100.0,82.0,55.0,100.0,24140.0,12.768586,34.786133,36.96627,,139.574,263.46347,263.7228,,38.88,5.265,5.065,
2078,2026-01-16 14:00:00+00:00,-0.3415,93.0,-1.3353173,-4.586699,14.0,0.0,0.0,0.0,0.0,0.04,3.0,1012.9,1008.09375,100.0,55.0,81.0,100.0,24140.0,13.18308,33.21573,34.976955,,145.0079,265.64902,266.3862,,37.079998,5.065,4.8650002,
2079,2026-01-16 15:00:00+00:00,-0.24150002,94.0,-1.0900602,-4.431558,13.0,0.0,0.0,0.0,0.0,0.04,3.0,1013.2,1008.3939,100.0,42.0,100.0,100.0,24140.0,13.0447235,31.37168,33.102818,,152.02061,266.71082,267.45526,,35.28,4.915,4.715,
2080,2026-01-16 16:00:00+00:00,0.108500004,96.0,-0.45361555,-3.8622947,12.0,0.0,0.0,0.0,0.0,0.04,3.0,1013.7,1008.8979,100.0,55.0,100.0,100.0,24140.0,12.181625,30.37683,32.1027,,161.0295,264.55975,264.74628,,33.839996,4.815,4.6150002,
2081,2026-01-16 17:00:00+00:00,0.5085,97.0,0.087452784,-3.18616,11.0,0.0,0.0,0.0,0.0,0.04,3.0,1014.3,1009.50195,100.0,81.0,100.0,100.0,24140.0,10.853866,29.301876,31.291245,,174.2895,259.3804,260.53775,,32.760002,4.715,4.565,
2082,2026-01-16 18:00:00+00:00,0.70849997,98.0,0.4286101,-2.8804297,10.0,0.0,0.0,0.0,0.0,0.04,3.0,1014.8,1010.00305,100.0,100.0,100.0,100.0,24140.0,10.495713,28.988384,31.013865,,185.90605,255.61856,256.29303,,32.399998,4.665,4.515,
2083,2026-01-16 19:00:00+00:00,0.5585,97.0,0.13728008,-3.0905216,10.0,0.0,0.0,0.0,0.0,0.04,3.0,1015.0,1010.1996,100.0,100.0,92.0,75.0,24140.0,10.594036,28.930204,31.04215,,189.78233,253.36897,253.49556,,32.760002,4.765,4.565,
2084,2026-01-16 20:00:00+00:00,0.2085,96.0,-0.3540775,-3.559776,10.0,0.0,0.0,0.0,0.0,0.04,3.0,1015.1,1010.2928,100.0,100.0,80.0,40.0,24140.0,10.8955765,28.916763,30.90921,,187.59456,251.11382,251.99574,,33.48,4.915,4.715,
2085,2026-01-16 21:00:00+00:00,0.0585,95.0,-0.64709586,-3.805585,11.0,0.0,0.0,0.0,0.0,0.04,3.0,1015.1,1010.2902,100.0,99.0,65.0,13.0,24140.0,11.252519,29.157776,31.267508,,187.35228,249.77505,250.07433,,34.56,4.915,4.715,
2086,2026-01-16 22:00:00+00:00,0.2585,94.0,-0.5935526,-3.6051455,12.0,0.0,0.0,0.0,0.0,0.04,3.0,1015.1,1010.2937,83.0,82.0,43.0,3.0,24140.0,11.304229,29.215502,31.319277,,189.16228,247.54301,247.94888,,36.36,4.715,4.515,
2087,2026-01-16 23:00:00+00:00,0.6085,94.0,-0.24600157,-3.2029297,12.0,0.0,0.0,0.0,0.0,0.04,2.0,1015.1,1010.29974,61.0,58.0,18.0,1.0,24140.0,11.304229,29.49804,31.749578,,189.16228,246.25049,246.10483,,38.16,4.415,4.265,
2088,2026-01-17 00:00:00+00:00,0.9085,94.0,0.05189658,-2.8664045,13.0,0.0,0.0,0.0,0.0,0.04,2.0,1015.1,1010.3051,50.0,47.0,0.0,0.0,24140.0,11.367109,29.644857,31.900183,,190.95403,245.61363,245.50145,,39.6,4.065,3.915,
2089,2026-01-17 01:00:00+00:00,1.1585001,95.0,0.44651368,-2.514153,13.0,0.0,0.0,0.0,0.0,0.04,2.0,1015.2,1010.4091,62.0,60.0,0.0,0.0,24140.0,11.090103,29.973106,32.234913,,193.13403,245.89777,245.77226,,40.32,3.665,3.515,
2090,2026-01-17 02:00:00+00:00,1.3085,95.0,0.59564,-2.3530855,14.0,0.0,0.0,0.0,0.0,0.04,3.0,1015.3,1010.5112,86.0,85.0,0.0,0.0,24140.0,11.177405,30.158459,32.760475,,194.93147,246.80139,246.88576,,40.32,3.2150002,3.065,
2091,2026-01-17 03:00:00+00:00,1.3085,96.0,0.740829,-2.2790642,14.0,0.0,0.0,0.0,0.0,0.04,3.0,1015.5,1010.7103,100.0,100.0,0.0,0.0,24140.0,10.829959,30.421598,32.9003,,195.42223,249.20581,249.74345,,40.32,2.9650002,2.815,
2092,2026-01-17 04:00:00+00:00,0.8585,96.0,0.2929154,-2.714416,14.0,0.0,0.0,0.0,0.0,0.04,3.0,1015.7,1010.90137,95.0,96.0,0.0,0.0,24140.0,10.239453,31.170673,33.243237,,190.1246,255.96373,256.57816,,39.6,2.9650002,2.815,
2093,2026-01-17 05:00:00+00:00,0.2085,97.0,-0.21151143,-3.3667684,15.0,0.0,0.0,0.0,0.0,0.04,3.0,1016.0,1011.18854,81.0,83.0,0.0,0.0,24140.0,9.72,32.2034,34.332153,,180.0,264.22577,264.47256,,38.519997,3.165,2.9650002,
2094,2026-01-17 06:00:00+00:00,-0.1415,96.0,-0.7024616,-3.8144155,16.0,0.0,0.0,0.0,0.0,0.04,2.0,1016.3,1011.4811,68.0,67.0,0.0,0.0,24140.0,9.885262,33.151287,34.93833,,169.50858,267.5105,267.58902,,37.8,3.365,3.165,
2095,2026-01-17 07:00:00+00:00,0.108500004,94.0,-0.7425041,-3.7227683,18.0,0.0,0.0,0.0,0.0,0.04,2.0,1016.7,1011.88367,55.0,47.0,7.0,0.0,24140.0,10.931203,32.736256,34.557545,,162.75845,261.78088,261.4392,,37.44,3.615,3.365,
2096,2026-01-17 08:00:00+00:00,0.6085,91.0,-0.69154334,-3.4830914,19.0,0.0,0.0,0.0,0.0,0.04,1.0,1017.0,1012.19073,42.0,24.0,18.0,0.0,24140.0,12.768586,32.33193,34.162636,,158.4985,251.16147,251.1752,,37.44,3.865,3.665,
2097,2026-01-17 09:00:00+00:00,1.1585001,89.0,-0.45309335,-3.1037164,21.0,0.0,0.0,0.0,0.0,0.04,1.0,1017.1,1012.3001,39.0,7.0,29.0,7.0,24140.0,14.182355,32.20944,34.51845,,156.0375,242.00294,242.0711,,37.44,4.065,3.865,
2098,2026-01-17 10:00:00+00:00,1.6585001,88.0,-0.115444705,-2.6444173,22.0,0.0,0.0,0.0,0.0,0.04,2.0,1016.7,1011.91064,56.0,1.0,44.0,36.0,24140.0,14.81259,31.255795,33.5364,,154.05775,237.22513,237.52882,,37.44,4.215,4.015,
2099,2026-01-17 11:00:00+00:00,2.2085001,87.0,0.26855418,-2.105129,23.0,0.0,0.0,0.0,0.0,0.04,3.0,1016.1,1011.32294,82.0,2.0,59.0,74.0,24140.0,15.2947035,29.882166,32.121624,,153.43501,233.82028,234.30984,,37.44,4.265,4.065,
2100,2026-01-17 12:00:00+00:00,2.5085,87.0,0.56382394,-1.8288813,23.0,0.0,0.0,0.0,0.0,0.04,3.0,1015.5,1010.73083,100.0,3.0,68.0,100.0,24140.0,15.778518,29.179993,31.102982,,152.8504,231.009,231.23447,,37.44,4.3650002,4.165,
2101,2026-01-17 13:00:00+00:00,2.5085,86.0,0.40377074,-1.9717126,21.0,0.0,0.0,0.0,0.0,0.04,3.0,1015.0,1010.23315,99.0,2.0,63.0,100.0,24140.0,16.58346,29.810522,31.73682,,152.87878,227.44708,227.81563,,37.8,4.465,4.265,
2102,2026-01-17 14:00:00+00:00,2.3585,86.0,0.2563301,-2.238866,18.0,0.0,0.0,0.0,0.0,0.04,3.0,1014.5,1009.73303,88.0,2.0,51.0,86.0,24140.0,17.22742,31.311722,33.25745,,153.97047,224.53424,224.9999,,38.16,4.565,4.3650002,
2103,2026-01-17 15:00:00+00:00,2.1085,85.0,-0.15059674,-2.6248412,15.0,0.0,0.0,0.0,0.0,0.04,3.0,1013.9,1009.1318,82.0,3.0,42.0,78.0,24140.0,17.727943,33.108257,35.35132,,156.0375,223.23764,223.31535,,39.239998,4.565,4.3650002,
2104,2026-01-17 16:00:00+00:00,1.8585,84.0,-0.5585643,-2.8955147,12.0,0.0,0.0,0.0,0.0,0.04,3.0,1013.2,1008.4306,86.0,8.0,39.0,83.0,24140.0,17.447933,35.893642,38.194984,,158.19853,224.5937,224.61028,,41.399998,4.415,4.215,
2105,2026-01-17 17:00:00+00:00,1.5585,84.0,-0.8526753,-3.1185124,9.0,0.0,0.0,0.0,0.0,0.04,3.0,1012.4,1007.6294,94.0,14.0,38.0,93.0,24140.0,16.62249,39.21522,41.5848,,162.3498,226.48781,226.43204,,43.92,4.165,4.015,
2106,2026-01-17 18:00:00+00:00,1.3085,84.0,-1.0977732,-3.3236794,6.0,0.0,0.0,0.0,0.0,0.04,3.0,1011.4,1006.6297,100.0,17.0,44.0,100.0,24140.0,16.071491,41.750687,44.173103,,164.40714,225.69861,225.67395,,46.8,4.015,3.865,
2107,2026-01-17 19:00:00+00:00,1.2085,84.0,-1.1958138,-3.3733428,4.0,0.0,0.0,0.0,0.0,0.04,3.0,1010.1,1005.33386,100.0,12.0,61.0,100.0,24140.0,15.629971,42.63987,45.355446,,165.32356,220.54874,220.39983,,48.96,4.065,3.915,
2108,2026-01-17 20:00:00+00:00,1.1585001,85.0,-1.0832015,-3.3058217,4.0,0.0,0.0,0.0,0.0,0.03,3.0,1008.5,1003.7407,100.0,5.0,83.0,100.0,24140.0,14.934577,43.736664,46.675816,,164.62369,212.90524,213.43988,,51.48,4.215,4.065,
2109,2026-01-17 21:00:00+00:00,1.1085,86.0,-0.9723993,-3.304129,3.0,0.0,0.0,0.0,0.0,0.03,3.0,1006.8,1002.0478,100.0,5.0,100.0,100.0,24140.0,14.689589,45.40569,48.654396,,162.89719,207.37762,207.91968,,54.0,4.265,4.1150002,
2110,2026-01-17 22:00:00+00:00,1.0585,87.0,-0.8633669,-3.4578438,3.0,0.0,0.0,0.0,0.0,0.03,3.0,1004.9,1000.15594,100.0,21.0,100.0,100.0,24140.0,15.509274,47.67248,50.947998,,158.19853,205.01686,205.64096,,56.88,4.215,4.065,
2111,2026-01-17 23:00:00+00:00,0.95849997,88.0,-0.80534655,-3.7528923,3.0,0.0,0.0,0.0,0.0,0.03,3.0,1002.9,998.16376,100.0,45.0,100.0,100.0,24140.0,16.904673,49.493126,53.613182,,153.43501,203.58167,204.28145,,60.120003,4.1150002,3.915,
2112,2026-01-18 00:00:00+00:00,0.8585,89.0,-0.7491492,-3.9907303,3.0,0.0,0.0,0.0,0.0,0.03,3.0,1000.7,995.9722,100.0,60.0,100.0,100.0,24140.0,17.906157,52.145348,56.162827,,149.82657,202.31563,202.7064,,64.079994,3.9650002,3.765,
2113,2026-01-18 01:00:00+00:00,0.70849997,89.0,-0.8971788,-4.072177,4.0,0.0,0.0,0.0,0.0,0.03,3.0,998.2,993.48157,100.0,57.0,100.0,94.0,22040.0,17.287498,55.794193,59.741405,,148.62704,199.60417,199.77245,,70.2,3.815,3.615,
2114,2026-01-18 02:00:00+00:00,0.5085,90.0,-0.9417678,-4.117189,5.0,0.0,0.0,0.0,0.0,0.03,3.0,995.4,990.6914,100.0,45.0,100.0,86.0,19940.0,16.179987,59.446888,63.80989,,147.72438,196.89873,197.07855,,77.03999,3.7150002,3.4650002,
2115,2026-01-18 03:00:00+00:00,0.3085,90.0,-1.139394,-4.2141347,7.0,0.0,0.0,0.0,0.0,0.03,3.0,993.1,988.3988,100.0,33.0,100.0,72.0,17840.0,15.277749,61.516823,65.92053,,145.56096,196.31393,196.51578,,81.72,3.515,3.315,
2116,2026-01-18 04:00:00+00:00,0.008499999,91.0,-1.2851653,-4.505089,9.0,0.0,0.0,0.0,0.0,0.03,3.0,991.4,986.70166,100.0,24.0,100.0,48.0,14620.0,15.072783,60.346992,64.73421,,139.84407,199.51596,199.5664,,82.799995,3.2150002,3.065,
2117,2026-01-18 05:00:00+00:00,-0.2915,92.0,-1.4331399,-4.856557,11.0,0.0,0.0,0.0,0.0,0.03,3.0,990.0,985.303,100.0,16.0,100.0,20.0,11420.0,15.281989,57.503166,61.644527,,133.09087,204.80017,205.03749,,81.36,2.915,2.7150002,
2118,2026-01-18 06:00:00+00:00,-0.49150002,92.0,-1.6312639,-5.1349993,13.0,0.0,0.0,0.0,0.0,0.03,3.0,988.8,984.1053,99.0,10.0,99.0,0.0,8200.0,15.629971,55.014076,58.98401,,128.45374,210.25635,210.71883,,77.4,2.765,2.615,
2119,2026-01-18 07:00:00+00:00,-0.4415,92.0,-1.5817326,-5.0458364,15.0,0.0,0.0,0.0,0.0,0.03,3.0,987.7,983.0115,84.0,8.0,81.0,0.0,13520.0,15.408671,52.939587,56.597477,,127.40543,215.3113,215.75398,,69.12,3.015,2.865,
2120,2026-01-18 08:00:00+00:00,-0.2915,91.0,-1.5819823,-4.8543577,17.0,0.0,0.0,0.0,0.0,0.03,2.0,986.8,982.11816,63.0,10.0,57.0,0.0,18820.0,15.124284,50.33438,54.20301,,128.23387,220.06784,220.60121,,58.679996,3.415,3.265,
2121,2026-01-18 09:00:00+00:00,0.0585,90.0,-1.3864294,-4.469386,19.0,0.0,0.0,0.0,0.0,0.03,1.0,985.9,981.22864,45.0,10.0,35.0,3.0,24140.0,15.072783,47.099503,50.4085,,130.15593,224.07104,224.40942,,49.32,3.665,3.515,
2122,2026-01-18 10:00:00+00:00,0.6585,89.0,-0.9465224,-3.8368826,21.0,0.0,0.0,0.0,0.0,0.03,1.0,985.1,980.4425,30.0,8.0,20.0,1.0,24140.0,15.281989,41.500053,44.182274,,133.09087,226.0543,226.34781,,43.199997,3.615,3.4650002,
2123,2026-01-18 11:00:00+00:00,1.4085001,88.0,-0.36183488,-3.000321,22.0,0.0,0.0,0.0,0.0,0.03,0.0,984.4,979.75854,17.0,6.0,8.0,0.0,24140.0,15.281989,34.126022,36.39018,,136.90913,226.70978,226.63654,,38.519997,3.415,3.265,
2124,2026-01-18 12:00:00+00:00,1.8585,87.0,-0.07593489,-2.5845678,23.0,0.0,0.0,0.0,0.0,0.03,0.0,983.8,979.169,17.0,5.0,0.0,7.0,24140.0,15.815435,28.266304,30.157473,,138.69148,226.5481,226.97493,,34.92,3.265,3.065,
2125,2026-01-18 13:00:00+00:00,1.7585001,88.0,-0.01688966,-2.8203511,23.0,0.0,0.0,0.0,0.0,0.03,1.0,983.3,978.66986,40.0,5.0,0.0,35.0,24140.0,16.80857,24.951921,26.253777,,136.73567,226.16905,226.70131,,32.399998,3.165,2.9650002,
2126,2026-01-18 14:00:00+00:00,1.3585,89.0,-0.25572556,-3.4437726,22.0,0.0,0.0,0.0,0.0,0.03,2.0,982.8,978.16534,74.0,6.0,0.0,73.0,24140.0,18.089775,22.91026,24.165012,,132.58046,224.9999,225.61598,,30.599998,3.065,2.915,
2127,2026-01-18 15:00:00+00:00,1.1085,90.0,-0.34890088,-3.7519512,21.0,0.0,0.0,0.0,0.0,0.03,3.0,982.5,977.8625,100.0,14.0,2.0,100.0,24140.0,18.391737,22.159746,23.65681,,130.23628,223.02507,223.11183,,30.599998,3.015,2.865,
2128,2026-01-18 16:00:00+00:00,1.3085,89.0,-0.3050673,-3.3177805,20.0,0.0,0.0,0.0,0.0,0.03,3.0,982.4,977.7665,100.0,37.0,1.0,100.0,24140.0,16.831684,24.014996,25.547436,,131.53168,220.13542,220.33307,,32.399998,2.9650002,2.815,
2129,2026-01-18 17:00:00+00:00,1.6085,88.0,-0.16472256,-2.6581283,19.0,0.0,0.0,0.0,0.0,0.03,3.0,982.4,977.77136,100.0,67.0,0.0,100.0,24140.0,14.512064,27.217524,29.326733,,136.00499,217.47626,217.87505,,35.64,2.915,2.765,
2130,2026-01-18 18:00:00+00:00,1.7585001,88.0,-0.01688966,-2.238573,19.0,0.0,0.0,0.0,0.0,0.03,3.0,982.5,977.8736,100.0,83.0,3.0,100.0,24140.0,12.819235,30.312769,32.485252,,141.84273,217.27826,217.64769,,38.519997,2.815,2.665,
2131,2026-01-18 19:00:00+00:00,1.4585,89.0,-0.1570424,-2.4971383,19.0,0.0,0.0,0.0,0.0,0.03,3.0,982.7,978.06744,100.0,74.0,11.0,100.0,24140.0,12.387348,32.219498,34.43817,,144.46223,219.55963,219.80553,,39.96,2.565,2.415,
2132,2026-01-18 20:00:00+00:00,0.9085,92.0,-0.24442804,-3.0742478,19.0,0.0,0.0,0.0,0.0,0.03,3.0,982.9,978.25726,100.0,51.0,22.0,100.0,24140.0,12.4811535,33.88019,36.13887,,146.76828,222.84703,222.93988,,40.68,2.265,2.065,
2133,2026-01-18 21:00:00+00:00,0.5085,93.0,-0.49227622,-3.5282276,20.0,0.0,0.0,0.0,0.0,0.03,3.0,982.9,978.25055,100.0,31.0,37.0,100.0,24140.0,12.594856,35.64182,38.194984,,149.03632,224.18163,224.61028,,42.48,2.065,1.865,
2134,2026-01-18 22:00:00+00:00,0.3085,93.0,-0.69063663,-3.7059505,21.0,0.0,0.0,0.0,0.0,0.03,3.0,982.6,977.94855,100.0,19.0,58.0,100.0,24140.0,12.24,38.214302,40.813023,,151.92761,222.70937,223.17593,,45.719997,2.015,1.815,
2135,2026-01-18 23:00:00+00:00,0.2585,92.0,-0.88830674,-3.6905382,22.0,0.0,0.0,0.0,0.0,0.03,3.0,982.2,977.54956,100.0,10.0,82.0,100.0,24140.0,11.592895,40.60985,43.76161,,154.23073,220.32576,220.91429,,50.039997,2.065,1.915,
2136,2026-01-19 00:00:00+00:00,0.1585,91.0,-1.1367583,-3.7351036,23.0,0.0,0.0,0.0,0.0,0.03,3.0,981.7,977.05005,100.0,5.0,99.0,100.0,24140.0,10.966713,43.010586,46.200443,,156.80138,218.8845,219.51381,,52.92,2.165,2.015,
2137,2026-01-19 01:00:00+00:00,0.0585,91.0,-1.2356962,-3.780561,25.0,0.0,0.0,0.0,0.0,0.03,3.0,981.1,976.45135,100.0,5.0,100.0,100.0,24140.0,10.495713,45.31569,48.552998,,157.8336,218.87308,219.47243,,54.36,2.315,2.165,
2138,2026-01-19 02:00:00+00:00,-0.041500002,90.0,-1.4852444,-3.867309,27.0,0.0,0.0,0.0,0.0,0.03,3.0,980.4,975.75287,100.0,8.0,100.0,100.0,24140.0,10.163227,46.784767,50.34015,,157.06787,219.69263,219.96616,,54.719997,2.515,2.365,
2139,2026-01-19 03:00:00+00:00,-0.09150001,90.0,-1.5346521,-3.8979578,29.0,0.0,0.0,0.0,0.0,0.03,3.0,979.9,975.25464,100.0,10.0,100.0,100.0,24140.0,9.983106,46.938255,50.50216,,154.35904,221.26851,221.46034,,54.36,2.7150002,2.515,
2140,2026-01-19 04:00:00+00:00,-0.1415,90.0,-1.58406,-3.9319534,31.0,0.0,0.0,0.0,0.0,0.03,3.0,979.7,975.0547,100.0,10.0,99.0,100.0,24140.0,9.826088,43.784054,47.028828,,151.55717,224.9999,225.31653,,51.48,2.865,2.665,
2141,2026-01-19 05:00:00+00:00,-0.1415,90.0,-1.58406,-3.9125881,32.0,0.0,0.0,0.0,0.0,0.03,3.0,979.6,974.9551,100.0,9.0,98.0,100.0,24140.0,9.693296,39.18712,42.12192,,148.67137,231.34016,231.73044,,47.88,3.015,2.815,
2142,2026-01-19 06:00:00+00:00,-0.041500002,90.0,-1.4852444,-3.8133264,32.0,0.0,0.0,0.0,0.0,0.03,3.0,979.7,975.05615,100.0,8.0,98.0,100.0,24140.0,9.793059,37.247387,39.962223,,143.97253,237.2315,237.77127,,46.8,3.065,2.915,
2143,2026-01-19 07:00:00+00:00,0.2085,91.0,-1.0872897,-3.6048012,30.0,0.0,0.0,0.0,0.0,0.03,3.0,979.9,975.2595,100.0,8.0,98.0,100.0,23480.0,10.464797,40.142822,42.75661,,139.18501,240.44641,241.23244,,51.839996,3.065,2.865,
2144,2026-01-19 08:00:00+00:00,0.5585,91.0,-0.74101126,-3.3492491,26.0,0.0,0.0,0.0,0.0,0.03,3.0,980.3,975.6637,100.0,8.0,99.0,100.0,22800.0,11.457958,45.086315,48.314655,,136.27295,242.412,242.8504,,59.399998,2.9650002,2.765,
2145,2026-01-19 09:00:00+00:00,0.95849997,92.0,-0.19489962,-3.015953,22.0,0.0,0.0,0.0,0.0,0.03,3.0,980.7,976.06854,100.0,8.0,100.0,100.0,22140.0,12.475961,48.461132,51.763012,,133.83095,243.05434,243.43501,,64.799995,2.865,2.665,
2146,2026-01-19 10:00:00+00:00,1.5085001,92.0,0.34990725,-2.53829,18.0,0.0,0.0,0.0,0.0,0.03,3.0,981.3,976.675,100.0,6.0,100.0,90.0,15300.0,13.551501,48.139145,51.438557,,129.61066,243.81825,244.16718,,64.439995,2.765,2.515,
2147,2026-01-19 11:00:00+00:00,2.1585,92.0,0.9937545,-1.9082785,15.0,0.0,0.0,0.0,0.0,0.03,3.0,982.0,977.3823,100.0,4.0,100.0,75.0,8440.0,14.4,46.37158,49.636547,,126.86999,244.23071,244.57317,,61.56,2.615,2.365,
2148,2026-01-19 12:00:00+00:00,2.6085,92.0,1.4394855,-1.5420296,13.0,0.0,0.0,0.0,0.0,0.03,3.0,982.6,977.9872,100.0,7.0,100.0,67.0,1600.0,15.484185,44.91929,48.1523,,125.537766,243.84572,244.21715,,59.76,2.4650002,2.265,
2149,2026-01-19 13:00:00+00:00,2.8085,91.0,1.4849372,-1.4808888,15.0,0.0,0.0,0.0,0.0,0.03,3.0,983.0,978.3887,100.0,16.0,100.0,70.0,2300.0,16.489416,45.281357,48.504314,,126.11943,240.98973,241.49356,,61.199997,2.365,2.165,
2150,2026-01-19 14:00:00+00:00,2.8585,90.0,1.3801949,-1.5856421,19.0,0.0,0.0,0.0,0.0,0.03,3.0,983.3,978.6879,100.0,30.0,98.0,78.0,2980.0,17.429354,46.44139,49.855038,,128.2902,237.66508,237.94989,,63.72,2.265,2.115,
2151,2026-01-19 15:00:00+00:00,2.7085001,90.0,1.2319927,-1.7283127,23.0,0.0,0.0,0.0,0.0,0.03,3.0,983.7,979.08356,100.0,45.0,89.0,86.0,3680.0,17.208603,47.526817,50.95727,,127.34943,236.43027,236.76828,,65.159996,2.2150002,2.065,
2152,2026-01-19 16:00:00+00:00,2.3085,92.0,1.1423326,-1.821785,27.0,0.0,0.0,0.0,0.0,0.03,3.0,984.2,979.5748,100.0,64.0,65.0,92.0,2900.0,15.0038395,47.852924,51.106754,,120.256355,238.22311,238.82436,,64.079994,2.115,1.9649999,
2153,2026-01-19 17:00:00+00:00,1.7585001,94.0,0.8959274,-2.0346909,31.0,0.0,0.0,0.0,0.0,0.03,3.0,984.9,980.2623,100.0,85.0,33.0,97.0,2140.0,12.413476,47.668404,50.948,,106.85848,242.08032,242.511,,62.279995,2.015,1.865,
2154,2026-01-19 18:00:00+00:00,1.4085001,96.0,0.8403649,-2.2144172,35.0,0.0,0.0,0.0,0.0,0.03,3.0,985.5,980.85333,100.0,100.0,10.0,100.0,1360.0,11.183201,47.70102,51.000973,,93.691315,245.9497,246.20515,,60.479996,2.165,2.015,
2155,2026-01-19 19:00:00+00:00,1.3585,97.0,0.93451124,-2.1940656,37.0,0.0,0.0,0.0,0.0,0.03,3.0,986.2,981.5493,100.0,100.0,3.0,100.0,5420.0,10.805999,47.27528,50.575623,,91.90912,249.49493,249.59003,,59.76,2.7150002,2.565,
2156,2026-01-19 20:00:00+00:00,1.5085001,97.0,1.0839913,-1.9804945,39.0,0.0,0.0,0.0,0.0,0.03,3.0,986.9,982.2486,100.0,100.0,4.0,100.0,9460.0,10.538843,47.033417,50.22335,,97.853226,253.09064,253.42113,,59.039997,3.515,3.365,
2157,2026-01-19 21:00:00+00:00,1.6585001,97.0,1.2334708,-1.7721047,40.0,0.0,0.0,0.0,0.0,0.03,3.0,987.6,982.9477,100.0,100.0,5.0,100.0,13520.0,10.308831,46.800003,49.995663,,102.09474,255.74994,255.96373,,58.32,4.015,3.865,
2158,2026-01-19 22:00:00+00:00,1.7585001,97.0,1.3331236,-1.6304512,40.0,0.0,0.0,0.0,0.0,0.03,3.0,988.4,983.74585,100.0,100.0,4.0,89.0,14960.0,10.137692,46.71269,49.907818,,106.50443,256.17792,256.373,,57.239998,4.065,3.915,
2159,2026-01-19 23:00:00+00:00,1.8085,97.0,1.3829498,-1.4886105,40.0,0.0,0.0,0.0,0.0,0.03,3.0,989.3,984.64215,100.0,100.0,2.0,73.0,16380.0,9.565437,46.541748,49.730305,,109.798965,255.21127,255.45032,,56.16,3.865,3.665,
2160,2026-01-20 00:00:00+00:00,1.8585,97.0,1.4327761,-1.3519297,39.0,0.0,0.0,0.0,0.0,0.03,3.0,990.1,985.43933,100.0,100.0,2.0,65.0,17820.0,9.028754,46.384148,49.91999,,113.49858,254.2378,254.63385,,55.8,3.665,3.4650002,
2161,2026-01-20 01:00:00+00:00,1.8585,97.0,1.4327761,-1.2563553,36.0,0.0,0.0,0.0,0.0,0.03,3.0,990.6,985.93695,100.0,100.0,2.0,71.0,14880.0,8.373386,46.730717,50.274395,,115.46331,254.3577,254.74483,,56.519997,3.565,3.365,
2162,2026-01-20 02:00:00+00:00,1.8585,98.0,1.5759643,-1.1146946,33.0,0.0,0.0,0.0,0.0,0.03,3.0,991.0,986.33514,100.0,100.0,3.0,84.0,11960.0,7.5685663,47.17511,50.372326,,115.34614,254.05453,254.3416,,57.6,3.4650002,3.265,
2163,2026-01-20 03:00:00+00:00,1.8085,98.0,1.5260797,-1.055831,29.0,0.0,0.0,0.0,0.0,0.03,3.0,991.4,986.7323,100.0,100.0,7.0,94.0,9020.0,6.763786,46.929974,50.11974,,115.20109,253.51117,253.82373,,57.96,3.315,3.115,
2164,2026-01-20 04:00:00+00:00,1.7585001,98.0,1.4761951,-1.0670681,25.0,0.0,0.0,0.0,0.0,0.03,3.0,991.8,987.1298,100.0,100.0,15.0,97.0,10640.0,6.439876,45.19541,48.3384,,116.56499,251.42064,251.84042,,57.6,3.015,2.815,
2165,2026-01-20 05:00:00+00:00,1.7585001,98.0,1.4761951,-1.0916915,22.0,0.0,0.0,0.0,0.0,0.02,3.0,992.2,987.52795,100.0,100.0,26.0,96.0,12240.0,6.6087217,42.853615,45.930794,,119.357666,248.82419,249.39023,,56.519997,2.665,2.4650002,
2166,2026-01-20 06:00:00+00:00,1.7585001,98.0,1.4761951,-1.1184878,19.0,0.0,0.0,0.0,0.0,0.02,3.0,992.4,987.72705,100.0,100.0,37.0,96.0,13860.0,6.792466,41.41408,44.43671,,122.00535,245.8858,246.61476,,55.079998,2.4650002,2.265,
2167,2026-01-20 07:00:00+00:00,1.8085,98.0,1.5260797,-1.0779376,18.0,0.0,0.0,0.0,0.0,0.02,3.0,992.4,987.7276,100.0,100.0,48.0,97.0,17280.0,6.9153743,41.53751,44.697247,,128.65984,243.21295,243.64565,,53.639996,2.515,2.315,
2168,2026-01-20 08:00:00+00:00,1.8585,98.0,1.5759643,-0.976146,18.0,0.0,0.0,0.0,0.0,0.02,3.0,992.3,987.62897,100.0,100.0,59.0,99.0,20720.0,6.618519,42.241364,45.397102,,135.0001,240.37634,240.94548,,52.199997,2.665,2.4650002,
2169,2026-01-20 09:00:00+00:00,2.0585,98.0,1.775503,-0.7532284,18.0,0.0,0.0,0.0,0.0,0.02,3.0,992.1,987.4333,100.0,100.0,70.0,100.0,24140.0,6.696387,42.476948,45.625534,,143.74608,238.86975,239.51114,,50.399998,2.915,2.7150002,
2170,2026-01-20 10:00:00+00:00,2.5085,96.0,1.9352463,-0.2157216,18.0,0.0,0.0,0.0,0.0,0.02,3.0,991.9,987.2417,100.0,100.0,81.0,100.0,24140.0,6.28713,41.616997,44.43671,,156.3706,239.88634,240.2552,,47.88,3.2150002,3.015,
2171,2026-01-20 11:00:00+00:00,3.0585,94.0,2.1867578,0.33745003,19.0,0.0,0.0,0.0,0.0,0.02,3.0,991.7,987.052,100.0,98.0,93.0,100.0,24140.0,6.5693827,39.771446,42.73292,,170.53775,242.50725,242.33333,,45.0,3.565,3.365,
2172,2026-01-20 12:00:00+00:00,3.3585,92.0,2.1823533,0.64831495,19.0,0.0,0.0,0.0,0.0,0.02,3.0,991.5,986.85815,100.0,89.0,100.0,100.0,24140.0,6.489992,37.674644,40.097137,,183.17976,243.9247,243.90463,,41.760002,3.765,3.565,
2173,2026-01-20 13:00:00+00:00,3.2585,92.0,2.0833058,0.56039,20.0,0.0,0.0,0.0,0.0,0.02,3.0,991.3,986.6572,100.0,62.0,100.0,100.0,24140.0,6.28713,34.45672,36.81255,,193.24052,242.63188,242.66772,,37.8,3.765,3.565,
2174,2026-01-20 14:00:00+00:00,2.9085,93.0,1.8879441,0.22398186,20.0,0.0,0.0,0.0,0.0,0.02,3.0,991.1,986.4522,100.0,28.0,100.0,100.0,24140.0,5.95906,30.811037,32.77078,,205.01686,239.84003,239.6974,,33.48,3.615,3.415,
2175,2026-01-20 15:00:00+00:00,2.5085,94.0,1.6406435,-0.21080112,21.0,0.0,0.0,0.0,0.0,0.02,3.0,990.9,986.2464,100.0,7.0,97.0,100.0,24140.0,5.904439,26.980793,28.862673,,217.56866,238.64297,238.5359,,30.239998,3.415,3.2150002,
2176,2026-01-20 16:00:00+00:00,2.1085,95.0,1.3909712,-0.64686203,22.0,0.0,0.0,0.0,0.0,0.02,3.0,990.8,986.1404,100.0,14.0,93.0,100.0,24140.0,5.8603754,23.675304,25.483934,,227.4896,241.87636,241.58743,,28.08,3.115,2.915,
2177,2026-01-20 17:00:00+00:00,1.7085,96.0,1.1389711,-1.0954952,23.0,0.0,0.0,0.0,0.0,0.02,3.0,990.7,986.03406,100.0,34.0,89.0,100.0,24140.0,5.904439,21.194187,22.926416,,232.43134,249.10216,248.36905,,27.0,2.665,2.515,
2178,2026-01-20 18:00:00+00:00,1.3585,96.0,0.7905968,-1.5600023,23.0,0.0,0.0,0.0,0.0,0.02,3.0,990.8,986.1276,100.0,52.0,83.0,100.0,24140.0,6.297428,19.211996,20.766409,,239.03632,257.00537,256.70142,,25.919998,2.265,2.115,
2179,2026-01-20 19:00:00+00:00,1.0085,96.0,0.44222042,-2.104109,22.0,0.0,0.0,0.0,0.0,0.02,3.0,990.9,986.2211,95.0,61.0,77.0,90.0,16180.0,7.24486,18.089775,19.195333,,243.43501,264.2895,264.50778,,24.84,1.7650001,1.665,
2180,2026-01-20 20:00:00+00:00,0.7585,95.0,0.04884076,-2.5803318,20.0,0.0,0.0,0.0,0.0,0.02,3.0,991.2,986.51556,89.0,67.0,70.0,78.0,8240.0,8.373386,17.283749,18.375994,,244.5367,271.19345,271.14572,,24.48,1.2650001,1.165,
2181,2026-01-20 21:00:00+00:00,0.6085,95.0,-0.10028752,-2.8488863,19.0,0.0,0.0,0.0,0.0,0.02,45.0,991.6,986.9108,85.0,68.0,60.0,70.0,280.0,9.028754,17.106628,18.24326,,246.50142,278.47107,279.27252,,24.119999,0.965,0.865,
2182,2026-01-20 22:00:00+00:00,0.70849997,96.0,0.14361006,-2.5940175,18.0,0.0,0.0,0.0,0.0,0.02,3.0,992.2,987.5099,86.0,57.0,42.0,73.0,7680.0,8.225035,17.76081,18.940426,,246.80139,287.7005,288.08353,,24.48,1.015,0.865,
2183,2026-01-20 23:00:00+00:00,1.0085,97.0,0.5857238,-2.038657,17.0,0.0,0.0,0.0,0.0,0.02,3.0,992.9,988.2117,90.0,41.0,20.0,81.0,15080.0,6.9527545,18.837322,20.048569,,248.74942,296.0753,296.09537,,24.84,1.2650001,1.065,
